"id","prefecture","place_name","street","floods","mudslides","high_tides","earthquakes","tsunami","fire","burst_pipe","volcano","lat","long"
58222,"京都府京都市","京都市立上賀茂小学校","京都府京都市北区上賀茂烏帽子ヶ垣内町1",TRUE,TRUE,,TRUE,,,TRUE,,35.05671792,135.7576444
58223,"京都府京都市","京都市立大宮小学校","京都府京都市北区大宮中ノ社町37",TRUE,TRUE,,TRUE,,,TRUE,,35.05904166,135.7462922
58224,"京都府京都市","京都市立紫竹小学校","京都府京都市北区紫竹下園生町26",TRUE,,,TRUE,,,TRUE,,35.05317639,135.7505997
58225,"京都府京都市","京都市立元町小学校","京都府京都市北区小山西元町14",TRUE,,,TRUE,,,TRUE,,35.05033593,135.7541563
58226,"京都府京都市","京都市立鳳徳小学校","京都府京都市北区紫野上鳥田町30",TRUE,,,TRUE,,,TRUE,,35.04517623,135.7522981
58227,"京都府京都市","京都市立紫明小学校","京都府京都市北区小山東大野町55",TRUE,,,TRUE,,,TRUE,,35.04305168,135.7569455
58228,"京都府京都市","京都市立紫野小学校","京都府京都市北区紫野下築山町21",TRUE,TRUE,,TRUE,,,TRUE,,35.03990958,135.7457044
58229,"京都府京都市","京都市立大将軍小学校","京都府京都市北区大将軍南一条町48-2",TRUE,,,TRUE,,,TRUE,,35.02443061,135.7284799
58230,"京都府京都市","京都市立衣笠小学校","京都府京都市北区平野宮本町19-6",TRUE,TRUE,,TRUE,,,TRUE,,35.03018619,135.7320032
58231,"京都府京都市","京都市立金閣小学校","京都府京都市北区平野上柳町61-1",TRUE,TRUE,,TRUE,,,TRUE,,35.03662166,135.7283181
58232,"京都府京都市","京都市立待鳳小学校","京都府京都市北区紫竹西北町1-3",TRUE,,,TRUE,,,TRUE,,35.04901642,135.7465148
58233,"京都府京都市","京都市立柊野小学校","京都府京都市北区上賀茂女夫岩町21",TRUE,TRUE,,TRUE,,,TRUE,,35.06952295,135.7453445
58234,"京都府京都市","京都市立加茂川中学校","京都府京都市北区紫竹上長目町5",TRUE,,,TRUE,,,TRUE,,35.05476036,135.7520072
58235,"京都府京都市","京都市立旭丘中学校","京都府京都市北区紫野東蓮台野町1",TRUE,,,TRUE,,,TRUE,,35.04681588,135.7403043
58236,"京都府京都市","京都市立衣笠中学校","京都府京都市北区衣笠衣笠山町2",TRUE,TRUE,,TRUE,,,TRUE,,35.03675104,135.7269209
58237,"京都府京都市","京都市立西賀茂中学校","京都府京都市北区西賀茂円峰2-26",TRUE,,,TRUE,,,TRUE,,35.07067641,135.7398425
58238,"京都府京都市","京都市立紫野高等学校","京都府京都市北区紫野大徳寺町22",TRUE,,,TRUE,,,TRUE,,35.04320295,135.7413378
58239,"京都府京都市","京都府立盲学校小学部・中学部","京都府京都市北区紫野大徳寺町27",TRUE,,,TRUE,,,TRUE,,35.04417277,135.7388256
58240,"京都府京都市","京都府立山城高等学校","京都府京都市北区大将軍坂田町29",TRUE,,,TRUE,,,TRUE,,35.0231198,135.7256797
58241,"京都府京都市","京都府立医科大学花園学舎","京都府京都市北区大将軍西鷹司町13-2",TRUE,,,TRUE,,,TRUE,,35.02293672,135.7276881
58242,"京都府京都市","立命館大学 京都衣笠体育館","京都府京都市北区等持院北町56-1",TRUE,TRUE,,TRUE,,,TRUE,,35.03258534,135.7243133
58243,"京都府京都市","京都産業大学","京都府京都市北区上賀茂本山",TRUE,,,TRUE,,,TRUE,,35.06883804,135.7571825
58244,"京都府京都市","大谷大学","京都府京都市北区小山上総町",TRUE,,,TRUE,,,TRUE,,35.04171572,135.7598479
58245,"京都府京都市","京都教育大学附属京都小学校","京都府京都市北区紫野東御所田町37",TRUE,TRUE,,TRUE,,,TRUE,,35.04039687,135.754519
58246,"京都府京都市","京都教育大学附属京都中学校","京都府京都市北区小山南大野町1",TRUE,TRUE,,TRUE,,,TRUE,,35.0397275,135.7552467
58247,"京都府京都市","京都市交響楽団練習場","京都府京都市出雲路立テ本町103",TRUE,,,TRUE,,,TRUE,,35.03891363,135.7645238
58248,"京都府京都市","元京都市立春日小学校","京都府京都市上京区丸太町通河原町西入高島町",TRUE,,,TRUE,,,TRUE,,35.01805243,135.7685347
58249,"京都府京都市","元京都市立西陣小学校","京都府京都市上京区上立売堀川西入幸在町689",TRUE,,,TRUE,,,TRUE,,35.03242398,135.7498184
58250,"京都府京都市","元京都市立聚楽小学校","京都府京都市上京区葭屋町通中立売下ル北俵町317",TRUE,,,TRUE,,,TRUE,,35.02441738,135.7510257
58251,"京都府京都市","元京都市立待賢小学校","京都府京都市上京区猪熊通丸太町下ル藁屋町536-1",TRUE,,,TRUE,,,TRUE,,35.01716085,135.7499786
58252,"京都府京都市","京都まなびの街生き方探究館","京都府京都市上京区西洞院通下立売下ル東裏辻町402",TRUE,,,TRUE,,,TRUE,,35.01959042,135.7545813
58253,"京都府京都市","京都市立京極小学校","京都府京都市上京区寺町通石薬師下ル西側染殿町658",TRUE,,,TRUE,,,TRUE,,35.02765016,135.7673016
58254,"京都府京都市","京都市立室町小学校","京都府京都市上京区室町通上立売上ル室町頭町261",TRUE,,,TRUE,,,TRUE,,35.03346523,135.7583868
58255,"京都府京都市","京都市立新町小学校","京都府京都市上京区中立売通室町西入三丁町457",TRUE,,,TRUE,,,TRUE,,35.02526959,135.7560202
58256,"京都府京都市","京都市立西陣中央小学校","京都府京都市上京区大宮通今出川上ル観世町135-1",TRUE,,,TRUE,,,TRUE,,35.0305486,135.7478752
58257,"京都府京都市","京都市立翔鸞小学校","京都府京都市上京区御前通今出川上ル鳥居前町671",TRUE,,,TRUE,,,TRUE,,35.03192543,135.7382173
58258,"京都府京都市","京都市立仁和小学校","京都府京都市上京区御前通一条下ル東竪町132-1",TRUE,,,TRUE,,,TRUE,,35.02565755,135.7368917
58259,"京都府京都市","京都市立二条城北小学校","京都府京都市上京区浄福寺通下立売下ル中務町487",TRUE,,,TRUE,,,TRUE,,35.01915341,135.7453171
58260,"京都府京都市","京都市立正親小学校","京都府京都市上京区浄福寺通中立売下ル菱丸町173",TRUE,,,TRUE,,,TRUE,,35.02443511,135.7459623
58261,"京都府京都市","京都市立烏丸中学校","京都府京都市上京区烏丸通上立売上ル相国寺門前町647-23",TRUE,,,TRUE,,,TRUE,,35.03468575,135.7599446
58262,"京都府京都市","京都市立上京中学校","京都府京都市上京区一条通室町西入東日野殿町395・396",TRUE,,,TRUE,,,TRUE,,35.02577948,135.7575615
58263,"京都府京都市","京都市立二条中学校","京都府京都市上京区竹屋町通千本東入主税町911",TRUE,,,TRUE,,,TRUE,,35.01546083,135.7445964
58264,"京都府京都市","京都市立みつば幼稚園","京都府京都市上京区小川通今出川下ル針屋町370",TRUE,,,TRUE,,,TRUE,,35.02915775,135.7539916
58265,"京都府京都市","京都市立北総合支援学校","京都府京都市上京区堀川通寺之内上ル2丁目下天神町650-1",TRUE,,,TRUE,,,TRUE,,35.03535118,135.750674
58266,"京都府京都市","京都府立鴨沂高等学校","京都府京都市上京区寺町通荒神口下ル松蔭町131",TRUE,,,TRUE,,,TRUE,,35.02071292,135.7680081
58267,"京都府京都市","旧京都産業大学附属中学校・高等学校","京都府京都市上京区相国寺門前町709",TRUE,,,TRUE,,,TRUE,,35.03438968,135.7629101
58268,"京都府京都市","京都市立錦林小学校","京都府京都市左京区岡崎入江町1-1",TRUE,TRUE,,TRUE,,,TRUE,,35.01812939,135.782411
58269,"京都府京都市","京都市立第四錦林小学校","京都府京都市左京区吉田上阿達町15-2",TRUE,TRUE,,TRUE,,,TRUE,,35.02546612,135.7745802
58270,"京都府京都市","元京都市立新洞小学校","京都府京都市左京区仁王門通新東洞院西入新東洞院町252",TRUE,,,TRUE,,,TRUE,,35.01238356,135.7748187
58271,"京都府京都市","京都市立北白川小学校","京都府京都市左京区北白川別当町70",TRUE,TRUE,,TRUE,,,TRUE,,35.032025,135.7929364
58272,"京都府京都市","京都市立養正小学校","京都府京都市左京区田中飛鳥井町1",TRUE,,,TRUE,,,TRUE,,35.03236389,135.77885
58273,"京都府京都市","京都市立養徳小学校","京都府京都市左京区田中上大久保町24",TRUE,,,TRUE,,,TRUE,,35.03764898,135.7832325
58274,"京都府京都市","京都市立下鴨小学校","京都府京都市左京区下鴨宮崎町4-2",TRUE,,,TRUE,,,TRUE,,35.03741256,135.7684622
58275,"京都府京都市","京都市立葵小学校","京都府京都市左京区下鴨東梅ノ木町8",TRUE,,,TRUE,,,TRUE,,35.04550239,135.7732819
58276,"京都府京都市","京都市立修学院小学校","京都府京都市左京区修学院沖殿町1",TRUE,TRUE,,TRUE,,,TRUE,,35.05298418,135.7943267
58277,"京都府京都市","京都市立修学院第二小学校","京都府京都市左京区一乗寺里ノ西町35",TRUE,,,TRUE,,,TRUE,,35.04478349,135.7886697
58278,"京都府京都市","京都市立上高野小学校","京都府京都市左京区上高野松田町8",TRUE,TRUE,,TRUE,,,TRUE,,35.06128283,135.7952581
58279,"京都府京都市","京都市立松ヶ崎小学校","京都府京都市左京区松ヶ崎堀町40",TRUE,TRUE,,TRUE,,,TRUE,,35.05333076,135.7821715
58280,"京都府京都市","京都市立明徳小学校","京都府京都市左京区岩倉忠在地町221",TRUE,TRUE,,TRUE,,,TRUE,,35.07523203,135.7866217
58281,"京都府京都市","京都市立岩倉南小学校","京都府京都市左京区岩倉北四ノ坪町33",TRUE,TRUE,,TRUE,,,TRUE,,35.06732875,135.784992
58282,"京都府京都市","京都市立岩倉北小学校","京都府京都市左京区岩倉忠在地町5",TRUE,TRUE,,TRUE,,,TRUE,,35.0856988,135.788484
58283,"京都府京都市","京都市立市原野小学校","京都府京都市左京区静市野中町105",TRUE,TRUE,,TRUE,,,TRUE,,35.08985506,135.7646077
58284,"京都府京都市","京都市立白河総合支援学校","京都府京都市左京区岡崎東福ノ川町9-2",,TRUE,,TRUE,,,,,35.02026048,135.7845901
58285,"京都府京都市","京都市立岡崎中学校","京都府京都市左京区岡崎東天王町1",TRUE,TRUE,,TRUE,,,TRUE,,35.01631929,135.7901172
58286,"京都府京都市","京都市立高野中学校","京都府京都市左京区田中上古川町25",TRUE,,,TRUE,,,TRUE,,35.0399481,135.7831913
58287,"京都府京都市","京都市立下鴨中学校","京都府京都市左京区下鴨泉川町40-1",TRUE,,,TRUE,,,TRUE,,35.03854076,135.7749431
58288,"京都府京都市","京都市立近衛中学校","京都府京都市左京区吉田近衛町26-53",TRUE,TRUE,,TRUE,,,TRUE,,35.02176312,135.7798586
58289,"京都府京都市","京都市立修学院中学校","京都府京都市左京区一乗寺御祭田町2",TRUE,,,TRUE,,,TRUE,,35.04245594,135.7885355
58290,"京都府京都市","京都市立洛北中学校","京都府京都市左京区岩倉忠在地町823",TRUE,TRUE,,TRUE,,,TRUE,,35.0703703,135.787309
58291,"京都府京都市","京都市武道センター","京都府京都市左京区聖護院円頓美町46-2",TRUE,,,TRUE,,,TRUE,,35.01699154,135.7807941
58292,"京都府京都市","京都府立洛北高等学校","京都府京都市左京区下鴨梅ノ木町59",TRUE,,,TRUE,,,TRUE,,35.04654461,135.7714295
58293,"京都府京都市","京都府立北稜高等学校","京都府京都市左京区岩倉幡枝町2105",TRUE,TRUE,,TRUE,,,TRUE,,35.07022496,135.773017
58294,"京都府京都市","京都ノートルダム女子大学","京都府京都市左京区下鴨南野々神町1",TRUE,,,TRUE,,,TRUE,,35.05070445,135.7723571
58295,"京都府京都市","京都精華大学","京都府京都市左京区岩倉木野町137",TRUE,,,TRUE,,,TRUE,,35.0731376,135.770978
58296,"京都府京都市","同志社中学校・高等学校 南体育館","京都府京都市左京区岩倉大鷺町89",TRUE,TRUE,,TRUE,,,TRUE,,35.06681333,135.7861404
58297,"京都府京都市","京都工芸繊維大学","京都府京都市左京区松ヶ崎橋上町",TRUE,TRUE,,TRUE,,,TRUE,,35.05004017,135.782933
58298,"京都府京都市","元京都市立生祥小学校","京都府京都市中京区富小路通六角下ル骨屋之町549",TRUE,,,TRUE,,,TRUE,,35.00679155,135.7652977
58299,"京都府京都市","元京都市立教業小学校","京都府京都市中京区大宮通御池下ル三坊大宮町121-2",TRUE,,,TRUE,,,TRUE,,35.00991211,135.7481762
58300,"京都府京都市","元京都市立立誠小学校","京都府京都市中京区蛸薬師通河原町東入備前島町310-2",TRUE,,,TRUE,,,TRUE,,35.00597373,135.7702898
58301,"京都府京都市","京都市教育相談総合センター","京都府京都市中京区姉小路通東洞院東入曇華院前町706-3",TRUE,,,TRUE,,,TRUE,,35.00962752,135.7617083
58302,"京都府京都市","京都市立御所南小学校","京都府京都市中京区柳馬場通夷川上ル五町目242",TRUE,,,TRUE,,,TRUE,,35.01596341,135.7644781
58303,"京都府京都市","京都市立高倉小学校","京都府京都市中京区高倉通六角下ル和久屋町343",TRUE,,,TRUE,,,TRUE,,35.00662181,135.762103
58304,"京都府京都市","京都市立洛中小学校","京都府京都市中京区壬生坊城町57-1",TRUE,,,TRUE,,,TRUE,,35.00598501,135.7473804
58305,"京都府京都市","京都市立朱雀第一小学校","京都府京都市中京区壬生朱雀町8-2",TRUE,,,TRUE,,,TRUE,,35.00706829,135.7438009
58306,"京都府京都市","京都市立朱雀第二小学校","京都府京都市中京区西ノ京左馬寮町3-1",TRUE,,,TRUE,,,TRUE,,35.01788369,135.7367832
58307,"京都府京都市","京都市立朱雀第三小学校","京都府京都市中京区壬生松原町81",TRUE,,,TRUE,,,TRUE,,34.99846436,135.7398885
58308,"京都府京都市","京都市立朱雀第四小学校","京都府京都市中京区西ノ京笠殿町164",TRUE,,,TRUE,,,TRUE,,35.01400682,135.7343343
58309,"京都府京都市","京都市立朱雀第六小学校","京都府京都市中京区西ノ京車坂町15-5",TRUE,,,TRUE,,,TRUE,,35.01684913,135.7384754
58310,"京都府京都市","京都市立朱雀第七小学校","京都府京都市中京区壬生東土居ノ内町20",TRUE,,,TRUE,,,TRUE,,35.00303159,135.7354342
58311,"京都府京都市","京都市立朱雀第八小学校","京都府京都市中京区西ノ京中御門西町25",TRUE,,,TRUE,,,TRUE,,35.01688652,135.7288104
58312,"京都府京都市","京都市立京都御池中学校","京都府京都市中京区柳馬場通御池上ル虎石町45-3",TRUE,,,TRUE,,,TRUE,,35.01177159,135.7642554
58313,"京都府京都市","京都市立朱雀中学校","京都府京都市中京区壬生中川町20-1",TRUE,,,TRUE,,,TRUE,,35.00701218,135.7364981
58314,"京都府京都市","京都市立中京中学校","京都府京都市中京区西ノ京北聖町51",TRUE,,,TRUE,,,TRUE,,35.01292701,135.7436254
58315,"京都府京都市","京都市立北野中学校","京都府京都市中京区西ノ京中保町1-4",TRUE,,,TRUE,,,TRUE,,35.02177559,135.7314322
58316,"京都府京都市","京都市立松原中学校","京都府京都市中京区壬生相合町1",TRUE,,,TRUE,,,TRUE,,34.99988744,135.7478026
58317,"京都府京都市","京都市立西ノ京中学校","京都府京都市中京区西ノ京永本町7-1",TRUE,,,TRUE,,,TRUE,,35.01264409,135.7381984
58318,"京都府京都市","京都市立堀川高等学校","京都府京都市中京区東堀川通錦小路上ル四坊堀川町622-2",TRUE,,,TRUE,,,TRUE,,35.00576198,135.7522322
58319,"京都府京都市","京都市立西京高等学校","京都府京都市中京区西ノ京東中合町1",TRUE,,,TRUE,,,TRUE,,35.01173955,135.7308585
58320,"京都府京都市","京都市立銅駝美術工芸高等学校","京都府京都市中京区土手町通竹屋町下ル鉾田町542",TRUE,,,TRUE,,,TRUE,,35.01483846,135.7701205
58321,"京都府京都市","京都市生涯学習総合センター","京都府京都市中京区聚楽廻松下町9-2",TRUE,,,TRUE,,,TRUE,,35.01897806,135.7384435
58322,"京都府京都市","京都国際マンガミュージアム","京都府京都市中京区烏丸通御池上ル金吹町452",TRUE,,,TRUE,,,TRUE,,35.01168374,135.7589538
58323,"京都府京都市","京都芸術センター","京都府京都市中京区室町通蛸薬師下ル山伏山町546-2",TRUE,,,TRUE,,,TRUE,,35.00544166,135.7583892
58324,"京都府京都市","京都市男女共同参画センター","京都府京都市中京区東洞院通六角下ル御射山町262",TRUE,,,TRUE,,,TRUE,,35.00686283,135.7614005
58325,"京都府京都市","京都府立朱雀高等学校","京都府京都市中京区西ノ京式部町1",TRUE,,,TRUE,,,TRUE,,35.01419163,135.745057
58326,"京都府京都市","花園大学","京都府京都市中京区西ノ京壺ノ内町8-1",TRUE,,,TRUE,,,TRUE,,35.01705813,135.725948
58327,"京都府京都市","洛陽総合高等学校","京都府京都市中京区西ノ京春日町8",TRUE,,,TRUE,,,TRUE,,35.01761427,135.7277629
58328,"京都府京都市","京都両洋高等学校","京都府京都市中京区壬生上大竹町13",TRUE,,,TRUE,,,TRUE,,35.00781105,135.7339733
58329,"京都府京都市","京都市立京都堀川音楽高等学校","京都府京都市中京区油小路通御池押油小路町238-1",TRUE,,,TRUE,,,TRUE,,35.011932,135.752765
58330,"京都府京都市","京都市こどもみらい館","京都府京都市中京区間之町通竹屋町下ル楠町601-1",TRUE,,,TRUE,,,TRUE,,35.0155273,135.7612184
58331,"京都府京都市","京都市立中京もえぎ幼稚園","京都府京都市中京区間之町通竹屋町下ル楠町601-1",TRUE,,,TRUE,,,TRUE,,35.0155273,135.7612184
58332,"京都府京都市","京都市子ども保健医療相談・事故防止センター「京（みやこ）あんしんこども館」","京都府京都市中京区釜座通丸太町上ル梅屋町174-3",TRUE,,,TRUE,,,TRUE,,35.01781037,135.7558799
58333,"京都府京都市","職員会館かもがわ","京都府京都市中京区土手町通夷川上ル末丸町284",TRUE,,,TRUE,,,TRUE,,35.01564944,135.7708119
58334,"京都府京都市","京都市立堀川高等学校本能館及び本能自治会館","京都府京都市中京区元本能寺南町３４６",TRUE,,,TRUE,,,TRUE,,35.00575178,135.7539022
58335,"京都府京都市","元京都市立有済小学校","京都府京都市東山区大和大路通三条下ル東入若松町393",TRUE,,,TRUE,,,TRUE,,35.00769998,135.7738047
58336,"京都府京都市","元京都市立白川小学校","京都府京都市東山区三条通白川橋東入三丁目夷町175-2",TRUE,TRUE,,TRUE,,,TRUE,,35.00882071,135.783611
58337,"京都府京都市","元京都市立新道小学校","京都府京都市東山区大和大路通四条下ル四丁目小松町130",TRUE,,,TRUE,,,TRUE,,34.99960123,135.7717198
58338,"京都府京都市","元京都市立月輪小学校","京都府京都市東山区本町通三ノ橋上ル本町十七丁目358",TRUE,TRUE,,TRUE,,,TRUE,,34.9778093,135.7716278
58339,"京都府京都市","京都市立開睛小・中学校","京都府京都市東山区六波羅裏門通東入多門町155",TRUE,TRUE,,TRUE,,,TRUE,,34.996241,135.774162
58340,"京都府京都市","京都市立日吉ケ丘高等学校","京都府京都市東山区今熊野悲田院山町5-22",TRUE,TRUE,,TRUE,,,TRUE,,34.97875046,135.7755043
58341,"京都府京都市","京都府立陶工高等技術専門校","京都府京都市東山区今熊野阿弥陀ヶ峰町17-2",TRUE,,,TRUE,,,TRUE,,34.99072691,135.7819913
58342,"京都府京都市","大谷中学校・大谷高等学校","京都府京都市東山区今熊野池田町12",TRUE,TRUE,,TRUE,,,TRUE,,34.98413122,135.7719502
58343,"京都府京都市","京都市立白河総合支援学校東山分校","京都府京都市東山区東大路渋谷下ル妙法院前側町441",TRUE,TRUE,,TRUE,,,TRUE,,34.99201268,135.7756398
58344,"京都府京都市","京都市立東山泉小中学校 東学舎","京都府京都市東山区泉涌寺山内町5",TRUE,TRUE,,TRUE,,,TRUE,,34.97963903,135.7782509
58345,"京都府京都市","華頂女子高等学校","京都府京都市東山区林下町3-456",TRUE,TRUE,,TRUE,,,TRUE,,35.0068558,135.7807445
58346,"京都府京都市","京都女子中・高等学校","京都府京都市東山区今熊野北日吉町17",TRUE,TRUE,,TRUE,,,TRUE,,34.99009621,135.7770175
58347,"京都府京都市","知恩院 和順会館","京都府京都市東山区林下町400-2",TRUE,TRUE,,TRUE,,,TRUE,,35.00456153,135.7803668
58348,"京都府京都市","妙法院","京都府京都市東山区妙法院前側町447",TRUE,TRUE,,TRUE,,,TRUE,,34.9904045,135.7755621
58349,"京都府京都市","大谷本廟","京都府京都市東山区五条橋東六丁目514",TRUE,TRUE,,TRUE,,,TRUE,,34.99342088,135.777234
58350,"京都府京都市","東福寺","京都府京都市東山区本町十五丁目778",TRUE,TRUE,,TRUE,,,TRUE,,34.9767345,135.7742716
58351,"京都府京都市","立正佼成会 京都教会","京都府京都市東山区三条白川橋東入ル5丁目東町230",TRUE,TRUE,,TRUE,,,TRUE,,35.00988889,135.7859412
58352,"京都府京都市","京都華頂大学・華頂短期大学(７号館 体育館)","京都府京都市東山区林下町3-456",TRUE,TRUE,,TRUE,,,TRUE,,35.00680356,135.779876
58353,"京都府京都市","京都市立東山泉小中学校 西学舎","京都府京都市東山区大和大路通七条下ル5丁目下池田町527",TRUE,TRUE,,TRUE,,,TRUE,,34.98393285,135.7707961
58354,"京都府京都市","弥栄自治会館","京都府京都市東山区祇園町南側",TRUE,TRUE,,TRUE,,,TRUE,,35.0032,135.77691
58355,"京都府京都市","漢検　漢字博物館・図書館","京都府京都市東山区祇園町南側５５１番地",,TRUE,,,,,,,35.00318,135.77636
58356,"京都府京都市","京都市立山階小学校","京都府京都市山科区西野大手先町21",TRUE,,,TRUE,,,TRUE,,34.98334041,135.8131355
58357,"京都府京都市","京都市立鏡山小学校","京都府京都市山科区御陵血洗町18",TRUE,TRUE,,TRUE,,,TRUE,,34.99079852,135.8063132
58358,"京都府京都市","京都市立音羽小学校","京都府京都市山科区音羽森廻り町32",TRUE,TRUE,,TRUE,,,TRUE,,34.98593835,135.8253539
58359,"京都府京都市","京都市立勧修小学校","京都府京都市山科区勧修寺東栗栖野町42",TRUE,,,TRUE,,,TRUE,,34.97021697,135.8083147
58360,"京都府京都市","京都市立安朱小学校","京都府京都市山科区安朱山川町17",TRUE,TRUE,,TRUE,,,TRUE,,34.99615224,135.8182357
58361,"京都府京都市","京都市立山階南小学校","京都府京都市山科区東野八代10",TRUE,,,TRUE,,,TRUE,,34.97738655,135.8078332
58362,"京都府京都市","京都市立陵ケ岡小学校","京都府京都市山科区御陵岡町45",TRUE,TRUE,,TRUE,,,TRUE,,34.99262652,135.8030005
58363,"京都府京都市","京都市立大宅小学校","京都府京都市山科区大宅五反畑町69-2",TRUE,TRUE,,TRUE,,,TRUE,,34.97417966,135.8238936
58364,"京都府京都市","京都市立百々小学校","京都府京都市山科区西野山百々町173-1",TRUE,TRUE,,TRUE,,,TRUE,,34.97689968,135.7961774
58365,"京都府京都市","京都市立大塚小学校","京都府京都市山科区大塚野溝町59",TRUE,TRUE,,TRUE,,,TRUE,,34.98302524,135.8299903
58366,"京都府京都市","京都市立音羽川小学校","京都府京都市山科区音羽西林36",TRUE,,,TRUE,,,TRUE,,34.98282343,135.8209175
58367,"京都府京都市","京都市立小野小学校","京都府京都市山科区小野蚊ヶ瀬町2",TRUE,TRUE,,TRUE,,,TRUE,,34.96333347,135.8117661
58368,"京都府京都市","京都市立西野小学校","京都府京都市山科区西野櫃川町34",TRUE,,,TRUE,,,TRUE,,34.98216717,135.8033864
58369,"京都府京都市","京都市立山科中学校","京都府京都市山科区東野八反畑町50-1",TRUE,,,TRUE,,,TRUE,,34.97695862,135.8103557
58370,"京都府京都市","京都市立音羽中学校","京都府京都市山科区大塚野溝町86",TRUE,TRUE,,TRUE,,,TRUE,,34.98286966,135.8284027
58371,"京都府京都市","京都市立花山中学校","京都府京都市山科区北花山横田町27-1",TRUE,TRUE,,TRUE,,,TRUE,,34.9892649,135.8028162
58372,"京都府京都市","京都市立安祥寺中学校","京都府京都市山科区西野今屋敷町9-6",TRUE,,,TRUE,,,TRUE,,34.98597074,135.8128482
58373,"京都府京都市","京都市立勧修中学校","京都府京都市山科区勧修寺平田町92",TRUE,TRUE,,TRUE,,,TRUE,,34.9662452,135.8120351
58374,"京都府京都市","京都市立大宅中学校","京都府京都市山科区大宅山田113",TRUE,TRUE,,TRUE,,,TRUE,,34.96705161,135.8215615
58375,"京都府京都市","京都市立東総合支援学校","京都府京都市山科区大塚高岩3",TRUE,,,TRUE,,,TRUE,,34.97890683,135.8317893
58376,"京都府京都市","山科地域体育館","京都府京都市山科区椥辻西浦町1-12",TRUE,,,TRUE,,,TRUE,,34.9769072,135.8136837
58377,"京都府京都市","京都市生涯学習総合センター山科","京都府京都市山科区竹鼻竹ノ街道町92 ラクト山科C棟2階",TRUE,TRUE,,TRUE,,,TRUE,,34.99009606,135.8176434
58378,"京都府京都市","京都府立洛東高等学校","京都府京都市山科区安朱川向町10",TRUE,,,TRUE,,,TRUE,,34.99683102,135.8170773
58379,"京都府京都市","一燈園小学校・中学校・高等学校","京都府京都市山科区四ノ宮柳山町29",TRUE,,,TRUE,,,TRUE,,34.99559108,135.8285934
58380,"京都府京都市","京都薬科大学","京都府京都府京都市山科区御陵中内町5",TRUE,TRUE,,TRUE,,,TRUE,,34.99111628,135.8092223
58381,"京都府京都市","京都橘大学","京都府京都市山科区大宅山田町34",TRUE,,,TRUE,,,TRUE,,34.96853602,135.8261287
58382,"京都府京都市","本願寺山科別院","京都府京都市山科区東野狐藪町2",TRUE,,,TRUE,,,TRUE,,34.9834139,135.8153726
58383,"京都府京都市","東本願寺山科別院長福寺","京都府京都市山科区竹鼻サイカシ町13-17",TRUE,,,TRUE,,,TRUE,,34.98576158,135.8142605
58384,"京都府京都市","デイサービス 小鳥のさえずり しらかば苑","京都府京都市山科区厨子奥花鳥町1-144",TRUE,,,TRUE,,,TRUE,,35.00165345,135.7919187
58385,"京都府京都市","元京都市立格致小学校","京都府京都市下京区高辻通堀川東入西高辻町",TRUE,,,TRUE,,,TRUE,,35.00062639,135.7533376
58386,"京都府京都市","元京都市立有隣小学校","京都府京都市下京区富小路通五条上ル本神明町",TRUE,,,TRUE,,,TRUE,,34.99715108,135.7643848
58387,"京都府京都市","京都市学校歴史博物館","京都府京都市下京区御幸町通仏光寺下ル橘町437",TRUE,,,TRUE,,,TRUE,,35.00073658,135.7659172
58388,"京都府京都市","元京都市立安寧小学校","京都府京都市下京区東堀川通木津屋橋下ル御方紺屋町1",TRUE,,,TRUE,,,TRUE,,34.987504,135.7525683
58389,"京都府京都市","京都市立淳風小学校","京都府京都市下京区大宮通花屋町上ル柿本町609-1",TRUE,,,TRUE,,,TRUE,,34.99329272,135.7495406
58390,"京都府京都市","京都市立醒泉小学校","京都府京都市下京区醒ヶ井通松原下ル篠屋町59",TRUE,,,TRUE,,,TRUE,,34.99818599,135.7528798
58391,"京都府京都市","京都市立洛央小学校","京都府京都市下京区仏光寺通東洞院東入仏光寺西町345-1",TRUE,,,TRUE,,,TRUE,,35.00170189,135.7617556
58392,"京都府京都市","元京都市立植柳小学校","京都府京都市下京区西洞院通花屋町下ル西洞院町466",TRUE,,,TRUE,,,TRUE,,34.99216892,135.7547831
58393,"京都府京都市","元京都市立六条院小学校","京都府京都市下京区河原町通上枳殻馬場上ル若松町420",TRUE,,,TRUE,,,TRUE,,34.99279301,135.7629521
58394,"京都府京都市","京都市立梅小路小学校","京都府京都市下京区観喜寺町3",TRUE,,,TRUE,,,TRUE,,34.98827377,135.7451614
58395,"京都府京都市","京都市立七条小学校","京都府京都市下京区西七条石井町61",TRUE,,,TRUE,,,TRUE,,34.98717357,135.735116
58396,"京都府京都市","京都市立七条第三小学校","京都府京都市下京区西七条西石ヶ坪町5",TRUE,,,TRUE,,,TRUE,,34.99319523,135.7331854
58397,"京都府京都市","元京都市立崇仁小学校","京都府京都市下京区川端町16",TRUE,,,TRUE,,,TRUE,,34.98664326,135.766962
58398,"京都府京都市","京都市立西大路小学校","京都府京都市下京区七条御所ノ内西町71-1",TRUE,,,TRUE,,,TRUE,,34.9871525,135.7278315
58399,"京都府京都市","京都市立光徳小学校","京都府京都市下京区中堂寺坊城町26-1",TRUE,,,TRUE,,,TRUE,,34.99728192,135.744011
58400,"京都府京都市","京都市立洛友中学校(元郁文中学校)","京都府京都市下京区大宮通綾小路下ル綾大宮町51-2",TRUE,,,TRUE,,,TRUE,,35.00187657,135.7486896
58401,"京都府京都市","元京都市立梅逕中学校","京都府京都市下京区大宮通八条上ル三丁目東側垣ケ内町248",TRUE,,,TRUE,,,TRUE,,34.98645351,135.7494457
58402,"京都府京都市","京都市立七条中学校","京都府京都市下京区西七条御領町32",TRUE,,,TRUE,,,TRUE,,34.99142597,135.7377211
58403,"京都府京都市","下京地域体育館","京都府京都市下京区川端町13",TRUE,,,TRUE,,,TRUE,,34.98640137,135.7662933
58404,"京都府京都市","京都市総合教育センター","京都府京都市下京区河原町通松原上ル二丁目富永町344",TRUE,,,TRUE,,,TRUE,,35.00223113,135.7680559
58405,"京都府京都市","京都市修徳特別養護老人ホーム","京都府京都市下京区新町通松原下ル富永町110-1",TRUE,,,TRUE,,,TRUE,,34.99797934,135.7569249
58406,"京都府京都市","ひと・まち交流館 京都","京都府京都市下京区西木屋町通上ノ口上ル梅湊町83-1",TRUE,,,TRUE,,,TRUE,,34.99322865,135.7651094
58407,"京都府京都市","京都市立下京中学校","京都府京都市下京区楊梅通新町東入蛭子町120-1",TRUE,,,TRUE,,,TRUE,,34.99524222,135.7572522
58408,"京都府京都市","京都市立下京中学校成徳学舎","京都府京都市下京区高辻通室町西入繁昌町290",TRUE,,,TRUE,,,TRUE,,34.999999,135.757445
58409,"京都府京都市","京都市立下京渉成小学校","京都府京都市下京区皆山町438-1",TRUE,,,TRUE,,,TRUE,,34.9900678,135.7623209
58410,"京都府京都市","池坊学園","京都府京都市下京区室町通四条下ル鶏鉾町491",TRUE,,,TRUE,,,TRUE,,35.00305103,135.7579273
58411,"京都府京都市","龍谷大学付属 平安中学校・平安高等学校","京都府京都市下京区御器屋町30",TRUE,,,TRUE,,,TRUE,,34.9901847,135.7483592
58412,"京都府京都市","京都産業大学附属中学校・高等学校","京都府京都市下京区中堂寺命婦町1-10",TRUE,,,TRUE,,,TRUE,,34.99792017,135.7445288
58413,"京都府京都市","京都市立九条弘道小学校","京都府京都市南区西九条春日町13",TRUE,,,TRUE,,,TRUE,,34.98105584,135.754696
58414,"京都府京都市","京都市立九条塔南小学校","京都府京都市南区西九条御幸田町109",TRUE,,,TRUE,,,TRUE,,34.97597371,135.7484903
58415,"京都府京都市","京都市立南大内小学校","京都府京都市南区八条内田町20-2",TRUE,,,TRUE,,,TRUE,,34.98057266,135.7444296
58416,"京都府京都市","京都市立唐橋小学校","京都府京都市南区唐橋西寺町65",TRUE,,,TRUE,,,TRUE,,34.97992905,135.7380182
58417,"京都府京都市","元京都市立陶化小学校","京都府京都市南区東九条中御霊町55",TRUE,,,TRUE,,,TRUE,,34.97863614,135.7625606
58418,"京都府京都市","元京都市立東和小学校(凌風小中学校第２校舎)","京都府京都市南区東九条南烏丸町19",TRUE,,,TRUE,,,TRUE,,34.97813556,135.7589939
58419,"京都府京都市","元京都市立山王小学校","京都府京都市南区東九条東山王町27",TRUE,,,TRUE,,,TRUE,,34.98287473,135.7620261
58420,"京都府京都市","京都市立吉祥院小学校","京都府京都市南区吉祥院船戸町34",TRUE,,,TRUE,,,TRUE,,34.97486555,135.7325559
58421,"京都府京都市","京都市立祥豊小学校","京都府京都市南区吉祥院三ノ宮町23",TRUE,,,TRUE,,,TRUE,,34.97754398,135.7275565
58422,"京都府京都市","京都市立上鳥羽小学校","京都府京都市南区上鳥羽城ヶ前町16",TRUE,,,TRUE,,,TRUE,,34.96390444,135.7431686
58423,"京都府京都市","京都市立大藪小学校","京都府京都市南区久世大藪町62",TRUE,,,TRUE,,,TRUE,,34.96023266,135.718607
58424,"京都府京都市","京都市立祥栄小学校","京都府京都市南区吉祥院蒔絵町14",TRUE,,,TRUE,,,TRUE,,34.96766162,135.7369818
58425,"京都府京都市","京都市立久世西小学校","京都府京都市南区久世上久世町454",TRUE,,,TRUE,,,TRUE,,34.96304998,135.7143701
58426,"京都府京都市","京都市立八条中学校","京都府京都市南区唐橋門脇町35",TRUE,,,TRUE,,,TRUE,,34.98267562,135.7386293
58427,"京都府京都市","京都市立九条中学校","京都府京都市南区西九条南小路町1",TRUE,,,TRUE,,,TRUE,,34.9808772,135.7502029
58428,"京都府京都市","京都市立洛南中学校","京都府京都市南区吉祥院落合町31",TRUE,,,TRUE,,,TRUE,,34.97429515,135.7386236
58429,"京都府京都市","京都市立凌風小・中学校","京都府京都市南区東九条下殿田町56",TRUE,,,TRUE,,,TRUE,,34.97852194,135.7574598
58430,"京都府京都市","京都市立久世中学校","京都府京都市南区久世殿城町481-1",TRUE,,,TRUE,,,TRUE,,34.95667369,135.7189413
58431,"京都府京都市","京都市立洛陽工業高等学校","京都府京都市南区唐橋大宮尻町22",TRUE,,,TRUE,,,TRUE,,34.98029411,135.7351783
58432,"京都府京都市","京都市立塔南高等学校","京都府京都市南区吉祥院観音堂町41",TRUE,,,TRUE,,,TRUE,,34.96766171,135.7339214
58433,"京都府京都市","京都府立鳥羽高等学校","京都府京都市南区西九条大国町1",TRUE,,,TRUE,,,TRUE,,34.97795125,135.7445077
58434,"京都府京都市","洛南高等学校・洛南高等学校附属中学校","京都府京都市南区壬生通八条下ル東寺町559",TRUE,,,TRUE,,,TRUE,,34.98284843,135.7468764
58435,"京都府京都市","京都市立梅津小学校","京都府京都市右京区梅津中村町38",TRUE,,,TRUE,,,TRUE,,35.00142466,135.6999424
58436,"京都府京都市","京都市立梅津北小学校","京都府京都市右京区梅津開キ町16",TRUE,,,TRUE,,,TRUE,,35.00621453,135.7002731
58437,"京都府京都市","京都市立太秦小学校","京都府京都市右京区太秦奥殿町1-1",TRUE,,,TRUE,,,TRUE,,35.01250895,135.7070716
58438,"京都府京都市","京都市立南太秦小学校","京都府京都市右京区太秦前ノ田町22",TRUE,,,TRUE,,,TRUE,,35.00952232,135.7033323
58439,"京都府京都市","京都市立常磐野小学校","京都府京都市右京区太秦京ノ道町20-5",TRUE,,,TRUE,,,TRUE,,35.02213859,135.7028742
58440,"京都府京都市","京都市立嵯峨野小学校","京都府京都市右京区嵯峨野千代ノ道町53",TRUE,TRUE,,TRUE,,,TRUE,,35.01222424,135.696132
58441,"京都府京都市","京都市立西京極小学校","京都府京都市右京区西京極芝ノ下町31",TRUE,,,TRUE,,,TRUE,,34.9874771,135.7193507
58442,"京都府京都市","京都市立西京極西小学校","京都府京都市右京区西京極藪開町4-1",TRUE,,,TRUE,,,TRUE,,34.9862409,135.7161277
58443,"京都府京都市","京都市立葛野小学校","京都府京都市右京区西京極葛野町2",TRUE,,,TRUE,,,TRUE,,34.99850129,135.71803
58444,"京都府京都市","京都市立山ノ内小学校","京都府京都市右京区山ノ内山ノ下町22",TRUE,,,TRUE,,,TRUE,,35.00565557,135.7218404
58445,"京都府京都市","京都市立嵯峨小学校","京都府京都市右京区嵯峨釈迦堂大門町35-1",TRUE,TRUE,,TRUE,,,TRUE,,35.02108011,135.676545
58446,"京都府京都市","京都市立御室小学校","京都府京都市右京区御室竪町19",TRUE,TRUE,,TRUE,,,TRUE,,35.02702831,135.7167069
58447,"京都府京都市","京都市立宇多野小学校","京都府京都市右京区宇多野上ノ谷8",TRUE,TRUE,,TRUE,,,TRUE,,35.03128324,135.7092799
58448,"京都府京都市","京都市立西院小学校","京都府京都市右京区西院春日町3-1",TRUE,,,TRUE,,,TRUE,,35.00561942,135.7293751
58449,"京都府京都市","京都市立安井小学校","京都府京都市右京区太秦安井柳通町15",TRUE,,,TRUE,,,TRUE,,35.01447258,135.7203562
58450,"京都府京都市","京都市立嵐山小学校","京都府京都市右京区嵯峨柳田町35-1",TRUE,,,TRUE,,,TRUE,,35.013426,135.6866354
58451,"京都府京都市","京都市立花園小学校","京都府京都市右京区花園車道町1",TRUE,,,TRUE,,,TRUE,,35.01904418,135.7220378
58452,"京都府京都市","京都市立四条中学校","京都府京都市右京区西院日照町1",TRUE,,,TRUE,,,TRUE,,35.003031,135.7244349
58453,"京都府京都市","京都市立西院中学校","京都府京都市右京区西院矢掛町5",TRUE,,,TRUE,,,TRUE,,34.99978571,135.7292401
58454,"京都府京都市","京都市立梅津中学校","京都府京都市右京区梅津北川町34",TRUE,,,TRUE,,,TRUE,,35.00606689,135.6976286
58455,"京都府京都市","京都市立双ヶ丘中学校","京都府京都市右京区花園岡ノ本町5-1",TRUE,TRUE,,TRUE,,,TRUE,,35.02292744,135.7155052
58456,"京都府京都市","京都市立蜂ヶ岡中学校","京都府京都市右京区嵯峨野開町1-1",TRUE,TRUE,,TRUE,,,TRUE,,35.01642091,135.6984036
58457,"京都府京都市","京都市立太秦中学校","京都府京都市右京区太秦多藪町14-144",TRUE,,,TRUE,,,TRUE,,35.01189264,135.7038494
58458,"京都府京都市","京都市立西京極中学校","京都府京都市右京区西京極宮ノ東町1",TRUE,,,TRUE,,,TRUE,,34.99065207,135.7230754
58459,"京都府京都市","京都市立鳴滝総合支援学校","京都府京都市右京区音戸山山ノ茶屋町9-2",TRUE,TRUE,,TRUE,,,TRUE,,35.02810923,135.7040772
58460,"京都府京都市","京都市立周山中学校","京都府京都市右京区京北周山町中山39-4",TRUE,,,TRUE,,,TRUE,,35.1576586,135.635545
58461,"京都府京都市","旧京北町立黒田小学校","京都府京都市右京区京北宮町宮野54",TRUE,TRUE,,TRUE,,,TRUE,,35.20373914,135.7197899
58462,"京都府京都市","京都市立京北第二小学校","京都府京都市右京区京北塔町中筋浦8-1",TRUE,TRUE,,TRUE,,,TRUE,,35.18040186,135.6620181
58463,"京都府京都市","京都市立京北第三小学校","京都府京都市右京区京北上弓削町弾正27",TRUE,TRUE,,TRUE,,,TRUE,,35.20282793,135.639108
58464,"京都府京都市","京都市立京北第一小学校","京都府京都市右京区京北周山町下寺田11",TRUE,TRUE,,TRUE,,,TRUE,,35.15563601,135.6350873
58465,"京都府京都市","旧京北町立宇津小学校","京都府京都市右京区京北中地町蛸谷口12",TRUE,TRUE,,TRUE,,,TRUE,,35.13974799,135.5926378
58466,"京都府京都市","京都市市民スポーツ会館","京都府京都市右京区西京極新明町32",TRUE,,,TRUE,,,TRUE,,34.99512278,135.715566
58467,"京都府京都市","京都光華女子大学・京都光華女子大学短期大学部","京都府京都市右京区西京極葛野町38",TRUE,,,TRUE,,,TRUE,,34.9968807,135.7186483
58468,"京都府京都市","光華小学校・京都光華中学校・京都光華高等学校","京都府京都市右京区西京極野田町39",TRUE,,,TRUE,,,TRUE,,34.99570679,135.7184465
58469,"京都府京都市","花園高等学校","京都府京都市右京区花園木辻北町1",TRUE,,,TRUE,,,TRUE,,35.02171878,135.7226053
58470,"京都府京都市","京都外国語大学","京都府京都市右京区西院笠目町6",TRUE,,,TRUE,,,TRUE,,35.00423364,135.7187673
58471,"京都府京都市","京都嵯峨芸術大学・京都嵯峨芸術大学短期大学部","京都府京都市右京区嵯峨五島町1",TRUE,,,TRUE,,,TRUE,,35.01271257,135.6883124
58472,"京都府京都市","仁和寺(御室会館)","京都府京都市右京区御室大内33",TRUE,TRUE,,TRUE,,,TRUE,,35.0288058,135.7152022
58473,"京都府京都市","妙心寺","京都府京都市右京区花園妙心寺町64",TRUE,TRUE,,TRUE,,,TRUE,,35.0231648,135.7200389
58474,"京都府京都市","大覚寺(嵯峨寮学院)","京都府京都市右京区嵯峨大沢町4",TRUE,TRUE,,TRUE,,,TRUE,,35.02782759,135.6775468
58475,"京都府京都市","黒田基幹集落センター","京都府京都市右京区京北宮町宮野80-1",TRUE,TRUE,,TRUE,,,TRUE,,35.20420634,135.7196198
58476,"京都府京都市","山国自治会館","京都府京都市右京区京北比賀江町院谷21",TRUE,,,TRUE,,,TRUE,,35.18244648,135.6622147
58477,"京都府京都市","田貫公民館","京都府京都市右京区京北田貫町檀町20",TRUE,,,TRUE,,,TRUE,,35.20666189,135.6044332
58478,"京都府京都市","弓削会館","京都府京都市右京区京北下中町東石原8-2",TRUE,TRUE,,TRUE,,,TRUE,,35.19705263,135.6393695
58479,"京都府京都市","矢代多目的ホール","京都府京都市右京区京北矢代中町馬場谷道ノ上29-12",TRUE,,,TRUE,,,TRUE,,35.18154829,135.6003358
58480,"京都府京都市","旧京北ふれあいセンター","京都府京都市右京区京北周山町高梨子12",TRUE,,,TRUE,,,TRUE,,35.15689326,135.6353248
58481,"京都府京都市","宇津ふれあい会館","京都府京都市右京区京北中地町蛸谷口23",TRUE,TRUE,,TRUE,,,TRUE,,35.13895102,135.5914773
58482,"京都府京都市","宇津コミュニティセンター","京都府京都市右京区京北下宇津町宮ノ下１４−２",TRUE,TRUE,,TRUE,,,TRUE,,35.1460168,135.5786759
58483,"京都府京都市","黒田トレーニングホール","京都府京都市右京区京北宮町宮野80-1",TRUE,TRUE,,TRUE,,,TRUE,,35.20420634,135.7196198
58484,"京都府京都市","京都市立嵐山東小学校","京都府京都市西京区嵐山東海道町46",TRUE,TRUE,,TRUE,,,TRUE,,35.00729738,135.6864295
58485,"京都府京都市","京都市立松尾小学校","京都府京都市西京区松尾井戸町32",TRUE,TRUE,,TRUE,,,TRUE,,34.9924695,135.6893131
58486,"京都府京都市","京都市立松陽小学校","京都府京都市西京区御陵北山下町15",TRUE,TRUE,,TRUE,,,TRUE,,34.98139139,135.6893756
58487,"京都府京都市","京都市立桂川小学校","京都府京都市西京区桂上野西町274",TRUE,,,TRUE,,,TRUE,,34.99495404,135.6999949
58488,"京都府京都市","京都市立桂小学校","京都府京都市西京区桂巽町75-5",TRUE,,,TRUE,,,TRUE,,34.98250176,135.7006182
58489,"京都府京都市","京都市立桂徳小学校","京都府京都市西京区桂徳大寺南町2",TRUE,,,TRUE,,,TRUE,,34.98916441,135.7061006
58490,"京都府京都市","京都市立桂東小学校","京都府京都市西京区桂市ノ前町31",TRUE,,,TRUE,,,TRUE,,34.97779838,135.7076704
58491,"京都府京都市","京都市立川岡小学校","京都府京都市西京区川島滑樋町14",TRUE,,,TRUE,,,TRUE,,34.97565226,135.7036987
58492,"京都府京都市","京都市立川岡東小学校","京都府京都市西京区下津林東大般若町44",TRUE,,,TRUE,,,TRUE,,34.97562056,135.7149344
58493,"京都府京都市","京都市立樫原小学校","京都府京都市西京区樫原三宅町24",TRUE,TRUE,,TRUE,,,TRUE,,34.97259969,135.697408
58494,"京都府京都市","京都市立大原野小学校","京都府京都市西京区大原野灰方町439",TRUE,TRUE,,TRUE,,,TRUE,,34.95355305,135.6669494
58495,"京都府京都市","京都市立上里小学校","京都府京都市西京区大原野上里南ノ町300",TRUE,,,TRUE,,,TRUE,,34.95230584,135.6849849
58496,"京都府京都市","京都市立松尾中学校","京都府京都市西京区松室中溝町101",TRUE,TRUE,,TRUE,,,TRUE,,34.99713453,135.6907651
58497,"京都府京都市","京都市立桂中学校","京都府京都市西京区上桂森上町26",TRUE,,,TRUE,,,TRUE,,34.98877187,135.6944369
58498,"京都府京都市","京都市立桂川中学校","京都府京都市西京区下津林東大般若町43",TRUE,,,TRUE,,,TRUE,,34.97621894,135.7152315
58499,"京都府京都市","京都市立樫原中学校","京都府京都市西京区樫原蛸田町11",TRUE,TRUE,,TRUE,,,TRUE,,34.97664336,135.6908343
58500,"京都府京都市","京都市立大原野中学校","京都府京都市西京区大原野上里南ノ町18",TRUE,,,TRUE,,,TRUE,,34.95204228,135.6776775
58501,"京都府京都市","京都市西文化会館ウエスティ","京都府京都市西京区上桂森下町31-1",TRUE,,,TRUE,,,TRUE,,34.98501611,135.694201
58502,"京都府京都市","京都府立桂高等学校","京都府京都市西京区川島松ノ木本町27",TRUE,,,TRUE,,,TRUE,,34.97229155,135.7055419
58503,"京都府京都市","法輪寺","京都府京都市西京区嵐山虚空蔵山町68",TRUE,,,TRUE,,,TRUE,,35.01023829,135.6769755
58505,"京都府京都市","京都市立伏見板橋小学校","京都府京都市伏見区下板橋町610",TRUE,,,TRUE,,,TRUE,,34.93878778,135.7616792
58506,"京都府京都市","京都市立伏見南浜小学校","京都府京都市伏見区丹後町142",TRUE,,,TRUE,,,TRUE,,34.9290587,135.7626777
58507,"京都府京都市","京都市立伏見住吉小学校","京都府京都市伏見区住吉町455",TRUE,,,TRUE,,,TRUE,,34.94366622,135.7621857
58508,"京都府京都市","京都市立深草小学校","京都府京都市伏見区深草西伊達町82-3",TRUE,TRUE,,TRUE,,,TRUE,,34.95582017,135.7722703
58509,"京都府京都市","京都市立藤ノ森小学校","京都府京都市伏見区深草石橋町11-2",TRUE,TRUE,,TRUE,,,TRUE,,34.94867344,135.7703616
58510,"京都府京都市","京都市立砂川小学校","京都府京都市伏見区深草ケナサ町25-5",TRUE,,,TRUE,,,TRUE,,34.96414811,135.7695929
58511,"京都府京都市","京都市立竹田小学校","京都府京都市伏見区竹田桶ノ井町8-2",TRUE,,,TRUE,,,TRUE,,34.95494192,135.7569478
58512,"京都府京都市","京都市立桃山小学校","京都府京都市伏見区桃山町本多上野107",TRUE,TRUE,,TRUE,,,TRUE,,34.93290331,135.7753727
58513,"京都府京都市","京都市立桃山東小学校","京都府京都市伏見区桃山町伊庭12",TRUE,TRUE,,TRUE,,,TRUE,,34.93554273,135.7868669
58514,"京都府京都市","京都市立桃山南小学校","京都府京都市伏見区桃山町大島38-109",TRUE,,,TRUE,,,TRUE,,34.92640282,135.788485
58515,"京都府京都市","京都市立下鳥羽小学校","京都府京都市伏見区下鳥羽長田町203",TRUE,,,TRUE,,,TRUE,,34.93939,135.7439743
58516,"京都府京都市","京都市立横大路小学校","京都府京都市伏見区横大路草津町54-1",TRUE,,,TRUE,,,TRUE,,34.92813017,135.734365
58517,"京都府京都市","京都市立納所小学校","京都府京都市伏見区納所妙徳寺1",TRUE,,,TRUE,,,TRUE,,34.9095809,135.7196695
58518,"京都府京都市","京都市立向島小学校","京都府京都市伏見区向島善阿弥町2-3",TRUE,,,TRUE,,,TRUE,,34.92685097,135.771375
58519,"京都府京都市","京都市立向島藤の木小学校","京都府京都市伏見区向島藤ノ木町82-5",TRUE,,,TRUE,,,TRUE,,34.92042725,135.7803541
58520,"京都府京都市","京都市立向島南小学校","京都府京都市伏見区向島津田町95-1",TRUE,,,TRUE,,,TRUE,,34.92338218,135.7655245
58521,"京都府京都市","京都市立向島二の丸小学校","京都府京都市伏見区向島二ノ丸町151",TRUE,,,TRUE,,,TRUE,,34.91632857,135.7738683
58522,"京都府京都市","京都市立二の丸北小学校","京都府京都市伏見区向島二ノ丸町300",TRUE,,,TRUE,,,TRUE,,34.91879059,135.7692071
58523,"京都府京都市","京都市立小栗栖小学校","京都府京都市伏見区小栗栖森本町47-4",TRUE,TRUE,,TRUE,,,TRUE,,34.94272508,135.7980466
58524,"京都府京都市","京都市立小栗栖宮山小学校","京都府京都市伏見区小栗栖宮山1-1",TRUE,,,TRUE,,,TRUE,,34.94567903,135.799283
58525,"京都府京都市","京都市立池田小学校","京都府京都市伏見区醍醐鍵尾町17",TRUE,TRUE,,TRUE,,,TRUE,,34.9461168,135.80771
58526,"京都府京都市","京都市立池田東小学校","京都府京都市伏見区醍醐多近田町2-2",TRUE,,,TRUE,,,TRUE,,34.94475274,135.812183
58527,"京都府京都市","京都市立春日野小学校","京都府京都市伏見区日野田中町31",TRUE,TRUE,,TRUE,,,TRUE,,34.93876331,135.8123058
58528,"京都府京都市","京都市立日野小学校","京都府京都市伏見区日野谷寺町78",TRUE,TRUE,,TRUE,,,TRUE,,34.93856788,135.8161433
58529,"京都府京都市","京都市立石田小学校","京都府京都市伏見区石田森西24",TRUE,,,TRUE,,,TRUE,,34.94074997,135.8010722
58530,"京都府京都市","京都市立醍醐西小学校","京都府京都市伏見区醍醐川久保町1",TRUE,TRUE,,TRUE,,,TRUE,,34.95292151,135.8118961
58531,"京都府京都市","京都市立神川小学校","京都府京都市伏見区久我東町60-2",TRUE,,,TRUE,,,TRUE,,34.9384004,135.7327757
58532,"京都府京都市","京都市立久我の杜小学校","京都府京都市伏見区久我東町209",TRUE,,,TRUE,,,TRUE,,34.93322824,135.7293887
58533,"京都府京都市","京都市立羽束師小学校","京都府京都市伏見区羽束師菱川町640",TRUE,,,TRUE,,,TRUE,,34.93301134,135.7221194
58534,"京都府京都市","京都市立明親小学校","京都府京都市伏見区淀池上町106",TRUE,,,TRUE,,,TRUE,,34.90343806,135.721653
58535,"京都府京都市","京都市立美豆小学校","京都府京都市伏見区淀美豆町1244",TRUE,,,TRUE,,,TRUE,,34.89723244,135.7129416
58536,"京都府京都市","京都市立深草中学校","京都府京都市伏見区深草西伊達町1-4",TRUE,TRUE,,TRUE,,,TRUE,,34.9573442,135.7745381
58537,"京都府京都市","京都市立藤森中学校","京都府京都市伏見区深草池ノ内町55",TRUE,,,TRUE,,,TRUE,,34.95540085,135.765007
58538,"京都府京都市","京都市立伏見中学校","京都府京都市伏見区御駕籠町97",TRUE,,,TRUE,,,TRUE,,34.93848956,135.7603904
58539,"京都府京都市","京都市立神川中学校","京都府京都市伏見区羽束師菱川町741",TRUE,,,TRUE,,,TRUE,,34.93246405,135.722079
58540,"京都府京都市","京都市立醍醐中学校","京都府京都市伏見区醍醐岸ノ上町21",TRUE,,,TRUE,,,TRUE,,34.94362258,135.8150192
58541,"京都府京都市","京都市立春日丘中学校","京都府京都市伏見区日野谷寺町50",TRUE,,,TRUE,,,TRUE,,34.93921707,135.8178992
58542,"京都府京都市","京都市立小栗栖中学校","京都府京都市伏見区石田川向43",TRUE,TRUE,,TRUE,,,TRUE,,34.94155346,135.7982262
58543,"京都府京都市","京都市立栗陵中学校","京都府京都市伏見区醍醐池田町17-1",TRUE,TRUE,,TRUE,,,TRUE,,34.94660647,135.8078115
58544,"京都府京都市","京都市立桃陵中学校","京都府京都市伏見区桃陵町1-1",TRUE,,,TRUE,,,TRUE,,34.92850692,135.7663627
58545,"京都府京都市","京都市立向島中学校","京都府京都市伏見区向島二ノ丸町151-55",TRUE,,,TRUE,,,TRUE,,34.91715193,135.7748118
58546,"京都府京都市","京都市立向島東中学校","京都府京都市伏見区向島吹田河原町138",TRUE,,,TRUE,,,TRUE,,34.92569461,135.7778263
58547,"京都府京都市","京都市立大淀中学校","京都府京都市伏見区淀下津町257-7",TRUE,,,TRUE,,,TRUE,,34.9019179,135.7235943
58548,"京都府京都市","京都市立洛水中学校","京都府京都市伏見区横大路竜ヶ池31",TRUE,,,TRUE,,,TRUE,,34.92054907,135.7304749
58549,"京都府京都市","京都市立伏見工業高等学校","京都府京都市伏見区深草鈴塚町13",TRUE,,,TRUE,,,TRUE,,34.96975235,135.7647718
58550,"京都府京都市","京都府立伏見港公園総合体育館","京都府京都市伏見区葭島金井戸町",TRUE,,,TRUE,,,TRUE,,34.92528699,135.7578372
58551,"京都府京都市","種智院大学","京都府京都市伏見区向島西定請70",TRUE,,,TRUE,,,TRUE,,34.91399686,135.7658129
58552,"京都府京都市","龍谷大学","京都府京都市伏見区深草塚本町67",TRUE,,,TRUE,,,TRUE,,34.96394591,135.7666202
58553,"京都府京都市","京都教育大学附属高等学校","京都府京都市伏見区深草越後屋敷町111",TRUE,,,TRUE,,,TRUE,,34.95083614,135.7652825
58554,"京都府京都市","天理教淀分教会","京都府京都市伏見区納所町223",TRUE,,,TRUE,,,TRUE,,34.90872629,135.7179346
58555,"京都府京都市","京都府立消防学校","京都府八幡市八幡樋ノ口15番地の15",TRUE,,,TRUE,,,TRUE,,34.88826233,135.7211184
58641,"京都府福知山市","成和地域公民館","京都府福知山市字拝師４４６",TRUE,TRUE,,TRUE,,,,,35.29026938,135.0847028
58651,"京都府福知山市","六人部地域公民館","京都府福知山市字多保市１６２-２",TRUE,TRUE,,TRUE,,,,,35.27109238,135.1835632
58658,"京都府福知山市","北陵地域公民館","京都府福知山市字下野条１３５",TRUE,,,,,,,,35.41957135,135.0883514
58670,"京都府福知山市","夜久野ふれあいプラザ","京都府福知山市夜久野町額田１９-２",,,,,,,,,35.31851248,135.0025777
58677,"京都府福知山市","三段池公園総合体育館","京都府福知山市猪崎３７７-１",TRUE,TRUE,,TRUE,,,,,35.3127659,135.1360598
58678,"京都府福知山市","福知山市立川口地域公民館","京都府福知山市野花８７０",TRUE,TRUE,,TRUE,,,,,35.33474481,135.0704702
58680,"京都府福知山市","福知山市三和会館","京都府福知山市三和町千束３８３",TRUE,TRUE,,TRUE,,,,,35.21629115,135.2355767
58682,"京都府福知山市","大江地域公民館","京都府福知山市大江町尾藤１２１１-１",TRUE,,,,,,,,35.37346884,135.139816
58683,"京都府福知山市","福知山市大江町有路下体育館","京都府福知山市大江町二箇１１９７",,,,,,,,,35.40625945,135.1935464
58719,"京都府舞鶴市","舞鶴市立大浦小学校","京都府舞鶴市字平１５８３",TRUE,TRUE,,TRUE,,,TRUE,,35.51786979,135.39604
58722,"京都府舞鶴市","舞鶴市大浦会館","京都府舞鶴市字中田４５９",TRUE,TRUE,,TRUE,,,TRUE,,35.51721967,135.3959597
58725,"京都府舞鶴市","舞鶴市立若浦中学校","京都府舞鶴市字大波下１８",TRUE,TRUE,,TRUE,,,TRUE,,35.50552785,135.3978879
58728,"京都府舞鶴市","舞鶴市立朝来小学校","京都府舞鶴市字朝来中５４５-１",TRUE,TRUE,,TRUE,,,TRUE,,35.50092809,135.4310375
58730,"京都府舞鶴市","舞鶴工業高等専門学校","京都府舞鶴市字白屋２３４",TRUE,TRUE,,TRUE,,,TRUE,,35.4962312,135.4401813
58737,"京都府舞鶴市","舞鶴市立志楽小学校","京都府舞鶴市字小倉６０",TRUE,TRUE,,TRUE,,,TRUE,,35.48127599,135.4297775
58739,"京都府舞鶴市","京都府立東舞鶴高等学校","京都府舞鶴市字泉源寺７６６",TRUE,TRUE,,TRUE,,,TRUE,,35.48398523,135.4149284
58745,"京都府舞鶴市","舞鶴市市場市民交流センター","京都府舞鶴市字市場２１１-７",TRUE,TRUE,,,,,TRUE,,35.47630998,135.4089272
58747,"京都府舞鶴市","京都府立東舞鶴高等学校浮島分校","京都府舞鶴市字溝尻１５０-１３",TRUE,TRUE,,,,,TRUE,,35.477466,135.39922
58752,"京都府舞鶴市","舞鶴市立白糸中学校","京都府舞鶴市字浜８４０",TRUE,TRUE,,TRUE,,,TRUE,,35.473531,135.399406
58754,"京都府舞鶴市","舞鶴市立新舞鶴小学校","京都府舞鶴市字溝尻１２００-４",TRUE,TRUE,,TRUE,,,TRUE,,35.472543,135.399783
58758,"京都府舞鶴市","舞鶴東コミュニティセンター","京都府舞鶴市字浜２０２１",TRUE,TRUE,,TRUE,,,TRUE,,35.476782,135.388709
58759,"京都府舞鶴市","舞鶴ＹＭＣＡ国際福祉専門学校","京都府舞鶴市字浜１５４６-３",TRUE,TRUE,,TRUE,,,TRUE,,35.475803,135.391155
58760,"京都府舞鶴市","舞鶴東体育館","京都府舞鶴市字北吸１０５４",TRUE,TRUE,,TRUE,,,TRUE,,35.475681,135.386901
58761,"京都府舞鶴市","舞鶴市立三笠小学校","京都府舞鶴市字桃山町１５-１",TRUE,TRUE,,TRUE,,,TRUE,,35.469334,135.390022
58763,"京都府舞鶴市","舞鶴市北浜市民交流センター","京都府舞鶴市字北浜町２０-７",TRUE,TRUE,,,,,TRUE,,35.467329,135.39916
58764,"京都府舞鶴市","舞鶴市立倉梯小学校","京都府舞鶴市字行永２９１",TRUE,TRUE,,TRUE,,,TRUE,,35.462547,135.396656
58766,"京都府舞鶴市","舞鶴市南公民館","京都府舞鶴市字森１００５-３",TRUE,TRUE,,TRUE,,,TRUE,,35.460399,135.395014
58768,"京都府舞鶴市","舞鶴市立青葉中学校","京都府舞鶴市字行永１８１０",TRUE,TRUE,,TRUE,,,TRUE,,35.460847,135.400078
58771,"京都府舞鶴市","舞鶴市立倉梯第二小学校","京都府舞鶴市字行永７",TRUE,TRUE,,TRUE,,,TRUE,,35.457115,135.393845
58773,"京都府舞鶴市","舞鶴市立与保呂小学校","京都府舞鶴市字与保呂４８",TRUE,TRUE,,TRUE,,,TRUE,,35.44863386,135.4167554
58775,"京都府舞鶴市","中総合会館","京都府舞鶴市字余部下１１６７",TRUE,TRUE,,TRUE,,,TRUE,,35.475947,135.367871
58777,"京都府舞鶴市","舞鶴市立中舞鶴小学校","京都府舞鶴市字余部上１２０",TRUE,TRUE,,TRUE,,,TRUE,,35.475439,135.361605
58779,"京都府舞鶴市","舞鶴市長浜市民交流センター","京都府舞鶴市字長浜８８２-２",TRUE,TRUE,,,,,TRUE,,35.48540095,135.3630031
58781,"京都府舞鶴市","舞鶴市荒田市民交流センター","京都府舞鶴市字余部下４３-１５",TRUE,TRUE,,,,,TRUE,,35.47767936,135.3570731
58782,"京都府舞鶴市","舞鶴市立和田中学校","京都府舞鶴市字和田６４０-４",TRUE,TRUE,,TRUE,,,TRUE,,35.474413,135.352957
58784,"京都府舞鶴市","福来コミュニティセンター","京都府舞鶴市字福来３８３",TRUE,TRUE,,TRUE,,,TRUE,,35.44839671,135.3523416
58786,"京都府舞鶴市","舞鶴市立余内小学校","京都府舞鶴市字倉谷３０",TRUE,TRUE,,TRUE,,,TRUE,,35.448472,135.342025
58788,"京都府舞鶴市","京都職業能力開発短期大学校","京都府舞鶴市字上安１９２２",TRUE,TRUE,,TRUE,,,TRUE,,35.452344,135.343022
58789,"京都府舞鶴市","舞鶴文化公園体育館","京都府舞鶴市字上安久４２０",TRUE,TRUE,,TRUE,,,TRUE,,35.455102,135.340139
58791,"京都府舞鶴市","日星高等学校","京都府舞鶴市上安久３８１",TRUE,TRUE,,TRUE,,,TRUE,,35.453044,135.339385
58794,"京都府舞鶴市","舞鶴市立吉原小学校","京都府舞鶴市字東吉原６１３",TRUE,TRUE,,TRUE,,,TRUE,,35.45646,135.330058
58797,"京都府舞鶴市","舞鶴市立城北中学校","京都府舞鶴市字南田辺１２８",TRUE,TRUE,,TRUE,,,TRUE,,35.448602,135.331481
58799,"京都府舞鶴市","西支所","京都府舞鶴市字南田辺１",TRUE,TRUE,,TRUE,,,TRUE,,35.447637,135.330486
58801,"京都府舞鶴市","舞鶴市立明倫小学校","京都府舞鶴市字北田辺１２８-１",TRUE,TRUE,,TRUE,,,TRUE,,35.446684,135.329461
58803,"京都府舞鶴市","西市民プラザ","京都府舞鶴市字円満寺１５８-６",TRUE,TRUE,,TRUE,,,TRUE,,35.446158,135.32777
58806,"京都府舞鶴市","京都府立西舞鶴高等学校","京都府舞鶴市字引土１４５",TRUE,TRUE,,TRUE,,,TRUE,,35.438914,135.32805
58810,"京都府舞鶴市","西駅交流センター","京都府舞鶴市字伊佐津２１３-８",TRUE,TRUE,,TRUE,,,TRUE,,35.441931,135.330442
58812,"京都府舞鶴市","舞鶴市立中筋小学校","京都府舞鶴市字公文名４９０",TRUE,TRUE,,TRUE,,,TRUE,,35.43093374,135.3307711
58815,"京都府舞鶴市","舞鶴市立城南中学校","京都府舞鶴市字京田３０",TRUE,TRUE,,TRUE,,,TRUE,,35.42787845,135.3274382
58818,"京都府舞鶴市","舞鶴市立池内小学校","京都府舞鶴市字布敷１２０-１",TRUE,TRUE,,TRUE,,,TRUE,,35.41093637,135.3438262
58826,"京都府舞鶴市","舞鶴市立高野小学校","京都府舞鶴市字高野台１-１",TRUE,TRUE,,TRUE,,,TRUE,,35.42732273,135.3163281
58831,"京都府舞鶴市","舞鶴市立旧青井小学校","京都府舞鶴市字青井１００",TRUE,TRUE,,TRUE,,,TRUE,,35.48787381,135.3219942
58837,"京都府舞鶴市","舞鶴市立福井小学校","京都府舞鶴市字下福井７０２-１",TRUE,TRUE,,TRUE,,,TRUE,,35.44981979,135.3035506
58841,"京都府舞鶴市","舞鶴市立旧岡田上小学校","京都府舞鶴市字地頭５２３-２",TRUE,TRUE,,TRUE,,,TRUE,,35.42592164,135.2132331
58847,"京都府舞鶴市","舞鶴市立旧岡田中小学校","京都府舞鶴市字西方寺２２６",TRUE,TRUE,,TRUE,,,TRUE,,35.443774,135.215526
58851,"京都府舞鶴市","舞鶴市立加佐中学校","京都府舞鶴市字岡田由里２０",TRUE,TRUE,,TRUE,,,TRUE,,35.429805,135.228471
58862,"京都府舞鶴市","舞鶴市加佐公民館","京都府舞鶴市字志高１００５",TRUE,TRUE,,TRUE,,,TRUE,,35.429246,135.2476
58864,"京都府舞鶴市","舞鶴市立岡田小学校","京都府舞鶴市字久田美９３０",TRUE,TRUE,,TRUE,,,TRUE,,35.427939,135.256773
58872,"京都府舞鶴市","舞鶴市立由良川小学校","京都府舞鶴市字丸田７４",TRUE,TRUE,,TRUE,,,TRUE,,35.460297,135.272011
58878,"京都府舞鶴市","舞鶴市立旧由良川中学校","京都府舞鶴市字中山９０",TRUE,TRUE,,TRUE,,,TRUE,,35.470258,135.283332
58882,"京都府舞鶴市","舞鶴市立旧神崎小学校","京都府舞鶴市字西神崎２５７",TRUE,TRUE,,TRUE,TRUE,,TRUE,,35.510647,135.297414
58885,"京都府綾部市","綾部市林業者等健康管理センター","京都府綾部市故屋岡町三反田１５",TRUE,TRUE,,TRUE,,,,,35.38518611,135.4590972
58886,"京都府綾部市","綾部市観光センター","京都府綾部市八津合町縄手１",TRUE,TRUE,,TRUE,,TRUE,,,35.36146111,135.4015389
58887,"京都府綾部市","綾部市立上林小中学校","京都府綾部市八津合町片山１７",TRUE,,,TRUE,,TRUE,TRUE,,35.368925,135.4147778
58888,"京都府綾部市","綾部市健康ファミリーセンター","京都府綾部市武吉町中井根３５",TRUE,TRUE,,TRUE,,,,,35.33398056,135.3514694
58890,"京都府綾部市","綾部市立東綾小中学校","京都府綾部市東山町山家９９",TRUE,TRUE,,,,TRUE,,,35.29701389,135.3158
58891,"京都府綾部市","綾部市基幹集落センター","京都府綾部市鷹栖町豊後田３２",TRUE,TRUE,,TRUE,,,,,35.29444167,135.3114556
58892,"京都府綾部市","綾部市立東八田小学校","京都府綾部市上杉町中島２",TRUE,TRUE,,TRUE,,,,,35.35460556,135.3135111
58893,"京都府綾部市","綾部市立八田中学校","京都府綾部市梅迫町大野２０",TRUE,TRUE,,TRUE,,TRUE,,,35.34709167,135.3142889
58894,"京都府綾部市","綾部市東八田公民館","京都府綾部市梅迫町溝尻１-１６",TRUE,TRUE,,,,TRUE,TRUE,,35.34838333,135.3109222
58895,"京都府綾部市","綾部市研修センター","京都府綾部市上杉町日後３０",TRUE,TRUE,,TRUE,,,,,35.36332222,135.3173889
58896,"京都府綾部市","綾部市農村婦人の家","京都府綾部市岡安町岡２２-１",TRUE,TRUE,,TRUE,,TRUE,,,35.33686944,135.2944083
58897,"京都府綾部市","綾部市立西八田小学校","京都府綾部市岡安町家ノ下１０",TRUE,,,TRUE,,TRUE,,,35.33581111,135.2916722
58899,"京都府綾部市","綾部市立吉美小学校","京都府綾部市有岡町田坂１６",TRUE,,,TRUE,,TRUE,,,35.32636389,135.2676556
58900,"京都府綾部市","綾部市農業振興センター","京都府綾部市多田町寺田２-２",TRUE,TRUE,,TRUE,,,,,35.31803611,135.2698917
58901,"京都府綾部市","綾部市中央公民館","京都府綾部市里町久田２１-２０",TRUE,TRUE,,TRUE,,TRUE,,,35.31283611,135.2642056
58903,"京都府綾部市","綾部市人権福祉センター綾部会館","京都府綾部市味方町石風呂５０-５",TRUE,TRUE,,TRUE,,,TRUE,,35.30101944,135.2683833
58904,"京都府綾部市","綾部市立綾部小学校","京都府綾部市上野町上野１６８",TRUE,TRUE,,TRUE,,TRUE,,,35.2952,135.2593583
58905,"京都府綾部市","綾部市立綾部中学校","京都府綾部市宮代町明知７",TRUE,,,TRUE,,TRUE,,,35.30077222,135.2453083
58906,"京都府綾部市","綾部市市民センター","京都府綾部市並松町上溝口１４",TRUE,TRUE,,,,,,,35.29765556,135.262825
58907,"京都府綾部市","綾部市宮代コミュニティセンター","京都府綾部市宮代町土代２-３",TRUE,TRUE,,TRUE,,,TRUE,,35.30181944,135.2425167
58912,"京都府綾部市","綾部市ふれあいセンター","京都府綾部市大島町内山田３２",TRUE,TRUE,,TRUE,,,,,35.30138333,135.2312833
58913,"京都府綾部市","綾部市高津コミュニティセンター","京都府綾部市高津町西ノ開市８-１",,TRUE,,TRUE,,TRUE,,,35.30199167,135.201875
58914,"京都府綾部市","綾部市立中筋小学校","京都府綾部市大島町外山田８-１",TRUE,TRUE,,TRUE,,TRUE,,,35.302125,135.2304861
58915,"京都府綾部市","綾部市立豊里中学校","京都府綾部市豊里町三宅５３",TRUE,TRUE,,TRUE,,TRUE,TRUE,,35.32066111,135.2129194
58916,"京都府綾部市","綾部市豊里コミュニティセンター","京都府綾部市栗町大野１-２０２",TRUE,TRUE,,TRUE,,,TRUE,,35.32501944,135.2282306
58917,"京都府綾部市","綾部市立豊里小学校","京都府綾部市栗町花貝２",,TRUE,,TRUE,,TRUE,,,35.31508056,135.2218583
58921,"京都府綾部市","綾部市立物部小学校","京都府綾部市物部町北前田５１",TRUE,TRUE,,TRUE,,TRUE,TRUE,,35.35583333,135.2176194
58922,"京都府綾部市","綾部市立何北中学校","京都府綾部市物部町高倉前１８",TRUE,TRUE,,TRUE,,TRUE,,,35.36238056,135.2247167
58923,"京都府綾部市","綾部市物部営農指導センター","京都府綾部市物部町東野４６-１",TRUE,,,TRUE,,,TRUE,,35.35120833,135.2243306
58924,"京都府綾部市","綾部市人権福祉センター物部会館","京都府綾部市物部町西樋ノ口２５",TRUE,TRUE,,TRUE,,,TRUE,,35.35649167,135.23645
58925,"京都府綾部市","綾部市立志賀小学校","京都府綾部市志賀郷町丁田８",TRUE,TRUE,,TRUE,,TRUE,,,35.37091944,135.2413389
58926,"京都府綾部市","綾部市志賀郷公民館・多目的ホール","京都府綾部市志賀郷町北町１７",TRUE,,,TRUE,,,TRUE,,35.36825278,135.2408083
58927,"京都府綾部市","あやべ山の家","京都府綾部市睦寄町今竹１０",TRUE,,,TRUE,,TRUE,,,35.37245556,135.4379528
58931,"京都府綾部市","五泉荘","京都府綾部市五泉町西巻１２",TRUE,TRUE,,TRUE,,TRUE,,,35.39871111,135.4146667
59001,"京都府宇治市","笠取小学校","京都府宇治市西笠取石原22",TRUE,TRUE,,TRUE,,,,,34.93701399,135.8544361
59002,"京都府宇治市","笠取第二小学校","京都府宇治市炭山直谷31",TRUE,,,TRUE,,,,,34.91689389,135.8416242
59003,"京都府宇治市","木幡小学校","京都府宇治市木幡赤塚4",TRUE,TRUE,,TRUE,,,,,34.93013171,135.8021299
59004,"京都府宇治市","御蔵山小学校","京都府宇治市木幡御蔵山39-4",TRUE,TRUE,,TRUE,,,,,34.93014475,135.8099628
59005,"京都府宇治市","木幡中学校","京都府宇治市木幡内畑34",TRUE,TRUE,,TRUE,,,,,34.92405816,135.7946368
59006,"京都府宇治市","宇治小学校・黄檗中学校","京都府宇治市五ケ庄三番割27",TRUE,TRUE,,TRUE,,,,,34.91673638,135.8027782
59007,"京都府宇治市","岡屋小学校","京都府宇治市五ケ庄寺界道37-3",TRUE,TRUE,,TRUE,,,,,34.91694364,135.7954311
59008,"京都府宇治市","東宇治中学校","京都府宇治市五ケ庄池ノ浦36-1",TRUE,TRUE,,TRUE,,,,,34.91156478,135.8008505
59009,"京都府宇治市","南部小学校","京都府宇治市五ケ庄戸ノ内15-1",TRUE,TRUE,,TRUE,,,,,34.90638872,135.7985492
59010,"京都府宇治市","三室戸小学校","京都府宇治市莵道岡谷16-2",TRUE,TRUE,,TRUE,,,,,34.89720985,135.8193864
59011,"京都府宇治市","菟道小学校","京都府宇治市宇治塔川102",TRUE,TRUE,,TRUE,,,,,34.88635448,135.8085355
59012,"京都府宇治市","菟道第二小学校","京都府宇治市宇治琵琶63-3",TRUE,TRUE,,TRUE,,,,,34.88212299,135.798556
59013,"京都府宇治市","宇治中学校","京都府宇治市宇治矢落64-1",TRUE,TRUE,,TRUE,,,,,34.88736279,135.7958459
59014,"京都府宇治市","神明小学校","京都府宇治市神明石塚32",TRUE,TRUE,,TRUE,,,,,34.88242677,135.7899694
59015,"京都府宇治市","大開小学校","京都府宇治市広野町大開35",TRUE,TRUE,,TRUE,,,,,34.87405952,135.7927606
59016,"京都府宇治市","広野中学校","京都府宇治市広野町尖山3",TRUE,,,TRUE,,,,,34.87271643,135.7942732
59017,"京都府宇治市","大久保小学校","京都府宇治市広野町中島1-1",TRUE,TRUE,,TRUE,,,,,34.87387315,135.7837847
59018,"京都府宇治市","槇島小学校","京都府宇治市槇島町吹前35",TRUE,TRUE,,TRUE,,,,,34.90318775,135.7907517
59019,"京都府宇治市","北宇治中学校","京都府宇治市槇島町島前33",TRUE,TRUE,,TRUE,,,,,34.90008468,135.7875914
59020,"京都府宇治市","北槇島小学校","京都府宇治市槇島町本屋敷40-2",TRUE,TRUE,,TRUE,,,,,34.91459748,135.7801769
59021,"京都府宇治市","槇島中学校","京都府宇治市槇島町本屋敷35-1",TRUE,TRUE,,TRUE,,,,,34.91570128,135.7815358
59022,"京都府宇治市","北小倉小学校","京都府宇治市小倉町堀池72",TRUE,TRUE,,TRUE,,,,,34.89876627,135.7755106
59023,"京都府宇治市","西小倉小学校","京都府宇治市伊勢田町遊田69",TRUE,TRUE,,TRUE,,,,,34.89210379,135.7721964
59024,"京都府宇治市","西小倉中学校","京都府宇治市伊勢田町遊田7-1",TRUE,TRUE,,TRUE,,,,,34.88795063,135.77214
59025,"京都府宇治市","南小倉小学校","京都府宇治市小倉町南浦40-1",TRUE,TRUE,,TRUE,,,,,34.88964688,135.7750047
59026,"京都府宇治市","小倉小学校","京都府宇治市小倉町西畑1-4",TRUE,TRUE,,TRUE,,,,,34.88734938,135.7824006
59027,"京都府宇治市","伊勢田小学校","京都府宇治市伊勢田町井尻3",TRUE,TRUE,,TRUE,,,,,34.88426471,135.7729114
59028,"京都府宇治市","西宇治中学校","京都府宇治市伊勢田町南山21-1",TRUE,TRUE,,TRUE,,,,,34.88025552,135.7751434
59029,"京都府宇治市","西大久保小学校","京都府宇治市大久保町旦椋25",TRUE,TRUE,,TRUE,,,,,34.87183593,135.7665613
59030,"京都府宇治市","平盛小学校","京都府宇治市大久保町平盛91-3",TRUE,TRUE,,TRUE,,,,,34.87010439,135.7641509
59031,"京都府宇治市","南宇治中学校","京都府宇治市大久保町平盛31-5",TRUE,TRUE,,TRUE,,,,,34.86989697,135.7665856
59032,"京都府亀岡市","亀岡中学校[体育館]","京都府亀岡市内丸町１３",TRUE,TRUE,,TRUE,,TRUE,TRUE,,35.01162744,135.5813082
59033,"京都府亀岡市","亀岡小学校[体育館]","京都府亀岡市内丸町１５",TRUE,TRUE,,TRUE,,TRUE,TRUE,,35.01161234,135.5788715
59034,"京都府亀岡市","城西小学校[体育館]","京都府亀岡市余部町前川原４６",TRUE,TRUE,,TRUE,,TRUE,TRUE,,35.01593048,135.5721577
59035,"京都府亀岡市","ガレリアかめおか","京都府亀岡市余部町宝久保１-１",TRUE,TRUE,,TRUE,,TRUE,TRUE,,35.01491666,135.5664048
59036,"京都府亀岡市","亀岡市役所市民ホール","京都府亀岡市安町野々神８",TRUE,TRUE,,TRUE,,TRUE,TRUE,,35.01325076,135.5734292
59037,"京都府亀岡市","亀岡地区自治会館","京都府亀岡市安町釜ケ前９-４",TRUE,TRUE,,TRUE,,TRUE,TRUE,,35.013022,135.573981
59038,"京都府亀岡市","別院中学校[体育館]","京都府亀岡市東別院町南掛一ノ坪１",TRUE,,,TRUE,,TRUE,TRUE,,34.94623636,135.5324027
59039,"京都府亀岡市","東別院小学校[体育館]","京都府亀岡市東別院町東掛岩脇９",TRUE,,,TRUE,,TRUE,TRUE,,34.94489406,135.550869
59040,"京都府亀岡市","東別院町公民館","京都府亀岡市東別院町南掛藤ケ瀬３-１",TRUE,TRUE,,,,TRUE,TRUE,,34.941351,135.553528
59041,"京都府亀岡市","東別院町ふれあいセンター","京都府亀岡市東別院町東掛一アン１５",TRUE,TRUE,,,,TRUE,TRUE,,34.946175,135.551045
59042,"京都府亀岡市","西別院小学校[体育館]","京都府亀岡市西別院町柚原佃２４",TRUE,TRUE,,TRUE,,TRUE,TRUE,,34.95253053,135.509145
59043,"京都府亀岡市","西別院生涯学習センター","京都府亀岡市西別院町柚原佃１７",TRUE,,,TRUE,,TRUE,TRUE,,34.951886,135.510599
59044,"京都府亀岡市","犬甘野児童館","京都府亀岡市西別院町犬甘野霜ノ下２、３、４",TRUE,TRUE,,,,TRUE,TRUE,,34.96288386,135.5003604
59045,"京都府亀岡市","曽我部小学校[体育館]","京都府亀岡市曽我部町南条荒水代１",TRUE,TRUE,,TRUE,,TRUE,TRUE,,34.99777432,135.5477484
59046,"京都府亀岡市","曽我部町公民館","京都府亀岡市曽我部町南条荒水代４-１",TRUE,TRUE,,,,TRUE,TRUE,,34.998609,135.549247
59047,"京都府亀岡市","吉川小学校[体育館]","京都府亀岡市吉川町穴川平田１７",TRUE,TRUE,,TRUE,,TRUE,TRUE,,35.01653913,135.556703
59048,"京都府亀岡市","亀岡運動公園プール管理棟","京都府亀岡市吉川町吉田上河原２４",TRUE,TRUE,,TRUE,,TRUE,TRUE,,35.015558,135.547389
59049,"京都府亀岡市","亀岡運動公園体育館[小体育館]","京都府亀岡市曽我部町穴太土渕３３-１",TRUE,TRUE,,TRUE,,TRUE,TRUE,,35.01438481,135.5509879
59050,"京都府亀岡市","南桑中学校[体育館]","京都府亀岡市ひえ田野町太田丸橋１",TRUE,TRUE,,TRUE,,TRUE,TRUE,,35.02221557,135.5474052
59051,"京都府亀岡市","薭田野小学校[体育館]","京都府亀岡市ひえ田野町佐伯源ノ坊１８",TRUE,TRUE,,TRUE,,TRUE,TRUE,,35.01878602,135.5326503
59052,"京都府亀岡市","薭田野生涯学習センター","京都府亀岡市ひえ田野町佐伯西ノ辻９-１",TRUE,TRUE,,TRUE,,TRUE,TRUE,,35.01671194,135.535703
59054,"京都府亀岡市","育親中学校[体育館]","京都府亀岡市本梅町中野和田山１-２",TRUE,TRUE,,TRUE,,TRUE,TRUE,,35.02870046,135.4872892
59055,"京都府亀岡市","本梅小学校[体育館]","京都府亀岡市本梅町井手早田垣内２３",TRUE,TRUE,,TRUE,,TRUE,TRUE,,35.01408689,135.4858966
59056,"京都府亀岡市","ほんめ町ふれあいセンター","京都府亀岡市本梅町井手梅原３",TRUE,TRUE,,,,TRUE,TRUE,,35.01328,135.486437
59057,"京都府亀岡市","畑野小学校[体育館]","京都府亀岡市畑野町千ヶ畑西山５",TRUE,,,TRUE,,TRUE,TRUE,,35.01495184,135.4304084
59058,"京都府亀岡市","畑野町公民館","京都府亀岡市畑野町千ヶ畑西山５-１",TRUE,,,,,TRUE,TRUE,,35.014493,135.43173
59059,"京都府亀岡市","青野小学校[体育館]","京都府亀岡市宮前町宮川青野２９",TRUE,TRUE,,TRUE,,TRUE,TRUE,,35.04624441,135.4846945
59060,"京都府亀岡市","亀岡市交流会館","京都府亀岡市宮前町神前長野１５",TRUE,,,TRUE,,TRUE,TRUE,,35.056129,135.515111
59061,"京都府亀岡市","東本梅保育所","京都府亀岡市東本梅町東大谷生子田６９",TRUE,TRUE,,TRUE,,TRUE,TRUE,,35.05268279,135.4677871
59062,"京都府亀岡市","東本梅町ふれあいセンター（東本梅営農センター）","京都府亀岡市東本梅町赤熊蟻間野３５-１",TRUE,TRUE,,TRUE,,TRUE,TRUE,,35.052759,135.46836
59063,"京都府亀岡市","大成中学校[体育館]","京都府亀岡市大井町土田１-５-７",TRUE,TRUE,,TRUE,,TRUE,TRUE,,35.03868705,135.550807
59064,"京都府亀岡市","大井小学校[体育館]","京都府亀岡市大井町並河１-３-１",TRUE,TRUE,,TRUE,,TRUE,TRUE,,35.03133655,135.5564163
59065,"京都府亀岡市","大井生涯学習センター","京都府亀岡市大井町土田２-１１-２０-２０１",TRUE,TRUE,,TRUE,,TRUE,TRUE,,35.032645,135.554462
59066,"京都府亀岡市","亀岡市立幼稚園","京都府亀岡市大井町並河検見ヶ上７",TRUE,TRUE,,TRUE,,TRUE,TRUE,,35.024196,135.562738
59067,"京都府亀岡市","千代川小学校[体育館]","京都府亀岡市千代川町北ノ庄国主ヶ森２１",TRUE,TRUE,,TRUE,,TRUE,TRUE,,35.04829573,135.5430457
59068,"京都府亀岡市","千代川町自治会館","京都府亀岡市千代川町北ノ庄国主ヶ森１９",TRUE,TRUE,,TRUE,,TRUE,TRUE,,35.047466,135.543946
59069,"京都府亀岡市","亀岡川東学園[体育館]","京都府亀岡市馬路町溝ノ上１４-４",TRUE,TRUE,,TRUE,,TRUE,TRUE,,35.05805457,135.5649511
59070,"京都府亀岡市","馬路生涯学習センター","京都府亀岡市馬路町流川２-１",TRUE,TRUE,,TRUE,,TRUE,TRUE,,35.054563,135.562402
59071,"京都府亀岡市","馬路文化センター","京都府亀岡市馬路町小米田４５-４",TRUE,TRUE,,,,TRUE,TRUE,,35.05514,135.553565
59072,"京都府亀岡市","旭コミュニティセンター","京都府亀岡市旭町年角２５",TRUE,TRUE,,,,TRUE,TRUE,,35.077731,135.563791
59073,"京都府亀岡市","千歳町自治会館","京都府亀岡市千歳町千歳垣根２-３",TRUE,,,,,TRUE,TRUE,,35.052197,135.579575
59074,"京都府亀岡市","さくら公園[体育館]","京都府亀岡市千歳町国分後田１",TRUE,TRUE,,TRUE,,TRUE,TRUE,,35.04522285,135.5819704
59075,"京都府亀岡市","河原林生涯学習センター","京都府亀岡市河原林町河原尻上六反田９-１",TRUE,TRUE,,TRUE,,TRUE,TRUE,,35.04301058,135.5699497
59076,"京都府亀岡市","保津小学校[体育館]","京都府亀岡市保津町構ノ内２０",TRUE,TRUE,,TRUE,,TRUE,TRUE,,35.02383434,135.5905076
59077,"京都府亀岡市","保津町公民館","京都府亀岡市保津町構ノ内５３",TRUE,TRUE,,,,TRUE,TRUE,,35.023396,135.589624
59078,"京都府亀岡市","保津文化センター","京都府亀岡市保津町弐番１１-１",TRUE,TRUE,,,,TRUE,TRUE,,35.02390549,135.5866306
59079,"京都府亀岡市","東輝中学校[体育館]","京都府亀岡市篠町広田３-２８-１",TRUE,TRUE,,TRUE,,TRUE,TRUE,,34.99486613,135.5940449
59080,"京都府亀岡市","詳徳中学校[体育館]","京都府亀岡市篠町柏原中又７",TRUE,TRUE,,TRUE,,TRUE,TRUE,,35.0071953,135.5955318
59081,"京都府亀岡市","安詳小学校[体育館]","京都府亀岡市篠町篠中北裏６８",TRUE,TRUE,,TRUE,,TRUE,TRUE,,35.00542927,135.6053725
59082,"京都府亀岡市","詳徳小学校[体育館]","京都府亀岡市篠町柏原田中３-１",TRUE,TRUE,,TRUE,,TRUE,TRUE,,35.00661198,135.5945366
59083,"京都府亀岡市","篠公民館（自治会館）","京都府亀岡市篠町篠中北裏６８",TRUE,TRUE,,,,TRUE,TRUE,,35.004332,135.605462
59084,"京都府亀岡市","東部文化センター","京都府亀岡市篠町野条イカノ辻南７６",TRUE,TRUE,,TRUE,,TRUE,TRUE,,35.00336182,135.6005414
59085,"京都府亀岡市","東つつじヶ丘ふれあいセンター","京都府亀岡市東つつじヶ丘都台３-６-７",TRUE,TRUE,,TRUE,,TRUE,TRUE,,34.997752,135.597015
59086,"京都府亀岡市","西つつじヶ丘ふれあいセンター","京都府亀岡市西つつじヶ丘大山台１-１２-１３",TRUE,TRUE,,TRUE,,TRUE,TRUE,,35.000951,135.587991
59087,"京都府亀岡市","つつじヶ丘小学校[体育館]","京都府亀岡市西つつじヶ丘霧島台１-１",TRUE,TRUE,,TRUE,,TRUE,TRUE,,34.99907478,135.5885482
59088,"京都府亀岡市","南つつじヶ丘コミュニティセンター","京都府亀岡市南つつじヶ丘大葉台２-４３-１",TRUE,TRUE,,TRUE,,TRUE,TRUE,,34.991527,135.589169
59089,"京都府亀岡市","南つつじヶ丘小学校[体育館]","京都府亀岡市南つつじヶ丘大葉台２-２８-１",TRUE,TRUE,,TRUE,,TRUE,TRUE,,34.99258186,135.5894741
59090,"京都府城陽市","城陽市立今池コミュニティセンター","京都府城陽市枇杷庄知原１５-１",,TRUE,,TRUE,,,,,34.8391,135.76909
59091,"京都府城陽市","城陽市立南城陽中学校","京都府城陽市観音堂巽畑１７-４",TRUE,TRUE,,TRUE,,TRUE,,,34.83439,135.79929
59092,"京都府城陽市","城陽市南部コミュニティセンター","京都府城陽市富野東田部７０-１",,TRUE,,TRUE,,,,,34.84154,135.7813
59093,"京都府城陽市","城陽市保健センター","京都府城陽市富野久保田１-１",TRUE,TRUE,,TRUE,,,,,34.84618,135.77979
59094,"京都府城陽市","城陽市立青谷小学校","京都府城陽市中向河原１",TRUE,TRUE,,TRUE,,,,,34.82988,135.80353
59095,"京都府城陽市","城陽市立総合老人福祉センター","京都府城陽市奈島川原口２０",,TRUE,,TRUE,,,,,34.82686,135.79213
59096,"京都府城陽市","城陽市立青谷保育園","京都府城陽市中樋ノ上６３-１",,TRUE,,TRUE,,,,,34.83042,135.80267
59097,"京都府城陽市","城陽市立青谷コミュニティセンター","京都府城陽市市辺五島７-１",,TRUE,,TRUE,,,,,34.82834,135.80013
59098,"京都府城陽市","城陽市民体育館","京都府城陽市寺田奥山１",TRUE,TRUE,,TRUE,,TRUE,,,34.85548,135.80164
59099,"京都府城陽市","文化パルク城陽","京都府城陽市寺田今堀１",TRUE,TRUE,,TRUE,,,,,34.84917,135.77324
59100,"京都府城陽市","城陽市立鴻の巣保育園","京都府城陽市寺田東ノ口５１-５",TRUE,TRUE,,TRUE,,,,,34.85193,135.77718
59101,"京都府城陽市","城陽市立西城陽中学校","京都府城陽市寺田乾出北８２",TRUE,TRUE,,TRUE,,TRUE,,,34.85626,135.76557
59102,"京都府城陽市","城陽市立西部老人福祉センター","京都府城陽市寺田乾出北５５",,TRUE,,TRUE,,,,,34.85583,135.76886
59103,"京都府城陽市","城陽市立今池小学校","京都府城陽市寺田大畔１７７-１",TRUE,TRUE,,TRUE,,,,,34.8449,135.77159
59104,"京都府城陽市","城陽市立城陽中学校","京都府城陽市寺田北山田３５",TRUE,TRUE,,TRUE,,TRUE,,,34.85719,135.78362
59105,"京都府城陽市","城陽市立寺田南小学校","京都府城陽市寺田新池２３-１",TRUE,TRUE,,TRUE,,,,,34.84909,135.78194
59106,"京都府城陽市","鴻の巣会館","京都府城陽市寺田水度坂１３０",TRUE,TRUE,,,,,,,34.85303,135.78146
59107,"京都府城陽市","城陽市立久世小学校","京都府城陽市久世芝ヶ原１４３",TRUE,TRUE,,TRUE,,,,,34.86088,135.78033
59108,"京都府城陽市","城陽市立久世保育園","京都府城陽市久世芝ヶ原７４-１",TRUE,TRUE,,TRUE,,,,,34.86067,135.78106
59109,"京都府城陽市","城陽市立東部コミュニティセンター","京都府城陽市寺田正道１５２",TRUE,TRUE,,TRUE,,,,,34.85853,135.78041
59110,"京都府城陽市","城陽市立深谷小学校","京都府城陽市寺田深谷１１１-２",TRUE,TRUE,,TRUE,,,,,34.85835,135.78959
59111,"京都府城陽市","城陽市立東城陽中学校","京都府城陽市久世上大谷２４",TRUE,TRUE,,TRUE,,TRUE,,,34.86402,135.79469
59112,"京都府城陽市","城陽市立久津川小学校","京都府城陽市平川指月１",TRUE,TRUE,,TRUE,,,,,34.86408,135.77387
59113,"京都府城陽市","城陽市立久津川保育園","京都府城陽市平川大将軍２",TRUE,TRUE,,TRUE,,,,,34.866,135.77035
59114,"京都府城陽市","城陽市立古川小学校","京都府城陽市上津屋境端５７",TRUE,TRUE,,TRUE,,,,,34.8645,135.75959
59115,"京都府城陽市","城陽市立北城陽中学校","京都府城陽市平川長筬３３",TRUE,TRUE,,TRUE,,TRUE,,,34.86842,135.76392
59116,"京都府城陽市","城陽市立富野小学校","京都府城陽市富野堀口１",TRUE,TRUE,,TRUE,,,,,34.83874,135.7879
59117,"京都府城陽市","城陽市立寺田西小学校","京都府城陽市寺田西ノ口６５",TRUE,TRUE,,TRUE,,,,,34.85525,135.76547
59118,"京都府城陽市","城陽市立寺田小学校","京都府城陽市寺田北山田２",TRUE,TRUE,,TRUE,,,,,34.8563,135.78027
59119,"京都府城陽市","城陽市北部コミュニティセンター","京都府城陽市平川広田６７",TRUE,TRUE,,,,,,,34.86284,135.76299
59122,"京都府城陽市","城陽市立北部老人福祉センター","京都府城陽市平川大将軍２",TRUE,TRUE,,TRUE,,,,,34.86574,135.77084
59123,"京都府城陽市","城陽市立東部老人福祉センター","京都府城陽市久世芝ヶ原１３１",TRUE,TRUE,,TRUE,,,,,34.86102,135.78333
59124,"京都府城陽市","京都府立心身障害者福祉センター療護施設附属体育館","京都府城陽市中芦原６３-４",TRUE,TRUE,,TRUE,,,,,34.83235,135.81649
59125,"京都府城陽市","京都府立城陽高等学校","京都府城陽市寺田宮ノ平１",TRUE,TRUE,,TRUE,,TRUE,,,34.85284,135.78919
59126,"京都府城陽市","京都府立西城陽高等学校","京都府城陽市枇杷庄京縄手４６-１",TRUE,TRUE,,TRUE,,TRUE,,,34.84275,135.76624
59127,"京都府城陽市","城陽市立今池保育園","京都府城陽市富野高井４４-３",TRUE,TRUE,,TRUE,,,,,34.84415,135.77224
59128,"京都府城陽市","私立平川幼稚園","京都府城陽市平川大将軍７７-３",,TRUE,,,,,,,34.86513,135.77022
59129,"京都府城陽市","私立里の西保育園","京都府城陽市久世里ノ西６６-１",,TRUE,,TRUE,,,,,34.85946,135.76821
59130,"京都府城陽市","私立しいの木保育園","京都府城陽市寺田林ノ口１１-１１４",TRUE,TRUE,,TRUE,,,,,34.85543,135.78266
59131,"京都府城陽市","城陽市立男女共同参画支援センター","京都府城陽市寺田林ノ口１１-１１４",TRUE,TRUE,,TRUE,,,,,34.85539,135.7826
59132,"京都府城陽市","私立くぬぎ保育園","京都府城陽市寺田庭井３６",TRUE,TRUE,,TRUE,,,,,34.84705,135.77892
59133,"京都府城陽市","私立佐伯幼稚園","京都府城陽市寺田今橋６８",,TRUE,,TRUE,,,,,34.85148,135.76408
59134,"京都府城陽市","青少年野外活動総合センター","京都府城陽市寺田南中芝８０",TRUE,TRUE,,,,,,,34.84984,135.795
59135,"京都府城陽市","私立清心保育園","京都府城陽市富野荒見田４",,TRUE,,TRUE,,,,,34.8412,135.78337
59163,"京都府城陽市","城陽市立地域子育て支援センター","京都府城陽市寺田深谷１６",TRUE,TRUE,,TRUE,,,,,34.857422,135.789098
59164,"京都府向日市","物集女公民館","京都府向日市物集女町中条２６",TRUE,,,TRUE,,,TRUE,,34.96207067,135.6945331
59165,"京都府向日市","寺戸町連合自治会事務所","京都府向日市寺戸町北垣内３",TRUE,,,TRUE,,,TRUE,,34.9534187,135.700137
59166,"京都府向日市","森本公民館","京都府向日市森本町前田６-７",TRUE,,,TRUE,,,TRUE,,34.94700038,135.7090952
59167,"京都府向日市","鶏冠井公民館","京都府向日市鶏冠井町御屋敷２６",TRUE,,,TRUE,,,TRUE,,34.94398436,135.7065702
59168,"京都府向日市","上植野公民館","京都府向日市上植野町西小路１５",TRUE,,,TRUE,,,TRUE,,34.93623169,135.7038735
59169,"京都府向日市","向日市立向陽小学校","京都府向日市向日町南山３",TRUE,TRUE,,TRUE,,,TRUE,,34.94389925,135.699339
59170,"京都府向日市","向日市立第６向陽小学校","京都府向日市寺戸町大牧２４",TRUE,TRUE,,TRUE,,,TRUE,,34.95377454,135.6913114
59171,"京都府向日市","向日市立勝山中学校","京都府向日市鶏冠井町楓畑２４",TRUE,,,TRUE,,,TRUE,,34.94226795,135.701393
59172,"京都府向日市","向日市立西ノ岡中学校","京都府向日市物集女町吉田１",TRUE,,,TRUE,,,TRUE,,34.96692498,135.6983783
59174,"京都府向日市","向日市立第1保育所","京都府向日市向日町北山２１",TRUE,,,TRUE,,,TRUE,,34.9445457,135.699057
59175,"京都府向日市","向日市立第6保育所","京都府向日市上植野町地田５-３",TRUE,,,TRUE,,,TRUE,,34.9387475,135.71021
59176,"京都府向日市","向日市立老人福祉センター桜の径","京都府向日市上植野町南開６６-１",TRUE,,,TRUE,,,TRUE,,34.9411237,135.7044881
59177,"京都府向日市","向日市立老人福祉センター琴の橋","京都府向日市寺戸町三ノ坪２０",TRUE,,,TRUE,,,TRUE,,34.95951539,135.7011107
59178,"京都府向日市","向日市立保健センター","京都府向日市寺戸町東野辺３１",TRUE,,,TRUE,,,TRUE,,34.94737097,135.7043132
59180,"京都府長岡京市","開田保育所","京都府長岡京市神足３丁目２-２０",TRUE,TRUE,,TRUE,,,TRUE,,34.92284351,135.6963994
59181,"京都府長岡京市","神足保育所","京都府長岡京市東神足２丁目１７ー２",TRUE,TRUE,,TRUE,,,TRUE,,34.92128407,135.703359
59182,"京都府長岡京市","長岡京市立神足小学校","京都府長岡京市神足３丁目２ー１",TRUE,TRUE,,TRUE,,,TRUE,,34.92293092,135.697373
59183,"京都府長岡京市","長岡京市立長法寺小学校","京都府長岡京市長法寺川原谷３１",TRUE,TRUE,,TRUE,,,TRUE,,34.92886502,135.68285
59184,"京都府長岡京市","長岡京市立長岡第三小学校","京都府長岡京市今里４丁目５-１０",TRUE,TRUE,,TRUE,,,TRUE,,34.93742479,135.6889718
59185,"京都府長岡京市","長岡京市立長岡第四小学校","京都府長岡京市友岡１丁目２-４",TRUE,TRUE,,TRUE,,,TRUE,,34.91812838,135.6916046
59186,"京都府長岡京市","長岡京市立長岡第五小学校","京都府長岡京市下海印寺東山１",TRUE,TRUE,,TRUE,,,TRUE,,34.92137717,135.6819287
59187,"京都府長岡京市","長岡京市立長岡第六小学校","京都府長岡京市長岡２丁目３-１",TRUE,TRUE,,TRUE,,,TRUE,,34.92864208,135.6901512
59188,"京都府長岡京市","長岡京市立長岡第七小学校","京都府長岡京市今里北ノ町３５",TRUE,TRUE,,TRUE,,,TRUE,,34.93566356,135.6947248
59189,"京都府長岡京市","長岡京市立長岡第八小学校","京都府長岡京市勝竜寺２９-１",TRUE,TRUE,,TRUE,,,TRUE,,34.91471181,135.6996841
59190,"京都府長岡京市","長岡京市立長岡第九小学校","京都府長岡京市東神足２丁目１７-１",TRUE,TRUE,,TRUE,,,TRUE,,34.92063017,135.7028543
59191,"京都府長岡京市","長岡京市立長岡第十小学校","京都府長岡京市井ノ内玉ノ上２２",TRUE,TRUE,,TRUE,,,TRUE,,34.94382356,135.6892523
59192,"京都府長岡京市","長岡京市立長岡中学校","京都府長岡京市天神４丁目５-１",TRUE,TRUE,,TRUE,,,TRUE,,34.9279306,135.6872899
59193,"京都府長岡京市","長岡京市立長岡第二中学校","京都府長岡京市今里５丁目２０-１",TRUE,TRUE,,TRUE,,,TRUE,,34.93776506,135.6881138
59194,"京都府長岡京市","長岡京市立長岡第三中学校","京都府長岡京市勝竜寺２８-１",TRUE,TRUE,,TRUE,,,TRUE,,34.91557087,135.6986067
59195,"京都府長岡京市","長岡京市立長岡第四中学校","京都府長岡京市下海印寺西山田１-１",TRUE,TRUE,,TRUE,,,TRUE,,34.91760371,135.6793748
59196,"京都府長岡京市","京都府立乙訓高等学校","京都府長岡京市友岡１丁目１-１",TRUE,TRUE,,TRUE,,,TRUE,,34.91901344,135.6929846
59197,"京都府長岡京市","京都府立西乙訓高等学校","京都府長岡京市下海印寺西明寺４１",TRUE,TRUE,,TRUE,,,TRUE,,34.91318272,135.6790206
59198,"京都府長岡京市","京都西山短期大学","京都府長岡京市粟生西条２６",TRUE,TRUE,,TRUE,,,TRUE,,34.93791529,135.6764123
59199,"京都府長岡京市","滝ノ町保育所","京都府長岡京市滝ノ町２丁目２-２６",TRUE,TRUE,,TRUE,,,TRUE,,34.9423565,135.697392
59200,"京都府長岡京市","新田保育所","京都府長岡京市長岡１丁目４-１",TRUE,TRUE,,TRUE,,,TRUE,,34.927633,135.692917
59201,"京都府長岡京市","深田保育所","京都府長岡京市野添２丁目３-３",TRUE,TRUE,,TRUE,,,TRUE,,34.9338796,135.695101
59202,"京都府長岡京市","友岡保育園","京都府長岡京市友岡３丁目８-１８",TRUE,TRUE,,TRUE,,,TRUE,,34.914427,135.692114
59203,"京都府長岡京市","海印寺保育園","京都府長岡京市奥海印寺坂ノ尻２-５",TRUE,TRUE,,TRUE,,,TRUE,,34.9239247,135.68041
59204,"京都府長岡京市","今里保育園","京都府長岡京市今里北ノ町３５ー２",TRUE,TRUE,,TRUE,,,TRUE,,34.9352735,135.694773
59205,"京都府長岡京市","西山公園体育館","京都府長岡京市長法寺谷山１",TRUE,TRUE,,TRUE,,,TRUE,,34.9322344,135.677333
59207,"京都府長岡京市","立命館中学校・高等学校","京都府長岡京市調子１丁目１-１",TRUE,TRUE,,TRUE,,,TRUE,,34.91433934,135.6955658
59208,"京都府八幡市","八幡市立くすのき小学校","京都府八幡市男山金振９",TRUE,,,TRUE,,,TRUE,,34.85785491,135.6945863
59209,"京都府八幡市","八幡市立さくら小学校","京都府八幡市男山美桜１７",TRUE,,,TRUE,,,TRUE,,34.86525839,135.6992508
59210,"京都府八幡市","（旧）八幡市立八幡第四小学校","京都府八幡市男山松里１",TRUE,,,TRUE,,,TRUE,,34.85750898,135.6998236
59211,"京都府八幡市","（旧）八幡市立八幡第五小学校","京都府八幡市男山笹谷２",TRUE,,,TRUE,,,TRUE,,34.87020898,135.6938925
59212,"京都府八幡市","八幡市立橋本小学校","京都府八幡市橋本中之池尻１５-１",TRUE,,,TRUE,,,TRUE,,34.87348744,135.6864713
59213,"京都府八幡市","八幡市立南山小学校","京都府八幡市八幡南山７",TRUE,,,TRUE,,,TRUE,,34.85605177,135.7059704
59214,"京都府八幡市","八幡市立男山第二中学校","京都府八幡市男山石城３",TRUE,,,TRUE,,,TRUE,,34.86050635,135.6976819
59215,"京都府八幡市","八幡市立男山第三中学校","京都府八幡市男山笹谷３",TRUE,,,TRUE,,,TRUE,,34.86912643,135.6941969
59216,"京都府八幡市","八幡市立男山東中学校","京都府八幡市内里砂畠１-１",TRUE,,,TRUE,,,TRUE,,34.85239787,135.7199236
59217,"京都府八幡市","八幡市立男山公民館","京都府八幡市男山八望３-１",,TRUE,,,,,,,34.86290806,135.6985731
59218,"京都府八幡市","八幡市立橋本公民館","京都府八幡市橋本堂ケ原３６",,TRUE,,,,,,,34.87997806,135.6837916
59219,"京都府八幡市","八幡市立志水公民館","京都府八幡市八幡岸本３５-４",,TRUE,,,,,,,34.8702574,135.7029835
59220,"京都府八幡市","八幡市立山柴公民館","京都府八幡市八幡山柴４８、４９番合地",,TRUE,,,,,,,34.88194464,135.7030171
59221,"京都府八幡市","京都府立消防学校","京都府八幡市八幡樋ノ口１５-１５",,,,TRUE,,,,,34.88831133,135.7211105
59222,"京都府八幡市","八幡市立美濃山コミュニティセンター","京都府八幡市欽明台西７０",,TRUE,,,,,,,34.841401,135.713046
59223,"京都府八幡市","京都市立美豆小学校","京都府京都市伏見区淀美豆町１２４４",,,,TRUE,,,,,34.8967816,135.7132471
59241,"京都府京田辺市","京田辺市立松井ケ丘小学校","京都府京田辺市大住上西野１８-２",TRUE,TRUE,,TRUE,,TRUE,TRUE,,34.83656665,135.7349228
59242,"京都府京田辺市","京田辺市立大住小学校","京都府京田辺市大住池平８８",TRUE,,,TRUE,,TRUE,TRUE,,34.83781865,135.7418412
59243,"京都府京田辺市","京田辺市立桃園小学校","京都府京田辺市大住仲ノ谷１２-１",TRUE,TRUE,,TRUE,,TRUE,TRUE,,34.82549151,135.7455215
59244,"京都府京田辺市","京田辺市立薪小学校","京都府京田辺市薪堀切谷１",TRUE,TRUE,,TRUE,,TRUE,TRUE,,34.81962198,135.7539496
59245,"京都府京田辺市","京田辺市立田辺小学校","京都府京田辺市田辺鳥本１０２",TRUE,TRUE,,TRUE,,TRUE,TRUE,,34.81731571,135.7700499
59246,"京都府京田辺市","京田辺市立田辺東小学校","京都府京田辺市東西ノ口６０-２",,,,TRUE,,TRUE,,,34.82693804,135.7789116
59247,"京都府京田辺市","京田辺市立草内小学校","京都府京田辺市草内南垣内５３",,,,TRUE,,TRUE,,,34.81181118,135.7854607
59248,"京都府京田辺市","京田辺市立三山木小学校","京都府京田辺市宮津宮ノ下４-３",TRUE,TRUE,,TRUE,,TRUE,TRUE,,34.79415686,135.7846159
59249,"京都府京田辺市","京田辺市立普賢寺小学校","京都府京田辺市水取門田６-１",,,,TRUE,,TRUE,,,34.78240655,135.7521454
59250,"京都府京田辺市","京田辺市立大住中学校","京都府京田辺市大住池平２",TRUE,TRUE,,TRUE,,TRUE,TRUE,,34.83490037,135.7413112
59251,"京都府京田辺市","京田辺市立田辺中学校","京都府京田辺市興戸北鉾立２１",TRUE,,,TRUE,,TRUE,TRUE,,34.81283392,135.7702937
59252,"京都府京田辺市","京田辺市立培良中学校","京都府京田辺市東七反割３",,,,TRUE,,TRUE,,,34.82073633,135.7843635
59253,"京都府京田辺市","京都府立田辺高等学校","京都府京田辺市河原神谷２４",,,,TRUE,,TRUE,,,34.82069728,135.7775955
59254,"京都府京田辺市","同志社国際高等学校","京都府京田辺市多々羅都谷６０-１",TRUE,TRUE,,TRUE,,TRUE,TRUE,,34.80212704,135.773254
59255,"京都府京田辺市","同志社大学　デイヴィス記念館・屋外運動場","京都府京田辺市多々羅都谷１-３",,TRUE,TRUE,,TRUE,,TRUE,TRUE,34.799119,135.764843
59256,"京都府京丹後市","京丹後市立新山小学校（体育館）","京都府京丹後市峰山町荒山１３００",,,,TRUE,,TRUE,,,35.614213,135.079148
59257,"京都府京丹後市","京丹後市立峰山中学校（体育館）","京都府京丹後市峰山町荒山８８",TRUE,TRUE,,TRUE,,TRUE,,,35.619363,135.072099
59258,"京都府京丹後市","京丹後市立丹波小学校（体育館）","京都府京丹後市峰山町丹波５６０",TRUE,TRUE,,TRUE,,TRUE,,,35.631066,135.073591
59259,"京都府京丹後市","京丹後市立いさなご小学校（体育館）","京都府京丹後市峰山町安９",TRUE,TRUE,,TRUE,,TRUE,,,35.617358,135.054224
59260,"京都府京丹後市","五箇体育館","京都府京丹後市峰山町五箇１",TRUE,TRUE,,TRUE,,TRUE,,,35.5907889,135.0363703
59262,"京都府京丹後市","京丹後市立峰山小学校（体育館）","京都府京丹後市峰山町不断１",TRUE,TRUE,,TRUE,,TRUE,,,35.629836,135.056434
59263,"京都府京丹後市","京丹後市立長岡小学校（体育館）","京都府京丹後市峰山町長岡６０",TRUE,TRUE,,TRUE,,TRUE,,,35.605687,135.069649
59272,"京都府京丹後市","京丹後市立大宮第一小学校（体育館）","京都府京丹後市大宮町周枳１５５２",TRUE,TRUE,,TRUE,,TRUE,,,35.590748,135.091552
59275,"京都府京丹後市","京丹後市立大宮南小学校（体育館）","京都府京丹後市大宮町奥大野７２",,,,TRUE,,TRUE,,,35.565199,135.089406
59279,"京都府京丹後市","京丹後市立大宮中学校（体育館）","京都府京丹後市大宮町口大野２１６",TRUE,TRUE,,TRUE,,TRUE,,,35.582512,135.097368
59280,"京都府京丹後市","大宮第三体育館","京都府京丹後市大宮町森本７８２",,,,TRUE,,TRUE,,,35.588425,135.135559
59282,"京都府京丹後市","京丹後市郷体育館","京都府京丹後市網野町郷４８",TRUE,TRUE,,TRUE,TRUE,TRUE,,,35.653125,135.034209
59286,"京都府京丹後市","旧三津小学校","京都府京丹後市網野町三津２７",TRUE,TRUE,,TRUE,TRUE,TRUE,,,35.70595567,135.0665684
59287,"京都府京丹後市","京丹後市立網野北小学校（体育館）","京都府京丹後市網野町浅茂川１８６１",TRUE,TRUE,,TRUE,,TRUE,,,35.689406,135.028757
59288,"京都府京丹後市","京丹後市立網野南小学校（体育館）","京都府京丹後市網野町下岡１８０",TRUE,TRUE,,TRUE,TRUE,TRUE,,,35.674025,135.029685
59289,"京都府京丹後市","京丹後市立網野中学校（体育館）","京都府京丹後市網野町網野２６９６",TRUE,TRUE,,TRUE,TRUE,TRUE,,,35.684882,135.033327
59290,"京都府京丹後市","京丹後市立島津小学校（体育館）","京都府京丹後市網野町島津１２５１",TRUE,TRUE,,TRUE,TRUE,TRUE,,,35.685175,135.051075
59291,"京都府京丹後市","京丹後市立橘小学校（体育館）","京都府京丹後市網野町木津１３５７",TRUE,TRUE,,TRUE,TRUE,TRUE,,,35.656609,134.965791
59308,"京都府京丹後市","京丹後市網野体育センター","京都府京丹後市網野町網野４１８",,,,TRUE,,,,,35.682152,135.024694
59310,"京都府京丹後市","京丹後市立宇川小学校（体育館）","京都府京丹後市丹後町上野１２０",TRUE,TRUE,,TRUE,TRUE,TRUE,,,35.751994,135.171865
59312,"京都府京丹後市","京丹後市竹野体育館","京都府京丹後市丹後町竹野５６４",,,,,TRUE,TRUE,,,35.741237,135.112255
59313,"京都府京丹後市","京丹後市間人小学校（体育館）","京都府京丹後市丹後町間人２６９１",,,,TRUE,TRUE,TRUE,,,35.739075,135.08968
59314,"京都府京丹後市","京丹後市丹後中学校（体育館）","京都府京丹後市丹後町間人３２０",,,,TRUE,,TRUE,,,35.730521,135.096825
59317,"京都府京丹後市","京丹後市豊栄小学校（体育館）","京都府京丹後市丹後町成願寺１７２７",,,,,TRUE,TRUE,,,35.711932,135.108737
59325,"京都府京丹後市","京丹後市宇川体育館","京都府京丹後市丹後町上野１０５-１",,,,TRUE,TRUE,TRUE,,,35.750294,135.169953
59334,"京都府京丹後市","京丹後市立弥栄小学校（体育館）","京都府京丹後市弥栄町木橋５５８",TRUE,TRUE,,TRUE,,TRUE,,,35.668759,135.082608
59335,"京都府京丹後市","京丹後市野間基幹集落センター","京都府京丹後市弥栄町野中２２４５-１",TRUE,TRUE,,TRUE,,,,,35.685104,135.15744
59336,"京都府京丹後市","京丹後市立弥栄中学校（体育館）","京都府京丹後市弥栄町溝谷３３０１-１",TRUE,TRUE,,TRUE,,TRUE,,,35.65858,135.095024
59338,"京都府京丹後市","京丹後市黒部体育館","京都府京丹後市弥栄町黒部３２９９",TRUE,TRUE,,TRUE,,TRUE,,,35.678553,135.097209
59339,"京都府京丹後市","京丹後市立吉野小学校（体育館）","京都府京丹後市弥栄町芋野４０８",TRUE,TRUE,,TRUE,,TRUE,,,35.648531,135.092196
59342,"京都府京丹後市","京丹後市立高龍小学校（体育館）","京都府京丹後市久美浜町新谷２５０",TRUE,TRUE,,TRUE,TRUE,TRUE,,,35.578196,134.937687
59343,"京都府京丹後市","京丹後市立かぶと山小学校（体育館）","京都府京丹後市久美浜町神崎１６０３",TRUE,TRUE,,TRUE,TRUE,TRUE,,,35.625136,134.922283
59344,"京都府京丹後市","京丹後市湊体育館","京都府京丹後市久美浜町湊宮１６５５-５",TRUE,TRUE,,TRUE,,TRUE,,,35.642165,134.90234
59345,"京都府京丹後市","京丹後市海部体育館","京都府京丹後市久美浜町橋爪２３６",TRUE,TRUE,,TRUE,TRUE,TRUE,,,35.58983,134.931781
59347,"京都府京丹後市","京丹後市立久美浜小学校（体育館）","京都府京丹後市久美浜町３３６９",TRUE,TRUE,,TRUE,,TRUE,,,35.608051,134.892693
59348,"京都府京丹後市","京丹後市川上体育館","京都府京丹後市久美浜町畑３９４",,,,,TRUE,TRUE,,,35.556814,134.932518
59352,"京都府京丹後市","京丹後市田村体育館","京都府京丹後市久美浜町関４９５",TRUE,TRUE,,TRUE,TRUE,TRUE,,,35.619969,134.945766
59354,"京都府京丹後市","京都府立久美浜高等学校（体育館）","京都府京丹後市久美浜町橋爪６５",,,,,,TRUE,,,35.593152,134.931728
59369,"京都府南丹市","南丹市立園部小学校","京都府南丹市園部町小桜町２６-２",TRUE,TRUE,,TRUE,,TRUE,TRUE,,35.10926079,135.4686393
59370,"京都府南丹市","南丹市立園部第二小学校","京都府南丹市園部町小山東町平成代２号７８　外",TRUE,TRUE,,TRUE,,TRUE,TRUE,,35.0953129,135.4845487
59371,"京都府南丹市","旧南丹市立川辺小学校","京都府南丹市園部町船岡長畑５２-３",TRUE,TRUE,,TRUE,,TRUE,TRUE,,35.13172783,135.4942633
59372,"京都府南丹市","旧南丹市立摩気小学校","京都府南丹市園部町宍人市場１１１",TRUE,TRUE,,TRUE,,TRUE,TRUE,,35.08986977,135.441024
59373,"京都府南丹市","旧南丹市立西本梅小学校","京都府南丹市園部町南八田中山１８",TRUE,TRUE,,TRUE,,TRUE,TRUE,,35.06143088,135.4335392
59374,"京都府南丹市","南丹市園部公民館","京都府南丹市園部町上本町南２-２２",TRUE,TRUE,,TRUE,,TRUE,TRUE,,35.10927136,135.4704565
59375,"京都府南丹市","南丹市立八木中学校","京都府南丹市八木町八木野篠１",TRUE,TRUE,,TRUE,,TRUE,TRUE,,35.07313079,135.529391
59376,"京都府南丹市","南丹市立八木西小学校","京都府南丹市八木町八木東所１５",TRUE,TRUE,,TRUE,,TRUE,TRUE,,35.06720072,135.531965
59377,"京都府南丹市","南丹市立八木東小学校","京都府南丹市八木町青戸馬垣内１３-１",TRUE,TRUE,,TRUE,,TRUE,TRUE,,35.07844506,135.5471805
59378,"京都府南丹市","旧南丹市立吉富小学校","京都府南丹市八木町鳥羽鳥栄本１１",TRUE,TRUE,,TRUE,,TRUE,TRUE,,35.0881951,135.511492
59379,"京都府南丹市","旧南丹市立新庄小学校","京都府南丹市八木町船枝才ノ上４８",TRUE,TRUE,,TRUE,,TRUE,TRUE,,35.10521575,135.522912
59380,"京都府南丹市","旧南丹市立神吉小学校","京都府南丹市八木町神吉西河原１５",TRUE,TRUE,,TRUE,,TRUE,TRUE,,35.10766665,135.58575
59381,"京都府南丹市","南丹市立八木公民館","京都府南丹市八木町八木東久保２３",TRUE,TRUE,,TRUE,,TRUE,TRUE,,35.0709561,135.5326703
59382,"京都府南丹市","南丹市八木防災センター","京都府南丹市八木町八木鹿草７５",TRUE,TRUE,,TRUE,,TRUE,TRUE,,35.07014647,135.5346545
59383,"京都府南丹市","南丹市立殿田中学校","京都府南丹市日吉町殿田大貝３０",TRUE,TRUE,,TRUE,,TRUE,TRUE,,35.15947222,135.5069166
59384,"京都府南丹市","南丹市立殿田小学校","京都府南丹市日吉町殿田大貝２１・２３・２４",TRUE,TRUE,,TRUE,,TRUE,TRUE,,35.16103024,135.5058932
59385,"京都府南丹市","南丹市立胡麻郷小学校","京都府南丹市日吉町胡麻中野辺３-５",TRUE,TRUE,,TRUE,,TRUE,TRUE,,35.19925003,135.46475
59386,"京都府南丹市","南丹市立旧五ケ荘小学校","京都府南丹市日吉町四ツ谷柏木５",TRUE,TRUE,,TRUE,,TRUE,TRUE,,35.20756058,135.5419038
59387,"京都府南丹市","南丹市胡麻基幹集落センター","京都府南丹市日吉町胡麻才ノ本１０-１",TRUE,TRUE,,TRUE,,TRUE,TRUE,,35.19652058,135.4678355
59388,"京都府南丹市","南丹市日吉町生涯学習センター","京都府南丹市日吉町保野田長通２４",TRUE,TRUE,,TRUE,,TRUE,TRUE,,35.18040219,135.4894355
59389,"京都府南丹市","南丹市興風体育館","京都府南丹市日吉町田原渕谷口３６-１",TRUE,TRUE,,TRUE,,TRUE,TRUE,,35.19066833,135.520366
59390,"京都府南丹市","南丹市立美山中学校","京都府南丹市美山町静原桧野１０-１",TRUE,TRUE,,TRUE,,TRUE,TRUE,,35.27661438,135.5511422
59391,"京都府南丹市","旧南丹市立知井小学校","京都府南丹市美山町中穴原８",TRUE,TRUE,,TRUE,,TRUE,TRUE,,35.3132267,135.6445622
59392,"京都府南丹市","旧南丹市立平屋小学校","京都府南丹市美山町安掛上ノ山１７",TRUE,TRUE,,TRUE,,TRUE,TRUE,,35.27983133,135.5895006
59393,"京都府南丹市","南丹市立宮島小学校","京都府南丹市美山町島島台５２",TRUE,TRUE,,TRUE,,TRUE,TRUE,,35.27234591,135.5485352
59394,"京都府南丹市","旧南丹市立鶴ヶ岡小学校","京都府南丹市美山町鶴ヶ岡宮ノ前２３-２",TRUE,TRUE,,TRUE,,TRUE,TRUE,,35.3205611,135.5587538
59395,"京都府南丹市","旧南丹市立大野小学校","京都府南丹市美山町三埜南畑２８",TRUE,TRUE,,TRUE,,TRUE,TRUE,,35.2734794,135.5039123
59396,"京都府南丹市","南丹市美山文化ホール","京都府南丹市美山町島島台５１",TRUE,TRUE,,TRUE,,TRUE,TRUE,,35.27151363,135.5495777
59397,"京都府南丹市","京都府立農芸高等学校","京都府南丹市園部町南大谷下芝１２",TRUE,TRUE,,TRUE,,TRUE,TRUE,,35.05586686,135.4550867
59398,"京都府南丹市","京都府立北桑田高等学校美山分校","京都府南丹市美山町上平屋梁ケ瀬９-２",TRUE,TRUE,,TRUE,,TRUE,TRUE,,35.27292974,135.5829077
59399,"京都府南丹市","京都府立丹波支援学校","京都府南丹市八木町柴山坊田１１８",TRUE,TRUE,,TRUE,,TRUE,TRUE,,35.06722903,135.5159799
59400,"京都府南丹市","南丹市立みやま保育所","京都府南丹市美山町島島台５３",TRUE,TRUE,,TRUE,,TRUE,TRUE,,35.2730678,135.5493425
59401,"京都府南丹市","南丹市立知井保育所","京都府南丹市美山町中勘定７",TRUE,TRUE,,TRUE,,TRUE,TRUE,,35.31357991,135.6430751
59402,"京都府南丹市","南丹市美山保健センター","京都府南丹市美山町安掛下８",TRUE,TRUE,,TRUE,,TRUE,TRUE,,35.27608343,135.586892
59403,"京都府南丹市","美山町自然文化村","京都府南丹市美山町中下向５６",TRUE,TRUE,,TRUE,,TRUE,TRUE,,35.30982539,135.6378842
59404,"京都府南丹市","南丹市美山林業者等健康管理センター","京都府南丹市美山町鶴ヶ岡釈迦堂前１４-１",TRUE,TRUE,,TRUE,,TRUE,TRUE,,35.32158221,135.5574905
59405,"京都府南丹市","観光農園江和ランド","京都府南丹市美山町江和下黒田４-１",TRUE,TRUE,,TRUE,,TRUE,TRUE,,35.318828,135.651138
59406,"京都府南丹市","南丹市美山知井会館","京都府南丹市美山町中上前８２-１",TRUE,TRUE,,TRUE,,TRUE,TRUE,,35.31186185,135.6390222
59407,"京都府南丹市","南丹市園部公園陸上競技場","京都府南丹市園部町横田下河原１",TRUE,TRUE,,TRUE,,TRUE,TRUE,,35.10902933,135.4663259
59408,"京都府南丹市","南丹市園部公園多目的運動場","京都府南丹市園部町小桜町京都府南丹市園部公園内",TRUE,TRUE,,TRUE,,TRUE,TRUE,,35.10612354,135.4671304
59409,"京都府南丹市","南丹市園部半田文化センター","京都府南丹市園部町半田尾長１２-１",TRUE,TRUE,,TRUE,,TRUE,TRUE,,35.10096519,135.4598951
59410,"京都府南丹市","南丹市園部仁江文化センター","京都府南丹市園部町仁江木畑４７-１",TRUE,TRUE,,TRUE,,TRUE,TRUE,,35.10600766,135.4369064
59411,"京都府南丹市","南丹市園部南部コミュニティセンター","京都府南丹市園部町城南町クゴ３",TRUE,TRUE,,TRUE,,TRUE,TRUE,,35.10018144,135.4670372
59412,"京都府南丹市","南丹市園部北部コミュニティセンター","京都府南丹市園部町木崎町下ヲサ４９",TRUE,TRUE,,TRUE,,TRUE,TRUE,,35.1141172,135.4754425
59413,"京都府南丹市","南丹市園部木崎町児童老人会館","京都府南丹市園部町木崎町大川端２７-７",TRUE,TRUE,,TRUE,,TRUE,TRUE,,35.11146087,135.4776646
59414,"京都府南丹市","南丹市八木東部文化センター","京都府南丹市八木町北屋賀焼石８-１",TRUE,TRUE,,TRUE,,TRUE,TRUE,,35.07312941,135.5530712
59415,"京都府南丹市","南丹市八木北地区自治振興会館","京都府南丹市八木町室橋東垣内２１０",TRUE,TRUE,,TRUE,,TRUE,TRUE,,35.10155562,135.5268058
59416,"京都府南丹市","南丹市八木南地区自治振興会館","京都府南丹市八木町八木東久保２３",TRUE,TRUE,,TRUE,,TRUE,TRUE,,35.07100985,135.5327472
59417,"京都府南丹市","南丹市日吉総合運動広場","京都府南丹市日吉町胡麻向大戸４-３他",TRUE,TRUE,,TRUE,,TRUE,TRUE,,35.19075323,135.4839401
59418,"京都府南丹市","京都府立口丹波勤労者福祉会館","京都府南丹市八木町西田金井畠９",TRUE,TRUE,,TRUE,,TRUE,TRUE,,35.07395656,135.5376981
59420,"京都府南丹市","南丹市園部海洋センター","京都府南丹市園部町小桜町園部公園内",TRUE,TRUE,,TRUE,,TRUE,TRUE,,35.106215,135.469147
59421,"京都府木津川市","山城総合文化センター（アスピアやましろ）","京都府木津川市山城町平尾前田２４",TRUE,TRUE,,TRUE,,,TRUE,,34.77601984,135.8121404
59422,"京都府木津川市","木津川市立棚倉小学校","京都府木津川市山城町綺田局塚１４",TRUE,TRUE,,TRUE,,,TRUE,,34.78206744,135.8113452
59423,"京都府木津川市","木津川市立山城中学校","京都府木津川市山城町椿井柳田３３",TRUE,TRUE,,TRUE,,,TRUE,,34.75717313,135.8164015
59424,"京都府木津川市","木津川市立上狛小学校","京都府木津川市山城町上狛学校１",TRUE,TRUE,,TRUE,,,TRUE,,34.75338506,135.8185474
59425,"京都府木津川市","木津川市立相楽台小学校","京都府木津川市相楽台５丁目１７-１",TRUE,TRUE,,TRUE,,,TRUE,,34.72673168,135.7964999
59426,"京都府木津川市","木津川市立相楽小学校","京都府木津川市相楽清水１",TRUE,TRUE,,TRUE,,,TRUE,,34.73618963,135.8010954
59427,"京都府木津川市","木津川市立高の原小学校","京都府木津川市兜台４-４-１",TRUE,TRUE,,TRUE,,,TRUE,,34.72755573,135.7833155
59428,"京都府木津川市","木津川市立木津川台小学校","京都府木津川市木津川台２-４",TRUE,TRUE,,TRUE,,,TRUE,,34.74380066,135.7893657
59429,"京都府木津川市","木津川市立木津小学校","京都府木津川市木津町木津町内垣外９５",TRUE,TRUE,,TRUE,,,TRUE,,34.73709568,135.815488
59430,"京都府木津川市","木津川市立梅美台小学校","京都府木津川市梅美台４丁目２６-１",TRUE,TRUE,,TRUE,,,TRUE,,34.7161891,135.8404158
59431,"京都府木津川市","木津川市立木津中学校","京都府木津川市相楽高下４-８",TRUE,TRUE,,TRUE,,,TRUE,,34.735504,135.804768
59432,"京都府木津川市","木津川市立木津第二中学校","京都府木津川市兜台６-１",TRUE,TRUE,,TRUE,,,TRUE,,34.72942804,135.7856395
59433,"京都府木津川市","中央体育館","京都府木津川市木津石塚１４７",TRUE,TRUE,,TRUE,,,TRUE,,34.72852515,135.8090867
59436,"京都府木津川市","京都府立木津高等学校","京都府木津川市木津内田山３４",TRUE,TRUE,,TRUE,,,TRUE,,34.73847695,135.8306805
59437,"京都府木津川市","京都府立南陽高等学校","京都府木津川市兜台６-２",TRUE,TRUE,,TRUE,,,TRUE,,34.73034568,135.7848653
59438,"京都府木津川市","木津川市立恭仁小学校","京都府木津川市加茂町例幣中切３１３２",TRUE,TRUE,,,,,TRUE,,34.76551527,135.8614794
59439,"京都府木津川市","木津川市立加茂小学校","京都府木津川市加茂町里西上田１１-１",TRUE,TRUE,,TRUE,,,TRUE,,34.74832852,135.8672874
59440,"京都府木津川市","木津川市立泉川中学校","京都府木津川市加茂町大野烏田７５",TRUE,TRUE,,TRUE,,,TRUE,,34.74641267,135.8632483
59441,"京都府木津川市","木津川市立南加茂台小学校","京都府木津川市南加茂台１２-１１",TRUE,TRUE,,TRUE,,,TRUE,,34.73480709,135.8715557
59442,"京都府木津川市","当尾の郷会館","京都府木津川市加茂町辻下垣外１６",TRUE,TRUE,,TRUE,,,TRUE,,34.73277385,135.882478
59445,"京都府木津川市","木津川市立州見台小学校","京都府木津川市州見台１-３２",TRUE,TRUE,,TRUE,,,TRUE,,34.71731541,135.8244128
59446,"京都府木津川市","木津川市立木津南中学校","京都府木津川市州見台４-２６",TRUE,TRUE,,TRUE,,,TRUE,,34.71893593,135.8314244
59447,"京都府木津川市","木津川市立城山台小学校","京都府木津川市城山台六丁目１番地１",TRUE,TRUE,,TRUE,,,TRUE,,34.73305343,135.838103
59448,"京都府木津川市","同志社国際学院初等部","京都府木津川市木津川台７-３１-１",TRUE,,,TRUE,,,TRUE,,34.739372,135.785634
59453,"京都府木津川市","喜多重機興業","京都府木津川市加茂町岡崎下平岡",TRUE,,,TRUE,,,TRUE,,34.76649,135.87029
59454,"京都府大山崎町","大山崎町立大山崎小学校","京都府乙訓郡大山崎町字円明寺小字百々１８",TRUE,TRUE,,TRUE,,TRUE,TRUE,,34.90219516,135.6870323
59455,"京都府大山崎町","大山崎町立第二大山崎小学校","京都府乙訓郡大山崎町字円明寺小字西法寺２６",TRUE,TRUE,,TRUE,,TRUE,TRUE,,34.91078184,135.679239
59456,"京都府大山崎町","大山崎町立大山崎中学校","京都府乙訓郡大山崎町字円明寺小字松田１５-１",TRUE,TRUE,,TRUE,,TRUE,TRUE,,34.9065848,135.6928098
59457,"京都府大山崎町","大山崎町体育館","京都府乙訓郡大山崎町字円明寺小字一丁田５０",,TRUE,,TRUE,,TRUE,,,34.90448107,135.6955932
59458,"京都府大山崎町","大山崎ふるさとセンター","京都府乙訓郡大山崎町字大山崎小字竜光３",TRUE,TRUE,,TRUE,,TRUE,TRUE,,34.89269521,135.6828507
59459,"京都府久御山町","久御山町立御牧小学校","京都府久世郡久御山町相島曽根１９",TRUE,,,TRUE,,TRUE,TRUE,,34.89559486,135.7370779
59460,"京都府久御山町","久御山町立久御山中学校","京都府久世郡久御山町坊之池高河原７",TRUE,,,TRUE,,TRUE,TRUE,,34.88897292,135.7364201
59461,"京都府久御山町","久御山町中央公民館","京都府久世郡久御山町島田ミスノ３８",TRUE,,,,,TRUE,TRUE,,34.88109413,135.7323457
59462,"京都府久御山町","久御山町役場駐車場","京都府久世郡久御山町島田ミスノ３８",,,,TRUE,,TRUE,,,34.88041421,135.73271
59463,"京都府久御山町","久御山町立佐山小学校","京都府久世郡久御山町佐古内屋敷５６",TRUE,,,TRUE,,TRUE,TRUE,,34.87936524,135.7510074
59464,"京都府久御山町","久御山町立東角小学校","京都府久世郡久御山町佐古東角１２",TRUE,,,TRUE,,TRUE,TRUE,,34.88183529,135.760738
59465,"京都府久御山町","京都府立久御山高等学校","京都府久世郡久御山町林北畑",TRUE,,,TRUE,,TRUE,TRUE,,34.88132524,135.7565638
59466,"京都府井手町","井手町立井手小学校","京都府綴喜郡井手町大字井手小字野神３８",TRUE,TRUE,,TRUE,,TRUE,TRUE,,34.79743124,135.8083789
59467,"京都府井手町","井手町立山吹ふれあいセンター","京都府綴喜郡井手町大字井手小字二本松３-１",TRUE,TRUE,,TRUE,,TRUE,TRUE,,34.80549214,135.8144366
59468,"京都府井手町","井手町立老人福祉センター「玉泉苑」","京都府綴喜郡井手町大字井手小字東前田２３",TRUE,TRUE,,TRUE,,TRUE,TRUE,,34.79867935,135.8158192
59469,"京都府井手町","井手町立多賀小学校","京都府綴喜郡井手町大字多賀小字内垣内２０",TRUE,TRUE,,TRUE,,TRUE,TRUE,,34.81795937,135.8068616
59470,"京都府井手町","井手町立井手小学校有王分校","京都府綴喜郡井手町大字田村新田小字有王１３",TRUE,TRUE,,TRUE,,TRUE,TRUE,,34.80751746,135.8522216
59471,"京都府井手町","井手町立自然休養村管理センター","京都府綴喜郡井手町大字井手小字二本松２-１",TRUE,TRUE,,TRUE,,TRUE,TRUE,,34.8061833,135.8148606
59472,"京都府井手町","井手町立玉川保育園","京都府綴喜郡井手町大字井手小字玉ノ井４７",TRUE,TRUE,,TRUE,,TRUE,TRUE,,34.80077885,135.8097817
59473,"京都府井手町","京都府立山城勤労者福祉会館","京都府綴喜郡井手町大字井手小字大塚９９-３５",TRUE,TRUE,,TRUE,,TRUE,TRUE,,34.80573867,135.8135282
59475,"京都府宇治田原町","宇治田原町立維孝館中学校","京都府綴喜郡宇治田原町大字岩山小字沼尻４番地",TRUE,TRUE,,TRUE,,,TRUE,,34.8572649,135.8660125
59476,"京都府宇治田原町","宇治田原町立宇治田原小学校","京都府綴喜郡宇治田原町大字岩山小字丸山３６番地",TRUE,TRUE,,TRUE,,,TRUE,,34.85963298,135.8825281
59477,"京都府宇治田原町","宇治田原町立田原小学校","京都府綴喜郡宇治田原町大字郷之口小字中林７番地",TRUE,TRUE,,TRUE,,,TRUE,,34.85017903,135.8532453
59478,"京都府宇治田原町","宇治田原町奥山田ふれあい交流館","京都府綴喜郡宇治田原町大字奥山田小字宮垣内１６２番地",TRUE,TRUE,,TRUE,,,TRUE,,34.859481,135.919352
59482,"京都府宇治田原町","宇治田原町住民体育館","京都府綴喜郡宇治田原町大字岩山小字沼尻３７番地の１",TRUE,TRUE,,,,,TRUE,,34.85601197,135.8643553
59483,"京都府宇治田原町","ＪＡ宇治田原町支店","京都府綴喜郡宇治田原町大字立川小字宮ノ本２２番地",TRUE,TRUE,,TRUE,,,TRUE,,34.85489,135.86601
59495,"京都府和束町","相楽東部広域連合立和束小学校","京都府相楽郡和束町大字園小字神定５７",TRUE,TRUE,,TRUE,,TRUE,TRUE,,34.80435216,135.9074089
59496,"京都府和束町","相楽東部広域連合立和束中学校","京都府相楽郡和束町大字釜塚小字北ノ畑１",TRUE,TRUE,,TRUE,,TRUE,TRUE,,34.79851953,135.9101866
59498,"京都府和束町","和束町体験交流センター","京都府相楽郡和束町大字中小字平田２３-１",TRUE,TRUE,,TRUE,,TRUE,TRUE,,34.80213022,135.9082422
59499,"京都府和束町","和束町立和束保育園","京都府相楽郡和束町大字中小字市場１９",,TRUE,,TRUE,,TRUE,TRUE,,34.80435233,135.9135194
59500,"京都府和束町","和束町社会福祉センター","京都府相楽郡和束町大字釜塚小字生水１５",TRUE,TRUE,,,,TRUE,TRUE,,34.79546424,135.9051871
59501,"京都府和束町","和束町人権ふれあいセンター","京都府相楽郡和束町大字釜塚小字前田４４",TRUE,TRUE,,TRUE,,TRUE,TRUE,,34.79818,135.904787
59502,"京都府和束町","和束Ｂ＆Ｇ海洋センター","京都府相楽郡和束町大字釜塚小字実坂１",TRUE,TRUE,,TRUE,,TRUE,TRUE,,34.79907503,135.9090756
59503,"京都府和束町","和束町老人福祉センター","京都府相楽郡和束町大字白栖小字南半田６８-１",TRUE,TRUE,,TRUE,,TRUE,TRUE,,34.7945472,135.8948774
59504,"京都府和束町","白栖区公民館","京都府相楽郡和束町大字白栖小字内勘定８",TRUE,TRUE,,TRUE,,TRUE,TRUE,,34.794613,135.887097
59505,"京都府和束町","中・五の瀬集会所","京都府相楽郡和束町大字湯船小字１９４-１、１９４-２",TRUE,,,TRUE,,TRUE,TRUE,,34.82914266,135.9427493
59506,"京都府精華町","精華町立川西小学校体育館","京都府相楽郡精華町大字北稲八間小字畑ヶ田１５-１",,TRUE,,TRUE,,,TRUE,,34.76666817,135.7901037
59507,"京都府精華町","精華町立精北小学校体育館","京都府相楽郡精華町大字下狛小字河原田４４",,TRUE,,TRUE,,,TRUE,,34.778532,135.7931047
59511,"京都府南山城村","相楽東部広域連合立南山城小学校","京都府相楽郡南山城村北大河原中谷１２-２６",TRUE,TRUE,,TRUE,,,,,34.76631055,136.0266491
59515,"京都府南山城村","相楽東部広域連合立笠置中学校","京都府相楽郡南山城村北大河原殿田平尾６３-２",TRUE,TRUE,,TRUE,,,,,34.76274575,136.0224637
59525,"京都府南山城村","月ヶ瀬ニュータウン集会所","京都府相楽郡南山城村北大河原釜ノ子２９-６６６",TRUE,TRUE,,TRUE,,,,,34.76785849,136.0217048
59526,"京都府南山城村","南山城村保健福祉センター","京都府相楽郡南山城村北大河原大稲葉４-１０",TRUE,TRUE,,TRUE,,,,,34.764927,136.025661
59528,"京都府京丹波町","旧須知小学校","京都府船井郡京丹波町須知金剛寺谷４０",TRUE,TRUE,,TRUE,,TRUE,TRUE,,35.15318992,135.4243836
59529,"京都府京丹波町","京丹波町生涯学習センター","京都府船井郡京丹波町豊田シミ９８",TRUE,TRUE,,TRUE,,TRUE,TRUE,,35.16578239,135.3995673
59530,"京都府京丹波町","京丹波町立竹野小学校","京都府船井郡京丹波町高岡高岡２３",TRUE,TRUE,,TRUE,,TRUE,TRUE,,35.13537642,135.4149263
59531,"京都府京丹波町","京丹波町山村開発センターみずほ","京都府船井郡京丹波町大朴乗次１",TRUE,TRUE,,TRUE,,TRUE,TRUE,,35.178607,135.373374
59532,"京都府京丹波町","梅田振興センター","京都府船井郡京丹波町水原フロノ元１-３",TRUE,TRUE,,TRUE,,TRUE,TRUE,,35.18933894,135.3240144
59533,"京都府京丹波町","三ノ宮基幹集落センター","京都府船井郡京丹波町三ノ宮縄手１８-２",TRUE,TRUE,,TRUE,,TRUE,TRUE,,35.22018121,135.340411
59534,"京都府京丹波町","京丹波町立瑞穂中学校","京都府船井郡京丹波町大朴世戸垣内１１-２",TRUE,TRUE,,TRUE,,TRUE,TRUE,,35.17698504,135.3705232
59535,"京都府京丹波町","質美振興センター","京都府船井郡京丹波町質美田中地３",TRUE,TRUE,,TRUE,,TRUE,TRUE,,35.21188605,135.3872248
59536,"京都府京丹波町","京丹波町立和知中学校","京都府船井郡京丹波町市場丸ヶ野４",TRUE,TRUE,,TRUE,,TRUE,TRUE,,35.25932074,135.4124708
59537,"京都府京丹波町","篠原体育館 （旧和知第二小学校グラウンド）","京都府船井郡京丹波町篠原堂ノ下３１",TRUE,TRUE,,TRUE,,TRUE,TRUE,,35.26647024,135.4313364
59538,"京都府京丹波町","下粟野体育館 （和知北部コミュニティ広場）","京都府船井郡京丹波町下粟野東反圃８８",TRUE,TRUE,,TRUE,,TRUE,TRUE,,35.30363764,135.425297
59539,"京都府京丹波町","京丹波町和知ふれあいセンター","京都府船井郡京丹波町本庄花ノ木１-４",TRUE,TRUE,,TRUE,,TRUE,TRUE,,35.261738,135.397959
59540,"京都府京丹波町","京丹波町立丹波ひかり小学校","京都府船井郡京丹波町曽根宮ノ浦戸麦５４",TRUE,TRUE,,TRUE,,TRUE,TRUE,,35.1587713,135.4211971
59541,"京都府京丹波町","わちグラウンド","京都府船井郡京丹波町安栖里寺田３７",TRUE,TRUE,,TRUE,,TRUE,TRUE,,35.26681086,135.3844176
59542,"京都府京丹波町","健康管理センター","京都府船井郡京丹波町須知鍋倉１-１",TRUE,TRUE,,TRUE,,TRUE,TRUE,,35.154067,135.426401
59543,"京都府京丹波町","京丹波町立上豊田保育所","京都府船井郡京丹波町豊田シミ９８",TRUE,TRUE,,TRUE,,TRUE,TRUE,,35.166176,135.399681
59544,"京都府京丹波町","畑川浄水場","京都府船井郡京丹波町下山クラベシ４１",TRUE,TRUE,,TRUE,,TRUE,TRUE,,35.202378,135.428215
59545,"京都府京丹波町","京丹波町立蒲生野中学校","京都府船井郡京丹波町蒲生八ツ谷６２",TRUE,TRUE,,TRUE,,TRUE,TRUE,,35.16524048,135.4217723
59546,"京都府京丹波町","わち農村環境改善センター","京都府船井郡京丹波町安栖里寺田３７",TRUE,TRUE,,TRUE,,TRUE,TRUE,,35.266645,135.383354
59547,"京都府京丹波町","広野生活改善センター","京都府船井郡京丹波町広野中路５-１",TRUE,TRUE,,TRUE,,TRUE,TRUE,,35.271312,135.354921
59548,"京都府伊根町","伊根町コミュニティセンター","京都府与謝郡伊根町字日出６５１",TRUE,TRUE,TRUE,TRUE,TRUE,,TRUE,,35.67516709,135.272742
