"id","prefecture","place_name","street","floods","mudslides","high_tides","earthquakes","tsunami","fire","burst_pipe","volcano","lat","long"
60056,"大阪府大阪市","弁天小学校","大阪府大阪市港区弁天2-9-35",TRUE,,,,TRUE,,,,34.66870708,135.4556665
62444,"大阪府堺市","若松台小学校","大阪府堺市南区若松台1-3-1",,TRUE,,TRUE,,,,,34.49160629,135.5067496
62445,"大阪府堺市","三原台小学校","大阪府堺市南区三原台3-2-1",,TRUE,,TRUE,,,,,34.50150038,135.51979
59550,"大阪府大阪市","滝川小学校（運動場）","大阪府大阪市北区天満１-24-15",,,,TRUE,TRUE,,,,34.69603243,135.519128
59551,"大阪府大阪市","滝川小学校","大阪府大阪市北区天満1-24-15",TRUE,,,,TRUE,,,,34.69610135,135.5185889
59553,"大阪府大阪市","堀川小学校（運動場）","大阪府大阪市北区東天満２-10-７",,,,TRUE,TRUE,,,,34.69788756,135.5132502
59554,"大阪府大阪市","堀川小学校","大阪府大阪市北区東天満2-10-7",TRUE,,,,TRUE,,,,34.69765105,135.5128948
59556,"大阪府大阪市","西天満小学校（運動場）","大阪府大阪市北区西天満３-12-21",,,,TRUE,TRUE,,,,34.6964161,135.5067585
59557,"大阪府大阪市","西天満小学校","大阪府大阪市北区西天満3-12-21",TRUE,,,,TRUE,,,,34.69655283,135.5070625
59560,"大阪府大阪市","菅北小学校","大阪府大阪市北区菅栄町9-5",TRUE,,,,TRUE,,,,34.70882061,135.5135787
59562,"大阪府大阪市","扇町小学校（運動場）","大阪府大阪市北区扇町２-７-24",,,,TRUE,TRUE,,,,34.70437094,135.5068964
59563,"大阪府大阪市","豊崎東小学校","大阪府大阪市北区長柄中2-3-30",TRUE,,,,TRUE,,,,34.7132406,135.5159413
59565,"大阪府大阪市","菅北小学校（運動場）","大阪府大阪市北区菅栄町９-５",,,,TRUE,TRUE,,,,34.70867066,135.5138594
59566,"大阪府大阪市","豊崎本庄小学校","大阪府大阪市北区本庄西2-1-16",TRUE,,,,TRUE,,,,34.71276645,135.5059297
59568,"大阪府大阪市","豊仁小学校（運動場）","大阪府大阪市北区長柄西２-６-20",,,,TRUE,TRUE,,,,34.71677378,135.5136408
59569,"大阪府大阪市","中津小学校","大阪府大阪市北区中津3-34-18",TRUE,,,,TRUE,,,,34.71354765,135.4940067
59571,"大阪府大阪市","豊崎東小学校（運動場）","大阪府大阪市北区長柄中２-３-30",,,,TRUE,TRUE,,,,34.71331557,135.5156695
59572,"大阪府大阪市","大淀小学校","大阪府大阪市北区大淀中4-10-33",TRUE,,,,TRUE,,,,34.70399194,135.482403
59574,"大阪府大阪市","豊崎本庄小学校（運動場）","大阪府大阪市北区本庄西２-１-16",,,,TRUE,TRUE,,,,34.71248423,135.5060388
59575,"大阪府大阪市","豊仁小学校","大阪府大阪市北区長柄西2-6-20",TRUE,,,,TRUE,,,,34.71705597,135.5134029
59577,"大阪府大阪市","豊崎小学校（運動場）","大阪府大阪市北区豊崎４-５-９",,,,TRUE,,,,,34.71232698,135.5006386
59578,"大阪府大阪市","豊崎小学校","大阪府大阪市北区豊崎4-5-9",TRUE,,,,TRUE,,,,34.71260038,135.5005563
59580,"大阪府大阪市","中津小学校（運動場）","大阪府大阪市北区中津３-34-18",,,,TRUE,,,,,34.71331835,135.4943142
59581,"大阪府大阪市","扇町小学校","大阪府大阪市北区扇町2-7-24",TRUE,,,,TRUE,,,,34.70467769,135.5064734
59583,"大阪府大阪市","大阪YMCAインターナショナルスクール（運動場）","大阪府大阪市北区中津６-７-34",,,,TRUE,,,,,34.70830982,135.4887893
59584,"大阪府大阪市","北稜中学校","大阪府大阪市北区天満橋1-1-58",TRUE,,,,TRUE,,,,34.69841897,135.5208641
59586,"大阪府大阪市","大淀小学校（運動場）","大阪府大阪市北区大淀中４-10-33",,,,TRUE,,,,,34.70363913,135.4823457
59587,"大阪府大阪市","大淀中学校","大阪府大阪市北区大淀中2-1-11",TRUE,,,,TRUE,,,,34.7037607,135.4865098
59589,"大阪府大阪市","北稜中学校（運動場）","大阪府大阪市北区天満橋１-１-58",,,,TRUE,TRUE,,,,34.69822491,135.5204582
59590,"大阪府大阪市","豊崎中学校","大阪府大阪市北区本庄東3-4-8",TRUE,,,,TRUE,,,,34.71562841,135.5091039
59592,"大阪府大阪市","天満中学校（運動場）","大阪府大阪市北区神山町12-９",,,,TRUE,TRUE,,,,34.70367797,135.5069831
59593,"大阪府大阪市","新豊崎中学校","大阪府大阪市北区長柄東2-2-30",TRUE,,,,TRUE,,,,34.71334545,135.5172558
59594,"大阪府大阪市","新豊崎中学校（運動場）","大阪府大阪市北区長柄東２-２-30",,,,TRUE,TRUE,,,,34.71312497,135.5179066
59595,"大阪府大阪市","天満中学校","大阪府大阪市北区神山町12-9",TRUE,,,,TRUE,,,,34.70319285,135.5069169
59596,"大阪府大阪市","豊崎中学校（運動場）","大阪府大阪市北区本庄東３-４-８",,,,TRUE,TRUE,,,,34.7160385,135.5094061
59597,"大阪府大阪市","扇町総合高等学校","大阪府大阪市北区松ヶ枝町1-38",TRUE,,,,TRUE,,,,34.69898624,135.5177446
59598,"大阪府大阪市","大淀中学校（運動場）","大阪府大阪市北区大淀中２-１-11",,,,TRUE,,,,,34.70400547,135.4868656
59600,"大阪府大阪市","扇町総合高等学校（運動場）","大阪府大阪市北区松ヶ枝町１-38",,,,TRUE,TRUE,,,,34.69908327,135.5168505
59633,"大阪府大阪市","大阪YMCAインターナショナルスクール （西側校舎、東側校舎、体育館）","大阪府大阪市北区中津6-7-34",TRUE,,,,TRUE,,,,34.70854685,135.4892332
59637,"大阪府大阪市","特別養護老人ホーム 淳風おおさか","大阪府大阪市北区大淀南2-5-20",TRUE,,,,TRUE,,,,34.7007994,135.4853586
59655,"大阪府大阪市","桜宮小学校","大阪府大阪市都島区東野田町1-10-19",TRUE,,,,TRUE,,,,34.69660089,135.5274501
59657,"大阪府大阪市","中野小学校","大阪府大阪市都島区中野町3-10-5",TRUE,,,,TRUE,,,,34.70286952,135.5242351
59659,"大阪府大阪市","高倉小学校","大阪府大阪市都島区高倉町3-3-10",TRUE,,,,TRUE,,,,34.71865988,135.5331981
59661,"大阪府大阪市","淀川小学校","大阪府大阪市都島区毛馬町3-5-39",TRUE,,,,TRUE,,,,34.72213861,135.5210341
59663,"大阪府大阪市","都島小学校","大阪府大阪市都島区都島本通3-10-3",TRUE,,,,TRUE,,,,34.70715535,135.52757
59665,"大阪府大阪市","内代小学校","大阪府大阪市都島区内代町3-4-6",TRUE,,,,TRUE,,,,34.71328063,135.5369093
59667,"大阪府大阪市","東都島小学校","大阪府大阪市都島区都島本通4-24-20",TRUE,,,,TRUE,,,,34.70829044,135.5337788
59669,"大阪府大阪市","大東小学校","大阪府大阪市都島区毛馬町2-11-111",TRUE,,,,TRUE,,,,34.72315408,135.5252992
59671,"大阪府大阪市","友渕小学校","大阪府大阪市都島区友渕町1-3-123",TRUE,,,,TRUE,,,,34.71939642,135.5268638
59674,"大阪府大阪市","高倉中学校","大阪府大阪市都島区御幸町1-1-10",TRUE,,,,TRUE,,,,34.71264852,135.532616
59676,"大阪府大阪市","桜宮中学校","大阪府大阪市都島区東野田町5-16-10",TRUE,,,,TRUE,,,,34.70167076,135.5366841
59678,"大阪府大阪市","都島中学校","大阪府大阪市都島区中野町3-9-33",TRUE,,,,TRUE,,,,34.70277375,135.5255613
59680,"大阪府大阪市","淀川中学校","大阪府大阪市都島区毛馬町3-5-12",TRUE,,,,TRUE,,,,34.72219169,135.5192734
59681,"大阪府大阪市","桜宮小学校（運動場）","大阪府大阪市都島区東野田町１-10-19",,,,TRUE,TRUE,,,,34.696207,135.5274731
59682,"大阪府大阪市","友渕中学校","大阪府大阪市都島区友渕町1-5-151",TRUE,,,,TRUE,,,,34.71607377,135.5263445
59683,"大阪府大阪市","中野小学校（運動場）","大阪府大阪市都島区中野町３-10-５",,,,TRUE,,,,,34.70293512,135.5246253
59684,"大阪府大阪市","桜宮高等学校","大阪府大阪市都島区毛馬町5-22-28",TRUE,,,,TRUE,,,,34.72700002,135.5236879
59685,"大阪府大阪市","都島小学校（運動場）","大阪府大阪市都島区都島本通３-10-３",,,,TRUE,,,,,34.70700248,135.5280117
59686,"大阪府大阪市","東高等学校","大阪府大阪市都島区東野田町4-15-14",TRUE,,,,TRUE,,,,34.69945307,135.5286258
59687,"大阪府大阪市","東都島小学校（運動場）","大阪府大阪市都島区都島本通４-24-20",,,,TRUE,,,,,34.70807822,135.5336433
59688,"大阪府大阪市","都島工業高等学校","大阪府大阪市都島区善源寺町1-5-64",TRUE,,,,TRUE,,,,34.71070934,135.5256417
59689,"大阪府大阪市","内代小学校（運動場）","大阪府大阪市都島区内代町３-４-６",,,,TRUE,TRUE,,,,34.71312335,135.5372597
59691,"大阪府大阪市","高倉小学校（運動場）","大阪府大阪市都島区高倉町３-３-10",,,,TRUE,,,,,34.71813664,135.5336183
59693,"大阪府大阪市","友渕小学校（運動場）","大阪府大阪市都島区友渕町１-３-123",,,,TRUE,TRUE,,,,34.71941553,135.5259215
59695,"大阪府大阪市","淀川小学校（運動場）","大阪府大阪市都島区毛馬町３-５-39",,,,TRUE,TRUE,,,,34.72173885,135.5209286
59697,"大阪府大阪市","大東小学校（運動場）","大阪府大阪市都島区毛馬町２-11-111",,,,TRUE,TRUE,,,,34.72305414,135.5249577
59699,"大阪府大阪市","桜宮中学校（運動場）","大阪府大阪市都島区東野田町５-16-10",,,,TRUE,,,,,34.70137261,135.5363499
59701,"大阪府大阪市","都島中学校（運動場）","大阪府大阪市都島区中野町３-９-33",,,,TRUE,,,,,34.7028498,135.5259401
59703,"大阪府大阪市","高倉中学校（運動場）","大阪府大阪市都島区御幸町１-１-10",,,,TRUE,,,,,34.71269409,135.5330791
59705,"大阪府大阪市","友渕中学校（運動場）","大阪府大阪市都島区友渕町１-５-151",,,,TRUE,TRUE,,,,34.71664406,135.5259547
59707,"大阪府大阪市","淀川中学校（運動場）","大阪府大阪市都島区毛馬町３-５-12",,,,TRUE,TRUE,,,,34.72202561,135.5199136
59709,"大阪府大阪市","都島工業高等学校（運動場）","大阪府大阪市都島区善源寺町１-５-64",,,,TRUE,TRUE,,,,34.71022573,135.5255469
59711,"大阪府大阪市","桜宮高等学校（運動場）","大阪府大阪市都島区毛馬町５-22-28",,,,TRUE,TRUE,,,,34.72775541,135.5246499
59713,"大阪府大阪市","東高等学校（運動場）","大阪府大阪市都島区東野田町４-15-14",,,,TRUE,TRUE,,,,34.69896499,135.5284344
59720,"大阪府大阪市","上福島小学校","大阪府大阪市福島区福島7-4-33",TRUE,,,,TRUE,,,,34.69721998,135.4852806
59722,"大阪府大阪市","福島小学校","大阪府大阪市福島区福島4-5-6",TRUE,,,,TRUE,,,,34.69364447,135.4832904
59724,"大阪府大阪市","玉川小学校","大阪府大阪市福島区玉川2-13-16",TRUE,,,,TRUE,,,,34.69178487,135.4812567
59726,"大阪府大阪市","下福島中学校","大阪府大阪市福島区玉川1-4-11",TRUE,,,,TRUE,,,,34.6882123,135.4823163
59944,"大阪府大阪市","愛日会館","大阪府大阪市中央区本町4-7-11",TRUE,,,,TRUE,,,,34.68453154,135.4982089
59728,"大阪府大阪市","野田小学校","大阪府大阪市福島区野田5-13-22",TRUE,,,,TRUE,,,,34.68600833,135.4734068
59730,"大阪府大阪市","吉野小学校","大阪府大阪市福島区吉野3-10-5",TRUE,,,,TRUE,,,,34.69021877,135.4727408
59732,"大阪府大阪市","野田中学校","大阪府大阪市福島区吉野5-9-4",TRUE,,,,TRUE,,,,34.68666018,135.4691179
59734,"大阪府大阪市","大開小学校","大阪府大阪市福島区大開2-10-28",TRUE,,,,TRUE,,,,34.69217458,135.4709063
59736,"大阪府大阪市","鷺洲小学校","大阪府大阪市福島区鷺洲5-6-8",TRUE,,,,TRUE,,,,34.6988011,135.4791387
59738,"大阪府大阪市","八阪中学校","大阪府大阪市福島区鷺洲6-1-13",TRUE,,,,TRUE,,,,34.7009395,135.4777571
59740,"大阪府大阪市","海老江東小学校","大阪府大阪市福島区海老江1-6-19",TRUE,,,,TRUE,,,,34.69917298,135.4752533
59742,"大阪府大阪市","海老江西小学校","大阪府大阪市福島区海老江8-1-10",TRUE,,,,TRUE,,,,34.69748234,135.4698463
59773,"大阪府大阪市","友渕小学校分校","大阪府大阪市都島区友渕町１-３-187",,,,TRUE,TRUE,,,,34.71698933,135.5224413
59775,"大阪府大阪市","上福島小学校（運動場）","大阪府大阪市福島区福島７-４-33",,,,TRUE,,,,,34.6969548,135.4851934
59777,"大阪府大阪市","福島小学校（運動場）","大阪府大阪市福島区福島４-５-６",,,,TRUE,,,,,34.69375639,135.4836297
59779,"大阪府大阪市","玉川小学校（運動場）","大阪府大阪市福島区玉川２-13-16",,,,TRUE,,,,,34.69192335,135.4808407
59781,"大阪府大阪市","下福島中学校（運動場）","大阪府大阪市福島区玉川１-４-11",,,,TRUE,,,,,34.68807042,135.481559
59783,"大阪府大阪市","野田小学校（運動場）","大阪府大阪市福島区野田５-13-22",,,,TRUE,,,,,34.68610684,135.4736983
59785,"大阪府大阪市","吉野小学校（運動場）","大阪府大阪市福島区吉野３-10-５",,,,TRUE,,,,,34.69031728,135.4732093
59787,"大阪府大阪市","野田中学校（運動場）","大阪府大阪市福島区吉野５-９-４",,,,TRUE,,,,,34.68695958,135.4689905
59789,"大阪府大阪市","大開小学校（運動場）","大阪府大阪市福島区大開２-10-28",,,,TRUE,,,,,34.69239659,135.4708544
59791,"大阪府大阪市","鷺洲小学校（運動場）","大阪府大阪市福島区鷺洲５-６-８",,,,TRUE,,,,,34.69918076,135.4786791
59793,"大阪府大阪市","八阪中学校（運動場）","大阪府大阪市福島区鷺洲６-１-13",,,,TRUE,,,,,34.70136436,135.4778822
59795,"大阪府大阪市","海老江東小学校（運動場）","大阪府大阪市福島区海老江１-６-19",,,,TRUE,,,,,34.69887014,135.4756091
59797,"大阪府大阪市","海老江西小学校（運動場）","大阪府大阪市福島区海老江８-１-10",,,,TRUE,,,,,34.69755879,135.4701807
59816,"大阪府大阪市","西九条小学校","大阪府大阪市此花区西九条4-3-41",TRUE,,,,TRUE,,,,34.68261119,135.4647448
59818,"大阪府大阪市","四貫島小学校","大阪府大阪市此花区四貫島2-16-29",TRUE,,,,TRUE,,,,34.68501173,135.4545741
59820,"大阪府大阪市","梅香小学校","大阪府大阪市此花区梅香3-17-29",TRUE,,,,TRUE,,,,34.68230698,135.4553263
59822,"大阪府大阪市","春日出小学校","大阪府大阪市此花区春日出中1-13-23",TRUE,,,,TRUE,,,,34.68060686,135.452324
59824,"大阪府大阪市","伝法小学校","大阪府大阪市此花区伝法3-13-10",TRUE,,,,TRUE,,,,34.69026825,135.4515093
59826,"大阪府大阪市","高見小学校","大阪府大阪市此花区高見1-3-35",TRUE,,,,TRUE,,,,34.69054615,135.4603578
59828,"大阪府大阪市","酉島小学校","大阪府大阪市此花区酉島2-5-12",TRUE,,,,TRUE,,,,34.68557503,135.4422875
59830,"大阪府大阪市","島屋小学校","大阪府大阪市此花区島屋2-9-36",TRUE,,,,TRUE,,,,34.67778949,135.4393172
59832,"大阪府大阪市","春日出中学校","大阪府大阪市此花区春日出南1-2-8",TRUE,,,,TRUE,,,,34.67854891,135.4579395
59834,"大阪府大阪市","梅香中学校","大阪府大阪市此花区春日出北3-12-24",TRUE,,,,TRUE,,,,34.68086263,135.4440598
59836,"大阪府大阪市","此花中学校","大阪府大阪市此花区高見2-14-31",TRUE,,,,TRUE,,,,34.69007014,135.4552826
59838,"大阪府大阪市","咲くやこの花中学校・高等学校","大阪府大阪市此花区西九条6-1-44",TRUE,,,,TRUE,,,,34.68053595,135.4616052
59840,"大阪府大阪市","もと此花総合高等学校（新館）","大阪府大阪市此花区酉島2-3-16",TRUE,,,,TRUE,,,,34.68564029,135.4429668
59851,"大阪府大阪市","西九条小学校（運動場）","大阪府大阪市此花区西九条４-３-41",,,,TRUE,,,,,34.68231279,135.4647914
59853,"大阪府大阪市","四貫島小学校（運動場）","大阪府大阪市此花区四貫島２-16-29",,,,TRUE,,,,,34.68485146,135.4541092
59855,"大阪府大阪市","梅香小学校（運動場）","大阪府大阪市此花区梅香３-17-29",,,,TRUE,,,,,34.68209377,135.4550438
59857,"大阪府大阪市","春日出小学校（運動場）","大阪府大阪市此花区春日出中１-13-23",,,,TRUE,,,,,34.68050232,135.4526447
59859,"大阪府大阪市","伝法小学校（運動場）","大阪府大阪市此花区伝法３-13-10",,,,TRUE,,,,,34.69000948,135.451774
59861,"大阪府大阪市","高見小学校（運動場）","大阪府大阪市此花区高見１-３-35",,,,TRUE,,,,,34.69053439,135.4609712
59863,"大阪府大阪市","酉島小学校（運動場）","大阪府大阪市此花区酉島２-５-12",,,,TRUE,,,,,34.68582352,135.4421337
59865,"大阪府大阪市","島屋小学校（運動場）","大阪府大阪市此花区島屋２-９-36",,,,TRUE,,,,,34.67745127,135.4391795
59867,"大阪府大阪市","春日出中学校（運動場）","大阪府大阪市此花区春日出南１-２-８",,,,TRUE,,,,,34.67892977,135.4579145
59869,"大阪府大阪市","梅香中学校（運動場）","大阪府大阪市此花区春日出北３-12-24",,,,TRUE,,,,,34.68134052,135.4450862
59871,"大阪府大阪市","此花中学校（運動場）","大阪府大阪市此花区高見２-14-31",,,,TRUE,,,,,34.69060826,135.4556384
59873,"大阪府大阪市","もと此花総合高等学校（運動場）","大阪府大阪市此花区酉島２-３-16",,,,TRUE,,,,,34.68567558,135.444063
59875,"大阪府大阪市","昇陽中学校・高等学校（運動場）","大阪府大阪市此花区朝日１-１-９",,,,TRUE,,,,,34.68516378,135.4623037
59877,"大阪府大阪市","咲くやこの花中学校・高等学校（運動場）","大阪府大阪市此花区西九条６-１-44",,,,TRUE,,,,,34.68005511,135.4611939
59882,"大阪府大阪市","ケアハウス大阪安立","大阪府大阪市此花区西九条3-4-61",TRUE,,,,TRUE,,,,34.68580797,135.4680494
59884,"大阪府大阪市","此花区在宅サービスセンター","大阪府大阪市此花区伝法3-2-27",TRUE,,,,TRUE,,,,34.69029311,135.4545478
59894,"大阪府大阪市","昇陽中学校・高等学校","大阪府大阪市此花区朝日1-1-9",TRUE,,,,TRUE,,,,34.6854358,135.4622429
59940,"大阪府大阪市","本願寺津村別院（北御堂）","大阪府大阪市中央区本町4-1-3",TRUE,,,,TRUE,,,,34.68485382,135.4995377
59942,"大阪府大阪市","真宗大谷派難波別院（南御堂）","大阪府大阪市中央区久太郎町4-1-11",TRUE,,,,TRUE,,,,34.68013046,135.4998112
59946,"大阪府大阪市","相愛中学校・高等学校","大阪府大阪市中央区本町4-1-23",TRUE,,,,TRUE,,,,34.68408683,135.4997824
59952,"大阪府大阪市","西中学校","大阪府大阪市西区千代崎3-1-43",TRUE,,,,TRUE,,,,34.67152652,135.4789545
59954,"大阪府大阪市","花乃井中学校","大阪府大阪市西区江戸堀2-8-29",TRUE,,,,TRUE,,,,34.6865105,135.4895166
59956,"大阪府大阪市","堀江中学校","大阪府大阪市西区南堀江3-5-7",TRUE,,,,TRUE,,,,34.67077647,135.489883
59958,"大阪府大阪市","西船場小学校","大阪府大阪市西区江戸堀1-21-28",TRUE,,,,TRUE,,,,34.68850368,135.4938982
59960,"大阪府大阪市","日吉小学校","大阪府大阪市西区南堀江4-9-19",TRUE,,,,TRUE,,,,34.67115027,135.4845895
59962,"大阪府大阪市","九条南小学校","大阪府大阪市西区九条南2-13-17",TRUE,,,,TRUE,,,,34.67307478,135.4726965
59964,"大阪府大阪市","九条東小学校","大阪府大阪市西区九条2-6-2",TRUE,,,,TRUE,,,,34.67565763,135.4724052
59966,"大阪府大阪市","九条北小学校","大阪府大阪市西区九条南4-7-38",TRUE,,,,TRUE,,,,34.67687685,135.4682933
59967,"大阪府大阪市","開平小学校（運動場）","大阪府大阪市中央区今橋１-５-７",,,,TRUE,TRUE,,,,34.69047412,135.5079416
59968,"大阪府大阪市","本田小学校","大阪府大阪市西区川口1-5-19",TRUE,,,,TRUE,,,,34.68150716,135.4815944
59969,"大阪府大阪市","中大江小学校、中大江幼稚園（運動場）","大阪府大阪市中央区糸屋町２-３-14、南新町２-４-８",,,,TRUE,TRUE,,,,34.68518166,135.5125898
59970,"大阪府大阪市","堀江小学校","大阪府大阪市西区北堀江3-2-16",TRUE,,,,TRUE,,,,34.67439463,135.4903174
59971,"大阪府大阪市","南大江小学校（運動場）","大阪府大阪市中央区農人橋１-３-３",,,,TRUE,TRUE,,,,34.67998015,135.515067
59972,"大阪府大阪市","明治小学校","大阪府大阪市西区阿波座2-3-35",TRUE,,,,TRUE,,,,34.6805678,135.4919018
59973,"大阪府大阪市","玉造小学校（運動場）","大阪府大阪市中央区玉造２-３-43",,,,TRUE,TRUE,,,,34.67843214,135.5295222
59975,"大阪府大阪市","東中学校（運動場）","大阪府大阪市中央区大手前４-１-５",,,,TRUE,TRUE,,,,34.68251096,135.5182154
59977,"大阪府大阪市","聴覚特別支援学校（運動場）","大阪府大阪市中央区上町１-19-31",,,,TRUE,TRUE,,,,34.67737904,135.5229432
59979,"大阪府大阪市","上町中学校（運動場）","大阪府大阪市中央区上本町西３-２-30",,,,TRUE,TRUE,,,,34.67236697,135.5193814
59981,"大阪府大阪市","南中学校（運動場）","大阪府大阪市中央区島之内１-10-23",,,,TRUE,TRUE,,,,34.67417815,135.5089089
59983,"大阪府大阪市","中央高等学校（運動場）","大阪府大阪市中央区釣鐘町１-１-５",,,,TRUE,TRUE,,,,34.68769017,135.5163119
59985,"大阪府大阪市","中央小学校（運動場）","大阪府大阪市中央区瓦屋町２-８-４",,,,TRUE,TRUE,,,,34.67064862,135.5128885
59987,"大阪府大阪市","南幼稚園（運動場）","大阪府大阪市中央区南船場３-２-19",,,,TRUE,TRUE,,,,34.6769333,135.5026273
59989,"大阪府大阪市","南小学校（運動場）","大阪府大阪市中央区東心斎橋１-14-29",,,,TRUE,TRUE,,,,34.67315456,135.5038082
59991,"大阪府大阪市","高津小学校（運動場）","大阪府大阪市中央区高津３-４-21",,,,TRUE,TRUE,,,,34.66546294,135.5108656
59993,"大阪府大阪市","大手前高等学校（運動場）","大阪府大阪市中央区大手前２-１-11",,,,TRUE,TRUE,,,,34.68780449,135.5187289
59995,"大阪府大阪市","本願寺津村別院（北御堂）","大阪府大阪市中央区本町４-１-３",,,,TRUE,,,,,34.68498027,135.4995341
59997,"大阪府大阪市","真宗大谷派難波別院（南御堂）","大阪府大阪市中央区久太郎町４-１-11",,,,TRUE,,,,,34.68007164,135.4997092
60044,"大阪府大阪市","市岡中学校","大阪府大阪市港区磯路1-5-21",TRUE,,,,TRUE,,,,34.66662191,135.461659
60046,"大阪府大阪市","市岡東中学校","大阪府大阪市港区市岡元町3-2-18",TRUE,,,,TRUE,,,,34.66695836,135.4650852
60048,"大阪府大阪市","港中学校","大阪府大阪市港区池島1-5-35",TRUE,,,,TRUE,,,,34.65756726,135.4485119
60050,"大阪府大阪市","港南中学校","大阪府大阪市港区三先1-5-28",TRUE,,,,TRUE,,,,34.66025749,135.456796
60051,"大阪府大阪市","西高等学校（運動場）","大阪府大阪市西区北堀江４-15",,,,TRUE,,,,,34.67388418,135.4833029
60052,"大阪府大阪市","築港中学校","大阪府大阪市港区築港1-2-41",TRUE,,,,TRUE,,,,34.65280651,135.4379339
60053,"大阪府大阪市","西中学校（運動場）","大阪府大阪市西区千代崎３-１-43",,,,TRUE,,,,,34.67162064,135.4780819
60054,"大阪府大阪市","波除小学校","大阪府大阪市港区波除3-6-8",TRUE,,,,TRUE,,,,34.67185552,135.4623117
60055,"大阪府大阪市","花乃井中学校（運動場）","大阪府大阪市西区江戸堀２-８-29",,,,TRUE,,,,,34.68618997,135.4892609
60057,"大阪府大阪市","堀江中学校（運動場）","大阪府大阪市西区南堀江３-５-７",,,,TRUE,,,,,34.67050403,135.4897583
60058,"大阪府大阪市","磯路小学校","大阪府大阪市港区磯路3-7-7",TRUE,,,,TRUE,,,,34.66523316,135.4571829
60059,"大阪府大阪市","西船場小学校（運動場）","大阪府大阪市西区江戸堀１-21-28",,,,TRUE,,,,,34.68825593,135.4940878
60060,"大阪府大阪市","南市岡小学校","大阪府大阪市港区南市岡2-6-35",TRUE,,,,TRUE,,,,34.66583272,135.4688816
60061,"大阪府大阪市","日吉小学校（運動場）","大阪府大阪市西区南堀江４-９-１９",,,,TRUE,,,,,34.67115615,135.4838215
60062,"大阪府大阪市","市岡小学校","大阪府大阪市港区市岡3-2-24",TRUE,,,,TRUE,,,,34.66363193,135.4647366
60063,"大阪府大阪市","九条南小学校（運動場）","大阪府大阪市西区九条南２-13-17",,,,TRUE,,,,,34.6726678,135.4730707
60064,"大阪府大阪市","田中小学校","大阪府大阪市港区田中2-10-34",TRUE,,,,TRUE,,,,34.6635576,135.4472177
60065,"大阪府大阪市","九条東小学校（運動場）","大阪府大阪市西区九条２-６-２",,,,TRUE,,,,,34.67533705,135.4726055
60066,"大阪府大阪市","三先小学校","大阪府大阪市港区三先2-6-32",TRUE,,,,TRUE,,,,34.65884165,135.4531963
60067,"大阪府大阪市","九条北小学校（運動場）","大阪府大阪市西区九条南４-７-38",,,,TRUE,,,,,34.67668421,135.4677533
60068,"大阪府大阪市","池島小学校","大阪府大阪市港区池島2-5-47",TRUE,,,,TRUE,,,,34.65553793,135.4511944
60069,"大阪府大阪市","本田小学校（運動場）","大阪府大阪市西区川口１-５-19",,,,TRUE,,,,,34.68125719,135.4818591
60070,"大阪府大阪市","八幡屋小学校","大阪府大阪市港区八幡屋3-3-5",TRUE,,,,TRUE,,,,34.65483232,135.4458613
60071,"大阪府大阪市","堀江小学校（運動場）","大阪府大阪市西区北堀江３-２-16",,,,TRUE,,,,,34.67450198,135.4899223
60072,"大阪府大阪市","港晴小学校","大阪府大阪市港区港晴1-3-12",TRUE,,,,TRUE,,,,34.65662821,135.4440122
60073,"大阪府大阪市","明治小学校（運動場）","大阪府大阪市西区阿波座２-３-35",,,,TRUE,,,,,34.68022077,135.4913135
60074,"大阪府大阪市","築港小学校","大阪府大阪市港区築港1-10-38",TRUE,,,,TRUE,,,,34.65301641,135.4361979
60075,"大阪府大阪市","靭幼稚園（運動場）","大阪府大阪市西区靭本町１-19-13",,,,TRUE,,,,,34.68378338,135.4940897
60076,"大阪府大阪市","港高等学校","大阪府大阪市港区波除2-3-1",TRUE,,,,TRUE,,,,34.67091931,135.4655372
60078,"大阪府大阪市","市岡高等学校","大阪府大阪市港区市岡元町2-12-12",TRUE,,,,TRUE,,,,34.66745104,135.4663128
60125,"大阪府大阪市","市岡高等学校（運動場）","大阪府大阪市港区市岡元町２-12-12",,,,TRUE,,,,,34.66777864,135.4667465
60127,"大阪府大阪市","港高等学校（運動場）","大阪府大阪市港区波除２-３-１",,,,TRUE,,,,,34.67137373,135.4659627
60129,"大阪府大阪市","市岡中学校（運動場）","大阪府大阪市港区磯路１-５-21",,,,TRUE,,,,,34.66673717,135.4624516
60131,"大阪府大阪市","市岡東中学校（運動場）","大阪府大阪市港区市岡元町３-２-18",,,,TRUE,,,,,34.66719937,135.4654057
60133,"大阪府大阪市","港中学校（運動場）","大阪府大阪市港区池島１-５-35",,,,TRUE,,,,,34.65726721,135.4488409
60135,"大阪府大阪市","港南中学校（運動場）","大阪府大阪市港区三先１-５-28",,,,TRUE,,,,,34.66049135,135.4572215
60137,"大阪府大阪市","築港中学校（運動場）","大阪府大阪市港区築港１-２-41",,,,TRUE,,,,,34.6525285,135.4382897
60139,"大阪府大阪市","波除小学校（運動場）","大阪府大阪市港区波除３-６-８",,,,TRUE,,,,,34.6716217,135.4626461
60141,"大阪府大阪市","弁天小学校（運動場）","大阪府大阪市港区弁天２-９-35",,,,TRUE,,,,,34.66822617,135.4556522
60143,"大阪府大阪市","磯路小学校（運動場）","大阪府大阪市港区磯路３-７-７",,,,TRUE,,,,,34.6653567,135.4567555
60145,"大阪府大阪市","南市岡小学校（運動場）","大阪府大阪市港区南市岡２-６-35",,,,TRUE,,,,,34.66555917,135.4689263
60147,"大阪府大阪市","市岡小学校（運動場）","大阪府大阪市港区市岡３-２-24",,,,TRUE,,,,,34.66331866,135.4646633
60149,"大阪府大阪市","田中小学校（運動場）","大阪府大阪市港区田中２-10-34",,,,TRUE,,,,,34.66319138,135.4474448
60151,"大阪府大阪市","三先小学校（運動場）","大阪府大阪市港区三先２-６-32",,,,TRUE,,,,,34.65902256,135.4529996
60153,"大阪府大阪市","池島小学校（運動場）","大阪府大阪市港区池島２-５-47",,,,TRUE,,,,,34.65498634,135.4511908
60155,"大阪府大阪市","八幡屋小学校（運動場）","大阪府大阪市港区八幡屋３-３-５",,,,TRUE,,,,,34.65493436,135.4462354
60157,"大阪府大阪市","港晴小学校（運動場）","大阪府大阪市港区港晴１-３-12",,,,TRUE,,,,,34.65648535,135.4445285
60159,"大阪府大阪市","築港小学校（運動場）","大阪府大阪市港区築港１-10-38",,,,TRUE,,,,,34.65263249,135.4364411
60160,"大阪府大阪市","特別養護老人ホーム愛港園","大阪府大阪市港区八幡屋4-8-1",TRUE,,,,TRUE,,,,34.65157126,135.4467781
60200,"大阪府大阪市","泉尾工業高等学校","大阪府大阪市大正区泉尾5-16-7",TRUE,,,,TRUE,,,,34.65475652,135.4686207
60202,"大阪府大阪市","大正東中学校","大阪府大阪市大正区三軒家東4-4-30",TRUE,,,,TRUE,,,,34.66221036,135.4773858
60204,"大阪府大阪市","大正北中学校","大阪府大阪市大正区北村3-1-1",TRUE,,,,TRUE,,,,34.65000799,135.4691346
60206,"大阪府大阪市","大正中央中学校","大阪府大阪市大正区小林東3-23-5",TRUE,,,,TRUE,,,,34.6440605,135.4717336
60208,"大阪府大阪市","大正西中学校","大阪府大阪市大正区南恩加島6-14-37",TRUE,,,,TRUE,,,,34.6362095,135.4650007
60210,"大阪府大阪市","三軒家西小学校","大阪府大阪市大正区三軒家西1-20-26",TRUE,,,,TRUE,,,,34.66500241,135.4770766
60212,"大阪府大阪市","三軒家東小学校","大阪府大阪市大正区三軒家東2-12-63",TRUE,,,,TRUE,,,,34.66055581,135.4794829
60214,"大阪府大阪市","泉尾東小学校","大阪府大阪市大正区千島1-16-16",TRUE,,,,TRUE,,,,34.65394747,135.4747946
60216,"大阪府大阪市","泉尾北小学校","大阪府大阪市大正区泉尾2-21-24",TRUE,,,,TRUE,,,,34.66042987,135.4706146
60218,"大阪府大阪市","中泉尾小学校","大阪府大阪市大正区泉尾3-23-34",TRUE,,,,TRUE,,,,34.65949465,135.4694315
60220,"大阪府大阪市","北恩加島小学校","大阪府大阪市大正区泉尾5-17-31",TRUE,,,,TRUE,,,,34.65448569,135.4683069
60221,"大阪府大阪市","泉尾高等学校（運動場）","大阪府大阪市大正区泉尾３-19-50",,,,TRUE,,,,,34.65925895,135.4703922
60222,"大阪府大阪市","小林小学校","大阪府大阪市大正区小林東2-4-45",TRUE,,,,TRUE,,,,34.64651979,135.4738395
60223,"大阪府大阪市","泉尾工業高等学校（運動場）","大阪府大阪市大正区泉尾５-16-７",,,,TRUE,,,,,34.65509189,135.4688854
60224,"大阪府大阪市","平尾小学校","大阪府大阪市大正区平尾2-21-28",TRUE,,,,TRUE,,,,34.64084889,135.4740387
60225,"大阪府大阪市","大正高等学校（運動場）","大阪府大阪市大正区泉尾７-11-20",,,,TRUE,,,,,34.65737122,135.4657668
60226,"大阪府大阪市","南恩加島小学校","大阪府大阪市大正区南恩加島3-6-11",TRUE,,,,TRUE,,,,34.63616511,135.469879
60227,"大阪府大阪市","大正東中学校（運動場）","大阪府大阪市大正区三軒家東４-４-30",,,,TRUE,,,,,34.66228151,135.4782482
60228,"大阪府大阪市","鶴町小学校","大阪府大阪市大正区鶴町2-6-24",TRUE,,,,TRUE,,,,34.63939478,135.4563769
60229,"大阪府大阪市","大正北中学校（運動場）","大阪府大阪市大正区北村３-１-１",,,,TRUE,,,,,34.64955345,135.4685517
60231,"大阪府大阪市","大正中央中学校（運動場）","大阪府大阪市大正区小林東３-23-５",,,,TRUE,,,,,34.64393252,135.4712794
60233,"大阪府大阪市","大正西中学校（運動場）","大阪府大阪市大正区南恩加島６-14-37",,,,TRUE,,,,,34.63639046,135.4644017
60235,"大阪府大阪市","三軒家西小学校（運動場）","大阪府大阪市大正区三軒家西１-20-26",,,,TRUE,,,,,34.66493182,135.4766385
60237,"大阪府大阪市","三軒家東小学校（運動場）","大阪府大阪市大正区三軒家東２-12-63",,,,TRUE,,,,,34.65998219,135.4797511
60239,"大阪府大阪市","泉尾東小学校（運動場）","大阪府大阪市大正区千島１-16-16",,,,TRUE,,,,,34.65404749,135.4744182
60241,"大阪府大阪市","泉尾北小学校（運動場）","大阪府大阪市大正区泉尾２-21-24",,,,TRUE,,,,,34.66017248,135.4710187
60243,"大阪府大阪市","中泉尾小学校（運動場）","大阪府大阪市大正区泉尾３-23-34",,,,TRUE,,,,,34.65915342,135.4696478
60245,"大阪府大阪市","北恩加島小学校（運動場）","大阪府大阪市大正区泉尾５-17-31",,,,TRUE,,,,,34.65417091,135.4683087
60247,"大阪府大阪市","小林小学校（運動場）","大阪府大阪市大正区小林東２-４-45",,,,TRUE,,,,,34.64600198,135.4739594
60249,"大阪府大阪市","平尾小学校（運動場）","大阪府大阪市大正区平尾２-21-28",,,,TRUE,,,,,34.64090921,135.4744213
60251,"大阪府大阪市","南恩加島小学校（運動場）","大阪府大阪市大正区南恩加島３-６-11",,,,TRUE,,,,,34.6363446,135.4696447
60253,"大阪府大阪市","鶴町小学校（運動場）","大阪府大阪市大正区鶴町２-６-24",,,,TRUE,,,,,34.63900529,135.4563676
60254,"大阪府大阪市","もと立葉小学校","大阪府大阪市浪速区立葉2-1-15",TRUE,,,,TRUE,,,,34.66481796,135.485628
60255,"大阪府大阪市","埋蔵文化財鶴浜収蔵倉庫（運動場）","大阪府大阪市大正区鶴町２-20-26",,,,TRUE,,,,,34.6378185,135.4528451
60256,"大阪府大阪市","難波中学校","大阪府大阪市浪速区塩草1-1-59",TRUE,,,,TRUE,,,,34.66244321,135.4916038
60258,"大阪府大阪市","塩草立葉小学校","大阪府大阪市浪速区塩草1-4-31",TRUE,,,,TRUE,,,,34.66126263,135.4904566
60260,"大阪府大阪市","難波元町小学校","大阪府大阪市浪速区元町1-5-30",TRUE,,,,TRUE,,,,34.66485214,135.4968306
60262,"大阪府大阪市","敷津小学校","大阪府大阪市浪速区敷津東3-9-32",TRUE,,,,TRUE,,,,34.65600535,135.4991023
60264,"大阪府大阪市","大国小学校","大阪府大阪市浪速区大国1-9-3",TRUE,,,,TRUE,,,,34.65355453,135.4969879
60266,"大阪府大阪市","木津中学校","大阪府大阪市浪速区戎本町1-3-46",TRUE,,,,TRUE,,,,34.65382286,135.5000313
60268,"大阪府大阪市","恵美小学校","大阪府大阪市浪速区恵美須西2-13-9",TRUE,,,,TRUE,,,,34.65308321,135.5027404
60270,"大阪府大阪市","日本橋中学校","大阪府大阪市浪速区日本橋西1-7-6",TRUE,,,,TRUE,,,,34.65856385,135.5040035
60272,"大阪府大阪市","日東小学校","大阪府大阪市浪速区日本橋東3-1-23",TRUE,,,,TRUE,,,,34.65818794,135.508521
60274,"大阪府大阪市","日本橋小学校","大阪府大阪市浪速区日本橋3-2-27",TRUE,,,,TRUE,,,,34.66229991,135.5070685
60276,"大阪府大阪市","今宮高等学校","大阪府大阪市浪速区戎本町2-7-41",TRUE,,,,TRUE,,,,34.65220165,135.4990128
60301,"大阪府大阪市","天王寺小学校（運動場）","大阪府大阪市天王寺区大道１-４-49",,,,TRUE,TRUE,,,,34.6525538,135.5152394
60303,"大阪府大阪市","大江小学校（運動場）","大阪府大阪市天王寺区四天王寺１-９-18",,,,TRUE,TRUE,,,,34.65656425,135.5149733
60305,"大阪府大阪市","聖和小学校（運動場）","大阪府大阪市天王寺区寺田町１-６-37",,,,TRUE,TRUE,,,,34.65176397,135.5222868
60307,"大阪府大阪市","五条小学校（運動場）","大阪府大阪市天王寺区小宮町９-28",,,,TRUE,TRUE,,,,34.65910434,135.5197999
60309,"大阪府大阪市","生魂小学校（運動場）","大阪府大阪市天王寺区上汐４-１-25",,,,TRUE,TRUE,,,,34.66279796,135.5171262
60311,"大阪府大阪市","桃陽小学校（運動場）","大阪府大阪市天王寺区堂ヶ芝１-２-23",,,,TRUE,TRUE,,,,34.66141899,135.5282591
60313,"大阪府大阪市","味原小学校（運動場）","大阪府大阪市天王寺区味原町８-19",,,,TRUE,TRUE,,,,34.66703735,135.5278747
60315,"大阪府大阪市","真田山小学校（運動場）","大阪府大阪市天王寺区玉造本町14-41",,,,TRUE,TRUE,,,,34.67181717,135.5282258
60317,"大阪府大阪市","天王寺中学校（運動場）","大阪府大阪市天王寺区北河堀町６-20",,,,TRUE,TRUE,,,,34.65011459,135.5174364
60319,"大阪府大阪市","夕陽丘中学校（運動場）","大阪府大阪市天王寺区小宮町６-28",,,,TRUE,TRUE,,,,34.66028308,135.5194006
60321,"大阪府大阪市","高津中学校（運動場）","大阪府大阪市天王寺区城南寺町１-31",,,,TRUE,TRUE,,,,34.67119596,135.5240079
60323,"大阪府大阪市","大阪ビジネスフロンティア高等学校（運動場）","大阪府大阪市天王寺区烏ヶ辻２-９-26",,,,TRUE,TRUE,,,,34.65635998,135.5246343
60325,"大阪府大阪市","清風学園（運動場）","大阪府大阪市天王寺区石ヶ辻町12-16",,,,TRUE,TRUE,,,,34.66355418,135.5215653
60327,"大阪府大阪市","高津高等学校（運動場）","大阪府大阪市天王寺区餌差町10-47",,,,TRUE,TRUE,,,,34.67028029,135.5251077
60329,"大阪府大阪市","夕陽丘高等学校（運動場）","大阪府大阪市天王寺区北山町10-10",,,,TRUE,TRUE,,,,34.65861352,135.522064
60331,"大阪府大阪市","大阪夕陽丘学園（運動場）","大阪府大阪市天王寺区生玉町７-72",,,,TRUE,TRUE,,,,34.6599803,135.5123463
60333,"大阪府大阪市","大阪明星学園（運動場）","大阪府大阪市天王寺区餌差町５-44",,,,TRUE,TRUE,,,,34.67279161,135.5258249
60405,"大阪府大阪市","もと立葉小学校（運動場）","大阪府大阪市浪速区立葉２-１-15",,,,TRUE,,,,,34.6646707,135.4860022
60407,"大阪府大阪市","難波中学校（運動場）","大阪府大阪市浪速区塩草１-１-59",,,,TRUE,,,,,34.66214979,135.4908412
60409,"大阪府大阪市","塩草立葉小学校（運動場）","大阪府大阪市浪速区塩草１-４-31",,,,TRUE,,,,,34.66103759,135.4907373
60411,"大阪府大阪市","難波元町小学校（運動場）","大阪府大阪市浪速区元町１-５-30",,,,TRUE,,,,,34.66478155,135.4971971
60413,"大阪府大阪市","敷津小学校（運動場）","大阪府大阪市浪速区敷津東３-９-32",,,,TRUE,,,,,34.65571411,135.499324
60415,"大阪府大阪市","大国小学校（運動場）","大阪府大阪市浪速区大国１-９-３",,,,TRUE,,,,,34.65328094,135.4967054
60417,"大阪府大阪市","木津中学校（運動場）","大阪府大阪市浪速区戎本町１-３-46",,,,TRUE,,,,,34.65335345,135.5002579
60419,"大阪府大阪市","恵美小学校（運動場）","大阪府大阪市浪速区恵美須西２-13-９",,,,TRUE,TRUE,,,,34.65337501,135.5024869
60421,"大阪府大阪市","日本橋中学校（運動場）","大阪府大阪市浪速区日本橋西１-７-６",,,,TRUE,TRUE,,,,34.65793241,135.5035868
60423,"大阪府大阪市","日東小学校（運動場）","大阪府大阪市浪速区日本橋東３-１-23",,,,TRUE,TRUE,,,,34.65779523,135.5085711
60424,"大阪府大阪市","柏里小学校","大阪府大阪市西淀川区柏里2-13-33",TRUE,,,,TRUE,,,,34.71014688,135.4659264
60425,"大阪府大阪市","日本橋小学校（運動場）","大阪府大阪市浪速区日本橋３-２-27",,,,TRUE,TRUE,,,,34.66199187,135.5071595
60426,"大阪府大阪市","野里小学校","大阪府大阪市西淀川区野里2-21-13",TRUE,,,,TRUE,,,,34.71116853,135.4611918
60427,"大阪府大阪市","今宮高等学校（運動場）","大阪府大阪市浪速区戎本町２-７-39",,,,TRUE,,,,,34.65280384,135.4986455
60428,"大阪府大阪市","歌島小学校","大阪府大阪市西淀川区歌島2-5-18",TRUE,,,,TRUE,,,,34.71404668,135.4615234
60430,"大阪府大阪市","香簑小学校","大阪府大阪市西淀川区御幣島6-5-25",TRUE,,,,TRUE,,,,34.72068722,135.4531897
60432,"大阪府大阪市","佃小学校","大阪府大阪市西淀川区佃1-21-12",TRUE,,,,TRUE,,,,34.71660166,135.446921
60434,"大阪府大阪市","佃西小学校","大阪府大阪市西淀川区佃2-15-30",TRUE,,,,TRUE,,,,34.71475684,135.4444196
60436,"大阪府大阪市","佃南小学校","大阪府大阪市西淀川区佃5-12-12",TRUE,,,,TRUE,,,,34.71344265,135.4357963
60438,"大阪府大阪市","大和田小学校","大阪府大阪市西淀川区大和田4-3-24",TRUE,,,,TRUE,,,,34.70594635,135.445043
60440,"大阪府大阪市","姫里小学校","大阪府大阪市西淀川区姫里2-8-24",TRUE,,,,TRUE,,,,34.70645238,135.4583783
60442,"大阪府大阪市","姫島小学校","大阪府大阪市西淀川区姫島1-10-4",TRUE,,,,TRUE,,,,34.70157704,135.455678
60444,"大阪府大阪市","福小学校","大阪府大阪市西淀川区福町2-5-23",TRUE,,,,TRUE,,,,34.69803268,135.4421558
60446,"大阪府大阪市","川北小学校","大阪府大阪市西淀川区中島1-11-20",TRUE,,,,TRUE,,,,34.70427333,135.4296122
60448,"大阪府大阪市","出来島小学校","大阪府大阪市西淀川区出来島2-2-24",TRUE,,,,TRUE,,,,34.70427863,135.4370846
60450,"大阪府大阪市","歌島中学校","大阪府大阪市西淀川区歌島2-11-9",TRUE,,,,TRUE,,,,34.71529815,135.4605085
60452,"大阪府大阪市","淀中学校","大阪府大阪市西淀川区大和田6-13-6",TRUE,,,,TRUE,,,,34.70582951,135.4403496
60454,"大阪府大阪市","西淀中学校","大阪府大阪市西淀川区姫島6-10-5",TRUE,,,,TRUE,,,,34.70265588,135.4468778
60456,"大阪府大阪市","淀商業高等学校","大阪府大阪市西淀川区野里3-3-15",TRUE,,,,TRUE,,,,34.71005079,135.4589705
60458,"大阪府大阪市","御幣島小学校","大阪府大阪市西淀川区御幣島3-5-5",TRUE,,,,TRUE,,,,34.71693638,135.4565478
60460,"大阪府大阪市","佃中学校","大阪府大阪市西淀川区佃2-15-93",TRUE,,,,TRUE,,,,34.71608976,135.4455025
60487,"大阪府大阪市","柏里小学校（運動場）","大阪府大阪市西淀川区柏里２-13-33",,,,TRUE,,,,,34.71063783,135.4656814
60489,"大阪府大阪市","野里小学校（運動場）","大阪府大阪市西淀川区野里２-21-13",,,,TRUE,,,,,34.71080399,135.4612687
60491,"大阪府大阪市","歌島小学校（運動場）","大阪府大阪市西淀川区歌島２-５-18",,,,TRUE,,,,,34.71418044,135.4619329
60493,"大阪府大阪市","香簑小学校（運動場）","大阪府大阪市西淀川区御幣島６-５-25",,,,TRUE,,,,,34.72032273,135.4530842
60495,"大阪府大阪市","佃小学校（運動場）","大阪府大阪市西淀川区佃１-21-12",,,,TRUE,,,,,34.71684087,135.4471879
62446,"大阪府堺市","茶山台小学校","大阪府堺市南区茶山台2-5-1",,,,TRUE,,,,,34.49117054,135.5171701
60497,"大阪府大阪市","佃西小学校（運動場）","大阪府大阪市西淀川区佃２-15-30",,,,TRUE,,,,,34.71482886,135.443842
60498,"大阪府大阪市","西淀川区在宅サービスセンター","大阪府大阪市西淀川区千舟2-7-7",TRUE,,,,TRUE,,,,34.71158476,135.4528776
60499,"大阪府大阪市","佃南小学校（運動場）","大阪府大阪市西淀川区佃５-12-12",,,,TRUE,,,,,34.71368224,135.4362005
60501,"大阪府大阪市","大和田小学校（運動場）","大阪府大阪市西淀川区大和田４-３-24",,,,TRUE,,,,,34.70612863,135.4453828
60503,"大阪府大阪市","姫里小学校（運動場）","大阪府大阪市西淀川区姫里２-８-24",,,,TRUE,,,,,34.70628627,135.4586376
60505,"大阪府大阪市","姫島小学校（運動場）","大阪府大阪市西淀川区姫島１-10-４",,,,TRUE,,,,,34.70195338,135.4556583
60507,"大阪府大阪市","福小学校（運動場）","大阪府大阪市西淀川区福町２-５-23",,,,TRUE,,,,,34.69770337,135.4420503
60509,"大阪府大阪市","川北小学校（運動場）","大阪府大阪市西淀川区中島１-11-20",,,,TRUE,,,,,34.70438506,135.4300915
60511,"大阪府大阪市","出来島小学校（運動場）","大阪府大阪市西淀川区出来島２-２-24",,,,TRUE,,,,,34.70420954,135.4375477
60512,"大阪府大阪市","社会福祉法人芙蓉福祉会 特別養護老人ホーム 水都ホーム福町","大阪府大阪市西淀川区福町2-11-7",TRUE,,,,TRUE,,,,34.69567065,135.4421604
60513,"大阪府大阪市","歌島中学校（運動場）","大阪府大阪市西淀川区歌島２-11-９",,,,TRUE,,,,,34.71508796,135.4609502
60514,"大阪府大阪市","社会福祉法人芙蓉福祉会 養護老人ホーム　たいら","大阪府大阪市西淀川区福町2-11-7",TRUE,,,,TRUE,,,,34.69538837,135.4423642
60515,"大阪府大阪市","淀中学校（運動場）","大阪府大阪市西淀川区大和田６-13-６",,,,TRUE,,,,,34.70556197,135.4408396
60517,"大阪府大阪市","西淀中学校（運動場）","大阪府大阪市西淀川区姫島６-10-５",,,,TRUE,,,,,34.70272351,135.4463325
60519,"大阪府大阪市","淀商業高等学校（運動場）","大阪府大阪市西淀川区野里３-３-15",,,,TRUE,,,,,34.71038263,135.4582477
60521,"大阪府大阪市","好文学園女子高等学校（運動場）","大阪府大阪市西淀川区千舟３-８-22",,,,TRUE,,,,,34.71041595,135.4488593
60523,"大阪府大阪市","御幣島小学校（運動場）","大阪府大阪市西淀川区御幣島３-５-５",,,,TRUE,,,,,34.71726855,135.4563672
60525,"大阪府大阪市","佃中学校（運動場）","大阪府大阪市西淀川区佃２-１５-93",,,,TRUE,,,,,34.71575528,135.445793
62447,"大阪府堺市","槇塚台小学校","大阪府堺市南区槇塚台3-39-1",,TRUE,,TRUE,,,,,34.48234713,135.5277502
60586,"大阪府大阪市","新東三国小学校","大阪府大阪市淀川区東三国3-9-10",TRUE,,,,TRUE,,,,34.74522412,135.4999982
60588,"大阪府大阪市","東三国中学校","大阪府大阪市淀川区東三国6-3-68",TRUE,,,,TRUE,,,,34.74442866,135.4968602
60590,"大阪府大阪市","東三国小学校","大阪府大阪市淀川区東三国6-3-24",TRUE,,,,TRUE,,,,34.74469143,135.4951602
60592,"大阪府大阪市","北中島小学校","大阪府大阪市淀川区宮原5-3-4",TRUE,,,,TRUE,,,,34.73947899,135.4962587
60594,"大阪府大阪市","宮原小学校","大阪府大阪市淀川区三国本町1-16-44",TRUE,,,,TRUE,,,,34.73298213,135.4859963
60596,"大阪府大阪市","宮原中学校","大阪府大阪市淀川区西宮原3-3-2",TRUE,,,,TRUE,,,,34.73776468,135.4926467
60598,"大阪府大阪市","西三国小学校","大阪府大阪市淀川区西三国1-21-28",TRUE,,,,TRUE,,,,34.74466537,135.491839
60600,"大阪府大阪市","三国中学校","大阪府大阪市淀川区西三国2-5-24",TRUE,,,,TRUE,,,,34.74079088,135.4879482
60602,"大阪府大阪市","三国小学校","大阪府大阪市淀川区三国本町3-9-18",TRUE,,,,TRUE,,,,34.73846044,135.4882241
60604,"大阪府大阪市","西中島小学校","大阪府大阪市淀川区西中島7-14-25",TRUE,,,,TRUE,,,,34.73008478,135.4944067
60606,"大阪府大阪市","木川小学校","大阪府大阪市淀川区木川東3-7-32",TRUE,,,,TRUE,,,,34.72647106,135.4926675
60608,"大阪府大阪市","木川南小学校","大阪府大阪市淀川区木川東1-2-36",TRUE,,,,TRUE,,,,34.72281604,135.494643
60610,"大阪府大阪市","十三小学校","大阪府大阪市淀川区十三東4-3-6",TRUE,,,,TRUE,,,,34.72358753,135.4854609
60612,"大阪府大阪市","十三中学校","大阪府大阪市淀川区十三東5-1-27",TRUE,,,,TRUE,,,,34.72483531,135.484436
60614,"大阪府大阪市","新北野中学校","大阪府大阪市淀川区新北野2-13-37",TRUE,,,,TRUE,,,,34.71560843,135.4756784
60616,"大阪府大阪市","神津小学校","大阪府大阪市淀川区十三元今里2-3-12",TRUE,,,,TRUE,,,,34.72036282,135.4764469
60618,"大阪府大阪市","新高小学校","大阪府大阪市淀川区新高1-15-53",TRUE,,,,TRUE,,,,34.73282584,135.4801049
60620,"大阪府大阪市","野中小学校","大阪府大阪市淀川区野中北1-11-26",TRUE,,,,TRUE,,,,34.72800805,135.4808251
60622,"大阪府大阪市","塚本小学校","大阪府大阪市淀川区塚本3-5-6",TRUE,,,,TRUE,,,,34.71563701,135.4727672
60623,"大阪府大阪市","新東三国小学校（運動場）","大阪府大阪市淀川区東三国３-９-10",,,,TRUE,TRUE,,,,34.74556941,135.5002521
60624,"大阪府大阪市","田川小学校","大阪府大阪市淀川区田川2-9-37",TRUE,,,,TRUE,,,,34.72136451,135.4700641
60625,"大阪府大阪市","東三国中学校（運動場）","大阪府大阪市淀川区東三国６-３-68",,,,TRUE,,,,,34.74508691,135.4966367
60626,"大阪府大阪市","三津屋小学校","大阪府大阪市淀川区三津屋中1-4-14",TRUE,,,,TRUE,,,,34.72805667,135.472686
60627,"大阪府大阪市","東三国小学校（運動場）","大阪府大阪市淀川区東三国６-３-24",,,,TRUE,,,,,34.74488244,135.4955912
60628,"大阪府大阪市","加島小学校","大阪府大阪市淀川区加島1-60-28",TRUE,,,,TRUE,,,,34.72870655,135.4579125
60629,"大阪府大阪市","北中島小学校（運動場）","大阪府大阪市淀川区宮原５-３-４",,,,TRUE,,,,,34.73912339,135.4963678
60630,"大阪府大阪市","美津島中学校","大阪府大阪市淀川区加島1-54-41",TRUE,,,,TRUE,,,,34.72785972,135.4633477
60631,"大阪府大阪市","東淀川高等学校（運動場）","大阪府大阪市淀川区宮原４-４-５",,,,TRUE,,,,,34.73667145,135.4967084
60632,"大阪府大阪市","東淀工業高等学校","大阪府大阪市淀川区加島1-52-81",TRUE,,,,TRUE,,,,34.72538768,135.4622634
60633,"大阪府大阪市","宮原小学校（運動場）","大阪府大阪市淀川区三国本町１-16-44",,,,TRUE,,,,,34.73255596,135.486041
60634,"大阪府大阪市","東淀川高等学校","大阪府大阪市淀川区宮原4-4-5",TRUE,,,,TRUE,,,,34.73582136,135.4974898
60635,"大阪府大阪市","宮原中学校（運動場）","大阪府大阪市淀川区西宮原３-３-２",,,,TRUE,,,,,34.73771766,135.4921764
60636,"大阪府大阪市","北野高等学校","大阪府大阪市淀川区新北野2-5-13",TRUE,,,,TRUE,,,,34.71618234,135.4786139
60637,"大阪府大阪市","西三国小学校（運動場）","大阪府大阪市淀川区西三国１-21-28",,,,TRUE,,,,,34.74431861,135.4916799
60639,"大阪府大阪市","三国中学校（運動場）","大阪府大阪市淀川区西三国２-５-24",,,,TRUE,,,,,34.74007823,135.4879554
60641,"大阪府大阪市","三国小学校（運動場）","大阪府大阪市淀川区三国本町３-９-18",,,,TRUE,,,,,34.73800345,135.4879791
60643,"大阪府大阪市","西中島小学校（運動場）","大阪府大阪市淀川区西中島７-14-25",,,,TRUE,,,,,34.72983054,135.4945586
60645,"大阪府大阪市","木川小学校（運動場）","大阪府大阪市淀川区木川東３-７-32",,,,TRUE,,,,,34.72619036,135.492283
60647,"大阪府大阪市","木川南小学校（運動場）","大阪府大阪市淀川区木川東１-２-36",,,,TRUE,,,,,34.72304678,135.4943658
60649,"大阪府大阪市","十三小学校（運動場）","大阪府大阪市淀川区十三東４-３-６",,,,TRUE,,,,,34.72371686,135.4858221
60651,"大阪府大阪市","英真学園高等学校（運動場）","大阪府大阪市淀川区十三東５-４-38",,,,TRUE,,,,,34.72362822,135.4838917
60653,"大阪府大阪市","十三中学校（運動場）","大阪府大阪市淀川区十三東５-１-27",,,,TRUE,,,,,34.72494701,135.4851405
60655,"大阪府大阪市","北野高等学校（運動場）","大阪府大阪市淀川区新北野２-５-13",,,,TRUE,,,,,34.71519609,135.4781544
60657,"大阪府大阪市","新北野中学校（運動場）","大阪府大阪市淀川区新北野２-13-37",,,,TRUE,,,,,34.71564738,135.4762274
60659,"大阪府大阪市","神津小学校（運動場）","大阪府大阪市淀川区十三元今里２-３-12",,,,TRUE,,,,,34.72056271,135.4767223
60661,"大阪府大阪市","新高小学校（運動場）","大阪府大阪市淀川区新高１-15-53",,,,TRUE,,,,,34.73242612,135.4802086
60663,"大阪府大阪市","野中小学校（運動場）","大阪府大阪市淀川区野中北１-11-26",,,,TRUE,,,,,34.72771413,135.4806874
60665,"大阪府大阪市","塚本小学校（運動場）","大阪府大阪市淀川区塚本３-５-６",,,,TRUE,,,,,34.71587402,135.472326
60667,"大阪府大阪市","田川小学校（運動場）","大阪府大阪市淀川区田川２-９-37",,,,TRUE,,,,,34.72113229,135.4702751
60669,"大阪府大阪市","三津屋小学校（運動場）","大阪府大阪市淀川区三津屋中１-４-14",,,,TRUE,,,,,34.72837558,135.4729452
60671,"大阪府大阪市","加島小学校（運動場）","大阪府大阪市淀川区加島１-60-28",,,,TRUE,,,,,34.72842585,135.4582361
60673,"大阪府大阪市","美津島中学校（運動場）","大阪府大阪市淀川区加島１-54-41",,,,TRUE,,,,,34.72768263,135.4625261
60675,"大阪府大阪市","東淀工業高等学校（運動場）","大阪府大阪市淀川区加島１-52-81",,,,TRUE,,,,,34.72637234,135.4624422
60771,"大阪府大阪市","東井高野小学校（運動場）","大阪府大阪市東淀川区井高野２-８-28",,,,TRUE,TRUE,,,,34.76488204,135.5488407
60773,"大阪府大阪市","井高野小学校（運動場）","大阪府大阪市東淀川区井高野１-28-17",,,,TRUE,TRUE,,,,34.76200774,135.5441664
60775,"大阪府大阪市","大隅東小学校（運動場）","大阪府大阪市東淀川区瑞光５-８-19",,,,TRUE,TRUE,,,,34.75308689,135.5519004
60777,"大阪府大阪市","大隅西小学校（運動場）","大阪府大阪市東淀川区大隅２-３-18",,,,TRUE,TRUE,,,,34.75075185,135.546123
60779,"大阪府大阪市","大桐小学校（運動場）","大阪府大阪市東淀川区大桐４-１-15",,,,TRUE,TRUE,,,,34.74776156,135.5487351
60781,"大阪府大阪市","大道南小学校（運動場）","大阪府大阪市東淀川区大道南１-23-６",,,,TRUE,TRUE,,,,34.74306167,135.5497871
60783,"大阪府大阪市","豊里小学校（運動場）","大阪府大阪市東淀川区豊里５-14-60",,,,TRUE,TRUE,,,,34.74193406,135.5437623
60785,"大阪府大阪市","豊里南小学校（運動場）","大阪府大阪市東淀川区豊里５-12-41",,,,TRUE,TRUE,,,,34.73956791,135.5437175
60787,"大阪府大阪市","豊新小学校（運動場）","大阪府大阪市東淀川区豊新４-17-26",,,,TRUE,TRUE,,,,34.745877,135.5354407
60789,"大阪府大阪市","小松小学校（運動場）","大阪府大阪市東淀川区小松３-18-15",,,,TRUE,TRUE,,,,34.75452254,135.5393301
60791,"大阪府大阪市","新庄小学校（運動場）","大阪府大阪市東淀川区上新庄２-20-５",,,,TRUE,TRUE,,,,34.74856848,135.5325339
60793,"大阪府大阪市","下新庄小学校（運動場）","大阪府大阪市東淀川区下新庄５-２-９",,,,TRUE,TRUE,,,,34.74603561,135.5209644
60795,"大阪府大阪市","菅原小学校（運動場）","大阪府大阪市東淀川区菅原６-３-25",,,,TRUE,TRUE,,,,34.73854161,135.5225797
60797,"大阪府大阪市","東淡路小学校（運動場）","大阪府大阪市東淀川区東淡路３-３-32",,,,TRUE,TRUE,,,,34.7356138,135.5186744
60799,"大阪府大阪市","西淡路小学校（運動場）","大阪府大阪市東淀川区西淡路５-５-32",,,,TRUE,TRUE,,,,34.74277065,135.5111337
60802,"大阪府大阪市","小中一貫校むくのき学園（啓発小学校・中島中学校）（運動場）","大阪府大阪市東淀川区東中島４-８-38",,,,TRUE,TRUE,,,,34.73191117,135.5070862
60804,"大阪府大阪市","井高野中学校（運動場）","大阪府大阪市東淀川区井高野２-８-13",,,,TRUE,TRUE,,,,34.7639963,135.5487909
60806,"大阪府大阪市","瑞光中学校（運動場）","大阪府大阪市東淀川区瑞光４-９-37",,,,TRUE,TRUE,,,,34.75261282,135.5454418
60808,"大阪府大阪市","大桐中学校（運動場）","大阪府大阪市東淀川区大桐４-５-８",,,,TRUE,TRUE,,,,34.74874822,135.5493775
60810,"大阪府大阪市","東淀中学校（運動場）","大阪府大阪市東淀川区豊里６-25-19",,,,TRUE,TRUE,,,,34.7436559,135.5377005
60812,"大阪府大阪市","新東淀中学校（運動場）","大阪府大阪市東淀川区豊里１-10-32",,,,TRUE,TRUE,,,,34.73956845,135.5330317
60814,"大阪府大阪市","淡路中学校（運動場）","大阪府大阪市東淀川区西淡路４-25-53",,,,TRUE,TRUE,,,,34.74311153,135.5092434
60816,"大阪府大阪市","柴島中学校（運動場）","大阪府大阪市東淀川区柴島２-８-36",,,,TRUE,TRUE,,,,34.72725436,135.5124454
60818,"大阪府大阪市","東淀川特別支援学校（運動場）","大阪府大阪市東淀川区東中島３-５-22",,,,TRUE,TRUE,,,,34.73069484,135.504938
60820,"大阪府大阪市","視覚特別支援学校（運動場）","大阪府大阪市東淀川区豊里７-５-26",,,,TRUE,TRUE,,,,34.74246439,135.542769
60822,"大阪府大阪市","北淀高等学校（運動場）","大阪府大阪市東淀川区豊里２-11-35",,,,TRUE,TRUE,,,,34.73895236,135.5370553
60824,"大阪府大阪市","大阪成蹊学園（運動場）","大阪府大阪市東淀川区相川３-５-９",,,,TRUE,TRUE,,,,34.75917307,135.5380404
60826,"大阪府大阪市","大阪高等学校（運動場）","大阪府大阪市東淀川区相川２-18-51",,,,TRUE,TRUE,,,,34.75887358,135.5357483
60828,"大阪府大阪市","関西大学北陽高等学校（運動場）","大阪府大阪市東淀川区上新庄１-３-26",,,,TRUE,TRUE,,,,34.74538077,135.5297719
60859,"大阪府大阪市","東淡路小学校","大阪府大阪市東淀川区東淡路3-3-32",TRUE,,,,,,,,34.73605905,135.5186243
60862,"大阪府大阪市","菅原小学校","大阪府大阪市東淀川区菅原6-3-25",TRUE,,,,,,,,34.73918521,135.5232324
60864,"大阪府大阪市","新庄小学校","大阪府大阪市東淀川区上新庄2-20-5",TRUE,,,,,,,,34.74883295,135.5323658
60866,"大阪府大阪市","大隅東小学校","大阪府大阪市東淀川区瑞光5-8-19",TRUE,,,,,,,,34.75343949,135.5518021
60868,"大阪府大阪市","豊里小学校","大阪府大阪市東淀川区豊里5-14-60",TRUE,,,,,,,,34.74175994,135.5440824
60870,"大阪府大阪市","小中一貫校むくのき学園 （啓発小学校・中島中学校）","大阪府大阪市東淀川区東中島4-8-38",TRUE,,,,,,,,34.7325653,135.5072833
60872,"大阪府大阪市","小松小学校","大阪府大阪市東淀川区小松3-18-15",TRUE,,,,,,,,34.75470325,135.5398675
60874,"大阪府大阪市","西淡路小学校","大阪府大阪市東淀川区西淡路5-5-32",TRUE,,,,,,,,34.7429725,135.5112808
60876,"大阪府大阪市","下新庄小学校","大阪府大阪市東淀川区下新庄5-2-9",TRUE,,,,,,,,34.74626042,135.5213167
60878,"大阪府大阪市","井高野小学校","大阪府大阪市東淀川区井高野1-28-17",TRUE,,,,,,,,34.7623647,135.5447547
60880,"大阪府大阪市","東井高野小学校","大阪府大阪市東淀川区井高野2-8-28",TRUE,,,,,,,,34.76520815,135.54915
60882,"大阪府大阪市","大桐小学校","大阪府大阪市東淀川区大桐4-1-15",TRUE,,,,,,,,34.74757203,135.5483471
60884,"大阪府大阪市","豊新小学校","大阪府大阪市東淀川区豊新4-17-26",TRUE,,,,,,,,34.74607535,135.5358091
60886,"大阪府大阪市","大隅西小学校","大阪府大阪市東淀川区大隅2-3-18",TRUE,,,,,,,,34.75108242,135.5464726
60888,"大阪府大阪市","豊里南小学校","大阪府大阪市東淀川区豊里5-12-41",TRUE,,,,,,,,34.73942244,135.544161
60890,"大阪府大阪市","大道南小学校","大阪府大阪市東淀川区大道南1-23-6",TRUE,,,,,,,,34.74292943,135.5502949
60892,"大阪府大阪市","淡路中学校","大阪府大阪市東淀川区西淡路4-25-53",TRUE,,,,,,,,34.74330989,135.5097995
60894,"大阪府大阪市","柴島中学校","大阪府大阪市東淀川区柴島2-8-36",TRUE,,,,,,,,34.72765722,135.5123126
60896,"大阪府大阪市","瑞光中学校","大阪府大阪市東淀川区瑞光4-9-37",TRUE,,,,,,,,34.75226903,135.5454936
60898,"大阪府大阪市","井高野中学校","大阪府大阪市東淀川区井高野2-8-13",TRUE,,,,,,,,34.76469479,135.5483492
60900,"大阪府大阪市","東淀中学校","大阪府大阪市東淀川区豊里6-25-19",TRUE,,,,,,,,34.74409614,135.5376187
60902,"大阪府大阪市","新東淀中学校","大阪府大阪市東淀川区豊里1-10-32",TRUE,,,,,,,,34.73985416,135.5341142
60904,"大阪府大阪市","大桐中学校","大阪府大阪市東淀川区大桐4-5-8",TRUE,,,,,,,,34.74894216,135.548732
60906,"大阪府大阪市","視覚特別支援学校","大阪府大阪市東淀川区豊里7-5-26",TRUE,,,,,,,,34.74307215,135.5425048
60908,"大阪府大阪市","東淀川特別支援学校","大阪府大阪市東淀川区東中島3-5-22",TRUE,,,,,,,,34.73103871,135.5046197
60959,"大阪府大阪市","東小橋小学校（運動場）","大阪府大阪市東成区東小橋３-10-37",,,,TRUE,TRUE,,,,34.66715623,135.5332067
60961,"大阪府大阪市","大成小学校（運動場）","大阪府大阪市東成区大今里西３-２-62",,,,TRUE,TRUE,,,,34.66706488,135.5402737
60963,"大阪府大阪市","今里小学校（運動場）","大阪府大阪市東成区大今里１-35-29",,,,TRUE,TRUE,,,,34.67168193,135.5451314
60965,"大阪府大阪市","中道小学校（運動場）","大阪府大阪市東成区玉津１-７-39",,,,TRUE,TRUE,,,,34.67206001,135.5380556
60967,"大阪府大阪市","北中道小学校（運動場）","大阪府大阪市東成区中道２-９-20",,,,TRUE,TRUE,,,,34.67953568,135.5376526
60969,"大阪府大阪市","中本小学校（運動場）","大阪府大阪市東成区中本４-２-32",,,,TRUE,TRUE,,,,34.67683671,135.5397672
60971,"大阪府大阪市","東中本小学校（運動場）","大阪府大阪市東成区東中本２-９-３",,,,TRUE,TRUE,,,,34.67889622,135.5455348
60973,"大阪府大阪市","神路小学校（運動場）","大阪府大阪市東成区大今里４-６-19",,,,TRUE,TRUE,,,,34.66926113,135.5505837
60975,"大阪府大阪市","深江小学校（運動場）","大阪府大阪市東成区深江南１-４-６",,,,TRUE,TRUE,,,,34.67206954,135.5555796
60977,"大阪府大阪市","片江小学校（運動場）","大阪府大阪市東成区大今里南２-13-２",,,,TRUE,TRUE,,,,34.66616826,135.5468922
60979,"大阪府大阪市","宝栄小学校（運動場）","大阪府大阪市東成区神路１-15-48",,,,TRUE,TRUE,,,,34.67724585,135.555137
60981,"大阪府大阪市","東陽中学校（運動場）","大阪府大阪市東成区深江北２-５-７",,,,TRUE,TRUE,,,,34.67731664,135.5593401
60983,"大阪府大阪市","本庄中学校（運動場）","大阪府大阪市東成区東中本３-14-２",,,,TRUE,TRUE,,,,34.67585651,135.5465639
60985,"大阪府大阪市","玉津中学校（運動場）","大阪府大阪市東成区玉津１-12-43",,,,TRUE,TRUE,,,,34.67138983,135.5380747
60987,"大阪府大阪市","相生中学校（運動場）","大阪府大阪市東成区神路２-８-16",,,,TRUE,TRUE,,,,34.67445931,135.5533275
61037,"大阪府大阪市","北鶴橋小学校（運動場）","大阪府大阪市生野区鶴橋３-４-50",,,,TRUE,TRUE,,,,34.66416077,135.5354233
61039,"大阪府大阪市","鶴橋小学校（運動場）","大阪府大阪市生野区桃谷２-20-32",,,,TRUE,TRUE,,,,34.6588949,135.5328909
61041,"大阪府大阪市","御幸森小学校（運動場）","大阪府大阪市生野区桃谷５-５-37",,,,TRUE,TRUE,,,,34.65933896,135.5384135
61043,"大阪府大阪市","勝山小学校（運動場）","大阪府大阪市生野区勝山南１-３-５",,,,TRUE,TRUE,,,,34.65367761,135.5277908
61045,"大阪府大阪市","東桃谷小学校（運動場）","大阪府大阪市生野区勝山北３-７-21",,,,TRUE,TRUE,,,,34.65593445,135.5337573
61047,"大阪府大阪市","舎利寺小学校（運動場）","大阪府大阪市生野区勝山南４-15-25",,,,TRUE,TRUE,,,,34.65224571,135.5392806
61049,"大阪府大阪市","西生野小学校（運動場）","大阪府大阪市生野区生野西３-５-７",,,,TRUE,TRUE,,,,34.65104906,135.5291971
61051,"大阪府大阪市","生野小学校（運動場）","大阪府大阪市生野区舎利寺３-１-39",,,,TRUE,TRUE,,,,34.64787691,135.536415
61053,"大阪府大阪市","田島小学校（運動場）","大阪府大阪市生野区田島３-７-38",,,,TRUE,TRUE,,,,34.64848649,135.5436647
61055,"大阪府大阪市","生野南小学校（運動場）","大阪府大阪市生野区林寺６-６-７",,,,TRUE,TRUE,,,,34.64204809,135.5380649
61057,"大阪府大阪市","林寺小学校（運動場）","大阪府大阪市生野区林寺２-14-３",,,,TRUE,TRUE,,,,34.64448808,135.5326635
61059,"大阪府大阪市","中川小学校（運動場）","大阪府大阪市生野区中川３-４-３",,,,TRUE,TRUE,,,,34.659408,135.544332
61061,"大阪府大阪市","東中川小学校（運動場）","大阪府大阪市生野区新今里７-14-37",,,,TRUE,TRUE,,,,34.65927057,135.5501693
61063,"大阪府大阪市","小路小学校（運動場）","大阪府大阪市生野区小路２-24-40",,,,TRUE,TRUE,,,,34.66057287,135.5554347
61065,"大阪府大阪市","東小路小学校（運動場）","大阪府大阪市生野区小路東３-８-15",,,,TRUE,TRUE,,,,34.65888044,135.5595146
61067,"大阪府大阪市","巽小学校（運動場）","大阪府大阪市生野区巽中３-12-５",,,,TRUE,TRUE,,,,34.64569713,135.5519216
61069,"大阪府大阪市","北巽小学校（運動場）","大阪府大阪市生野区巽北１-30-29",,,,TRUE,TRUE,,,,34.65389806,135.5475177
61071,"大阪府大阪市","巽南小学校（運動場）","大阪府大阪市生野区巽南２-10-７",,,,TRUE,TRUE,,,,34.63822739,135.5483271
61073,"大阪府大阪市","巽東小学校（運動場）","大阪府大阪市生野区巽東３-８-13",,,,TRUE,TRUE,,,,34.64930349,135.5580753
61075,"大阪府大阪市","鶴橋中学校（運動場）","大阪府大阪市生野区勝山北４-９-22",,,,TRUE,TRUE,,,,34.65674272,135.537305
61077,"大阪府大阪市","勝山中学校（運動場）","大阪府大阪市生野区勝山北３-13-44",,,,TRUE,TRUE,,,,34.65479526,135.5330937
61079,"大阪府大阪市","生野中学校（運動場）","大阪府大阪市生野区生野西３-５-40",,,,TRUE,TRUE,,,,34.65049789,135.5294965
61081,"大阪府大阪市","田島中学校（運動場）","大阪府大阪市生野区田島５-23-７",,,,TRUE,TRUE,,,,34.64360091,135.543967
61083,"大阪府大阪市","大池中学校（運動場）","大阪府大阪市生野区中川６-３-６",,,,TRUE,TRUE,,,,34.65581091,135.5423071
61085,"大阪府大阪市","東生野中学校（運動場）","大阪府大阪市生野区新今里７-９-25",,,,TRUE,TRUE,,,,34.66064496,135.5506956
61087,"大阪府大阪市","新生野中学校（運動場）","大阪府大阪市生野区巽東３-３-12",,,,TRUE,TRUE,,,,34.6519282,135.5579216
61089,"大阪府大阪市","巽中学校（運動場）","大阪府大阪市生野区巽中３-17-20",,,,TRUE,TRUE,,,,34.64692573,135.5531578
61091,"大阪府大阪市","新巽中学校（運動場）","大阪府大阪市生野区巽南４-２-53",,,,TRUE,TRUE,,,,34.63944849,135.5506997
61092,"大阪府大阪市","東小橋小学校","大阪府大阪市東成区東小橋3-10-37",TRUE,,,,,,,,34.66689298,135.5331888
61093,"大阪府大阪市","生野工業高等学校（運動場）","大阪府大阪市生野区生野東２-３-66",,,,TRUE,TRUE,,,,34.64670423,135.5306893
61094,"大阪府大阪市","大成小学校","大阪府大阪市東成区大今里西3-2-62",TRUE,,,,,,,,34.66746969,135.540393
61095,"大阪府大阪市","生野特別支援学校（運動場）","大阪府大阪市生野区巽東４-２-47",,,,TRUE,TRUE,,,,34.64856255,135.5598157
61096,"大阪府大阪市","中道小学校","大阪府大阪市東成区玉津1-7-39",TRUE,,,,,,,,34.67250671,135.5381159
61097,"大阪府大阪市","桃谷高等学校（運動場）","大阪府大阪市生野区勝山南３-１-４",,,,TRUE,TRUE,,,,34.65378646,135.5333388
61098,"大阪府大阪市","北中道小学校","大阪府大阪市東成区中道2-9-20",TRUE,,,,,,,,34.67936951,135.5376186
61099,"大阪府大阪市","勝山高等学校（運動場）","大阪府大阪市生野区巽東３-10-75",,,,TRUE,TRUE,,,,34.65008717,135.5596663
61100,"大阪府大阪市","中本小学校","大阪府大阪市東成区中本4-2-32",TRUE,,,,,,,,34.67648526,135.5395187
61101,"大阪府大阪市","金光藤蔭高等学校（スポーツエリア等）","大阪府大阪市生野区小路東４-１-26",,,,TRUE,TRUE,,,,34.65744184,135.5565422
61102,"大阪府大阪市","東中本小学校","大阪府大阪市東成区東中本2-9-3",TRUE,,,,,,,,34.67912267,135.5452058
61103,"大阪府大阪市","プール学院（運動場）","大阪府大阪市生野区勝山北１-19-31",,,,TRUE,TRUE,,,,34.65533791,135.5286715
61104,"大阪府大阪市","今里小学校","大阪府大阪市東成区大今里1-35-29",TRUE,,,,,,,,34.67192164,135.5448507
61106,"大阪府大阪市","片江小学校","大阪府大阪市東成区大今里南2-13-2",TRUE,,,,,,,,34.66639475,135.5466061
61108,"大阪府大阪市","神路小学校","大阪府大阪市東成区大今里4-6-19",TRUE,,,,,,,,34.66966152,135.5505019
61110,"大阪府大阪市","深江小学校","大阪府大阪市東成区深江南1-4-6",TRUE,,,,,,,,34.6722166,135.5559587
61112,"大阪府大阪市","宝栄小学校","大阪府大阪市東成区神路1-15-48",TRUE,,,,,,,,34.67760465,135.5550923
61114,"大阪府大阪市","東陽中学校","大阪府大阪市東成区深江北2-5-7",TRUE,,,,,,,,34.6776225,135.5592793
61116,"大阪府大阪市","本庄中学校","大阪府大阪市東成区東中本3-14-2",TRUE,,,,,,,,34.67629032,135.5465084
61118,"大阪府大阪市","玉津中学校","大阪府大阪市東成区玉津1-12-43",TRUE,,,,,,,,34.67099865,135.538443
61120,"大阪府大阪市","相生中学校","大阪府大阪市東成区神路2-8-16",TRUE,,,,,,,,34.67461077,135.5539104
61124,"大阪府大阪市","北鶴橋小学校","大阪府大阪市生野区鶴橋3-4-50",TRUE,,,,,,,,34.66400781,135.5345203
61126,"大阪府大阪市","御幸森小学校","大阪府大阪市生野区桃谷5-5-37",TRUE,,,,,,,,34.65952576,135.5380792
61128,"大阪府大阪市","鶴橋小学校","大阪府大阪市生野区桃谷2-20-32",TRUE,,,,,,,,34.65911258,135.532535
61130,"大阪府大阪市","東桃谷小学校","大阪府大阪市生野区勝山北3-7-21",TRUE,,,,,,,,34.65580795,135.534131
61132,"大阪府大阪市","勝山小学校","大阪府大阪市生野区勝山南1-3-5",TRUE,,,,,,,,34.65386441,135.5274725
61134,"大阪府大阪市","林寺小学校","大阪府大阪市生野区林寺2-14-3",TRUE,,,,,,,,34.64460871,135.5329514
61136,"大阪府大阪市","生野小学校","大阪府大阪市生野区舎利寺3-1-39",TRUE,,,,,,,,34.648152,135.536102
61138,"大阪府大阪市","中川小学校","大阪府大阪市生野区中川3-4-3",TRUE,,,,,,,,34.6596345,135.5446575
61140,"大阪府大阪市","東中川小学校","大阪府大阪市生野区新今里7-14-37",TRUE,,,,,,,,34.65947943,135.5501568
61142,"大阪府大阪市","小路小学校","大阪府大阪市生野区小路2-24-40",TRUE,,,,,,,,34.66052764,135.5549827
61144,"大阪府大阪市","東小路小学校","大阪府大阪市生野区小路東3-8-15",TRUE,,,,,,,,34.65919079,135.5593412
61145,"大阪府大阪市","清水小学校（運動場）","大阪府大阪市旭区清水５-１-12",,,,TRUE,TRUE,,,,34.72292519,135.5615805
61146,"大阪府大阪市","田島小学校","大阪府大阪市生野区田島3-7-38",TRUE,,,,,,,,34.64843721,135.5431908
61147,"大阪府大阪市","新森小路小学校（運動場）","大阪府大阪市旭区新森６-３-13",,,,TRUE,TRUE,,,,34.71595272,135.5619531
61148,"大阪府大阪市","舎利寺小学校","大阪府大阪市生野区勝山南4-15-25",TRUE,,,,,,,,34.65222971,135.5388179
61149,"大阪府大阪市","古市小学校（運動場）","大阪府大阪市旭区森小路２-10-35",,,,TRUE,TRUE,,,,34.72227479,135.5514925
61150,"大阪府大阪市","生野南小学校","大阪府大阪市生野区林寺6-6-7",TRUE,,,,,,,,34.64218196,135.5386425
61151,"大阪府大阪市","太子橋小学校（運動場）","大阪府大阪市旭区太子橋１-12-15",,,,TRUE,TRUE,,,,34.73225064,135.5543202
61152,"大阪府大阪市","巽小学校","大阪府大阪市生野区巽中3-12-5",TRUE,,,,,,,,34.64583983,135.5521987
61153,"大阪府大阪市","大宮小学校（運動場）","大阪府大阪市旭区大宮４-９-16",,,,TRUE,TRUE,,,,34.72708383,135.5467477
61154,"大阪府大阪市","北巽小学校","大阪府大阪市生野区巽北1-30-29",TRUE,,,,,,,,34.65420402,135.5475052
61155,"大阪府大阪市","大宮西小学校（運動場）","大阪府大阪市旭区中宮１-８-14",,,,TRUE,,,,,34.72255768,135.5415042
61156,"大阪府大阪市","西生野小学校","大阪府大阪市生野区生野西3-5-7",TRUE,,,,,,,,34.65127559,135.5292221
61157,"大阪府大阪市","生江小学校（運動場）","大阪府大阪市旭区生江１-10-21",,,,TRUE,TRUE,,,,34.72295825,135.5375452
61158,"大阪府大阪市","巽南小学校","大阪府大阪市生野区巽南2-10-7",TRUE,,,,,,,,34.63844954,135.548733
61159,"大阪府大阪市","城北小学校（運動場）","大阪府大阪市旭区赤川３-13-47",,,,TRUE,TRUE,,,,34.72738379,135.5298553
61160,"大阪府大阪市","巽東小学校","大阪府大阪市生野区巽東3-8-13",TRUE,,,,,,,,34.64949472,135.5584544
61161,"大阪府大阪市","高殿小学校（運動場）","大阪府大阪市旭区高殿６-９-10",,,,TRUE,,,,,34.71791687,135.5433754
61162,"大阪府大阪市","大池中学校","大阪府大阪市生野区中川6-3-6",TRUE,,,,,,,,34.65565352,135.5427827
61163,"大阪府大阪市","高殿南小学校（運動場）","大阪府大阪市旭区高殿３-10-30",,,,TRUE,TRUE,,,,34.71426773,135.5393934
61164,"大阪府大阪市","勝山中学校","大阪府大阪市生野区勝山北3-13-44",TRUE,,,,,,,,34.65498206,135.5335962
61165,"大阪府大阪市","旭東中学校（運動場）","大阪府大阪市旭区新森６-７-25",,,,TRUE,TRUE,,,,34.71784448,135.5614463
61166,"大阪府大阪市","生野中学校","大阪府大阪市生野区生野西3-5-40",TRUE,,,,,,,,34.65070934,135.5302654
61167,"大阪府大阪市","今市中学校（運動場）","大阪府大阪市旭区大宮５-13-40",,,,TRUE,TRUE,,,,34.73201094,135.5495019
61168,"大阪府大阪市","東生野中学校","大阪府大阪市生野区新今里7-9-25",TRUE,,,,,,,,34.66058907,135.5513429
61169,"大阪府大阪市","大宮中学校（運動場）","大阪府大阪市旭区中宮４-７-11",,,,TRUE,TRUE,,,,34.72698593,135.541296
61170,"大阪府大阪市","田島中学校","大阪府大阪市生野区田島5-23-7",TRUE,,,,,,,,34.6435759,135.5433805
61171,"大阪府大阪市","旭陽中学校（運動場）","大阪府大阪市旭区高殿５-９-31",,,,TRUE,,,,,34.71893319,135.5395811
61172,"大阪府大阪市","鶴橋中学校","大阪府大阪市生野区勝山北4-9-22",TRUE,,,,,,,,34.65689642,135.5376251
61173,"大阪府大阪市","旭高等学校（運動場）","大阪府大阪市旭区高殿５-６-41",,,,TRUE,,,,,34.71766623,135.5420075
61174,"大阪府大阪市","巽中学校","大阪府大阪市生野区巽中3-17-20",TRUE,,,,,,,,34.64683012,135.553553
61175,"大阪府大阪市","淀川工科高等学校（運動場）","大阪府大阪市旭区太子橋３-１-32",,,,TRUE,TRUE,,,,34.7360633,135.5599962
61176,"大阪府大阪市","新生野中学校","大阪府大阪市生野区巽東3-3-12",TRUE,,,,,,,,34.65227829,135.5580647
61177,"大阪府大阪市","思斉特別支援学校（運動場）","大阪府大阪市旭区大宮５-11-７",,,,TRUE,TRUE,,,,34.730526,135.5490064
61178,"大阪府大阪市","新巽中学校","大阪府大阪市生野区巽南4-2-53",TRUE,,,,,,,,34.63982511,135.5502956
61180,"大阪府大阪市","生野工業高等学校","大阪府大阪市生野区生野東2-3-66",TRUE,,,,,,,,34.64732355,135.5306553
61182,"大阪府大阪市","生野特別支援学校","大阪府大阪市生野区巽東4-2-47",TRUE,,,,,,,,34.64841398,135.5593526
62448,"大阪府堺市","桃山台小学校","大阪府堺市南区桃山台2-6-1",,,,TRUE,,,,,34.48930897,135.4875968
61202,"大阪府大阪市","清水小学校","大阪府大阪市旭区清水5-1-12",TRUE,,,,TRUE,,,,34.7231912,135.5614983
61204,"大阪府大阪市","古市小学校","大阪府大阪市旭区森小路2-10-35",TRUE,,,,TRUE,,,,34.72273701,135.5514022
61206,"大阪府大阪市","大宮小学校","大阪府大阪市旭区大宮4-9-16",TRUE,,,,TRUE,,,,34.72737628,135.5468908
61208,"大阪府大阪市","高殿小学校","大阪府大阪市旭区高殿6-9-10",TRUE,,,,TRUE,,,,34.71786984,135.5429766
61210,"大阪府大阪市","大宮西小学校","大阪府大阪市旭区中宮1-8-14",TRUE,,,,TRUE,,,,34.72278622,135.5417532
61212,"大阪府大阪市","生江小学校","大阪府大阪市旭区生江1-10-21",TRUE,,,,TRUE,,,,34.72327497,135.5375461
61214,"大阪府大阪市","城北小学校","大阪府大阪市旭区赤川3-13-47",TRUE,,,,TRUE,,,,34.72786141,135.5296282
61216,"大阪府大阪市","新森小路小学校","大阪府大阪市旭区新森6-3-13",TRUE,,,,TRUE,,,,34.71637327,135.5620322
61218,"大阪府大阪市","太子橋小学校","大阪府大阪市旭区太子橋1-12-15",TRUE,,,,TRUE,,,,34.73258128,135.554136
61220,"大阪府大阪市","高殿南小学校","大阪府大阪市旭区高殿3-10-30",TRUE,,,,TRUE,,,,34.71392819,135.5394023
61222,"大阪府大阪市","旭陽中学校","大阪府大阪市旭区高殿5-9-31",TRUE,,,,TRUE,,,,34.71830266,135.5401104
61224,"大阪府大阪市","大宮中学校","大阪府大阪市旭区中宮4-7-11",TRUE,,,,TRUE,,,,34.72665526,135.5411655
61226,"大阪府大阪市","旭東中学校","大阪府大阪市旭区新森6-7-25",TRUE,,,,TRUE,,,,34.71740795,135.5612889
61228,"大阪府大阪市","今市中学校","大阪府大阪市旭区大宮5-13-40",TRUE,,,,TRUE,,,,34.73241653,135.549881
61255,"大阪府大阪市","諏訪小学校（運動場）","大阪府大阪市城東区永田２-15-５",,,,TRUE,TRUE,,,,34.68654434,135.5582537
61257,"大阪府大阪市","中浜小学校（運動場）","大阪府大阪市城東区中浜２-12-35",,,,TRUE,TRUE,,,,34.68534479,135.5436553
61259,"大阪府大阪市","森之宮小学校（運動場）","大阪府大阪市城東区森之宮１-６-64",,,,TRUE,TRUE,,,,34.68360982,135.5370639
61261,"大阪府大阪市","東中浜小学校（運動場）","大阪府大阪市城東区東中浜５-４-５",,,,TRUE,TRUE,,,,34.68422835,135.5491825
61262,"大阪府大阪市","榎並小学校","大阪府大阪市城東区野江4-1-28",TRUE,,,,TRUE,,,,34.70928222,135.5396726
61263,"大阪府大阪市","城東小学校（運動場）","大阪府大阪市城東区鴫野東３-16-41",,,,TRUE,,,,,34.69121465,135.5488124
61264,"大阪府大阪市","関目小学校","大阪府大阪市城東区関目6-5-5",TRUE,,,,TRUE,,,,34.71457027,135.5506656
61265,"大阪府大阪市","鴫野小学校（運動場）","大阪府大阪市城東区鴫野西４-11-48",,,,TRUE,,,,,34.69088775,135.5416782
61266,"大阪府大阪市","鯰江小学校","大阪府大阪市城東区今福西3-9-27",TRUE,,,,TRUE,,,,34.70144926,135.5481643
61267,"大阪府大阪市","聖賢小学校（運動場）","大阪府大阪市城東区新喜多２-４-35",,,,TRUE,,,,,34.6972204,135.5426794
61268,"大阪府大阪市","今福小学校","大阪府大阪市城東区今福南2-1-53",TRUE,,,,TRUE,,,,34.69647844,135.5513097
61269,"大阪府大阪市","今福小学校（運動場）","大阪府大阪市城東区今福南２-１-53",,,,TRUE,,,,,34.69630937,135.5516441
61270,"大阪府大阪市","聖賢小学校","大阪府大阪市城東区新喜多2-4-35",TRUE,,,,TRUE,,,,34.69743358,135.543021
61271,"大阪府大阪市","放出小学校（運動場）","大阪府大阪市城東区放出西２-２-18",,,,TRUE,TRUE,,,,34.69483676,135.5551981
61272,"大阪府大阪市","鴫野小学校","大阪府大阪市城東区鴫野西4-11-48",TRUE,,,,TRUE,,,,34.69144057,135.5414082
61273,"大阪府大阪市","鯰江小学校（運動場）","大阪府大阪市城東区今福西３-９-27",,,,TRUE,,,,,34.70149189,135.5485684
61274,"大阪府大阪市","中浜小学校","大阪府大阪市城東区中浜2-12-35",TRUE,,,,TRUE,,,,34.68526245,135.5440558
61275,"大阪府大阪市","鯰江東小学校（運動場）","大阪府大阪市城東区今福東１-３-26",,,,TRUE,,,,,34.70076549,135.5547746
61276,"大阪府大阪市","城東小学校","大阪府大阪市城東区鴫野東3-16-41",TRUE,,,,TRUE,,,,34.69117642,135.5478451
61277,"大阪府大阪市","関目小学校（運動場）","大阪府大阪市城東区関目６-５-５",,,,TRUE,TRUE,,,,34.71441667,135.551
61278,"大阪府大阪市","諏訪小学校","大阪府大阪市城東区永田2-15-5",TRUE,,,,TRUE,,,,34.68642672,135.5585255
61279,"大阪府大阪市","関目東小学校（運動場）","大阪府大阪市城東区関目４-12-15",,,,TRUE,TRUE,,,,34.71035786,135.5534464
61280,"大阪府大阪市","成育小学校","大阪府大阪市城東区成育1-5-19",TRUE,,,,TRUE,,,,34.70609157,135.5441335
61281,"大阪府大阪市","すみれ小学校（運動場）","大阪府大阪市城東区古市２-６-46",,,,TRUE,TRUE,,,,34.71043594,135.5589124
61282,"大阪府大阪市","すみれ小学校","大阪府大阪市城東区古市2-6-46",TRUE,,,,TRUE,,,,34.7105697,135.5595114
61283,"大阪府大阪市","榎並小学校（運動場）","大阪府大阪市城東区野江４-１-28",,,,TRUE,,,,,34.70914405,135.5392184
61284,"大阪府大阪市","東中浜小学校","大阪府大阪市城東区東中浜5-4-5",TRUE,,,,TRUE,,,,34.68444155,135.5489125
61285,"大阪府大阪市","成育小学校（運動場）","大阪府大阪市城東区成育１-５-19",,,,TRUE,,,,,34.70613861,135.5435988
61286,"大阪府大阪市","放出小学校","大阪府大阪市城東区放出西2-2-18",TRUE,,,,TRUE,,,,34.69465298,135.5556147
61287,"大阪府大阪市","放出中学校（運動場）","大阪府大阪市城東区放出西３-12-10",,,,TRUE,TRUE,,,,34.69023925,135.557263
61288,"大阪府大阪市","関目東小学校","大阪府大阪市城東区関目4-12-15",TRUE,,,,TRUE,,,,34.7107212,135.5534976
61289,"大阪府大阪市","城陽中学校（運動場）","大阪府大阪市城東区鴫野西３-３-64",,,,TRUE,,,,,34.69466555,135.5418947
61290,"大阪府大阪市","森之宮小学校","大阪府大阪市城東区森之宮1-6-64",TRUE,,,,TRUE,,,,34.68343282,135.5377278
61291,"大阪府大阪市","蒲生中学校（運動場）","大阪府大阪市城東区中央３-９-24",,,,TRUE,,,,,34.70507208,135.5449693
61292,"大阪府大阪市","鯰江東小学校","大阪府大阪市城東区今福東1-3-26",TRUE,,,,TRUE,,,,34.70068758,135.5552717
61293,"大阪府大阪市","鯰江中学校（運動場）","大阪府大阪市城東区今福西４-７-20",,,,TRUE,,,,,34.70169915,135.5533038
61294,"大阪府大阪市","放出中学校","大阪府大阪市城東区放出西3-12-10",TRUE,,,,TRUE,,,,34.69042597,135.5578405
61295,"大阪府大阪市","菫中学校（運動場）","大阪府大阪市城東区古市１-18-４",,,,TRUE,TRUE,,,,34.70666009,135.5587668
61296,"大阪府大阪市","蒲生中学校","大阪府大阪市城東区中央3-9-24",TRUE,,,,TRUE,,,,34.7052347,135.545499
61297,"大阪府大阪市","城東中学校（運動場）","大阪府大阪市城東区永田３-３-58",,,,TRUE,TRUE,,,,34.68206405,135.5567685
61298,"大阪府大阪市","城陽中学校","大阪府大阪市城東区鴫野西3-3-64",TRUE,,,,TRUE,,,,34.69438033,135.5420592
61299,"大阪府大阪市","大阪信愛女学院高等学校（運動場）","大阪府大阪市城東区古市２-７-30",,,,TRUE,TRUE,,,,34.71133854,135.5590364
61300,"大阪府大阪市","菫中学校","大阪府大阪市城東区古市1-18-4",TRUE,,,,TRUE,,,,34.70677622,135.5575473
61301,"大阪府大阪市","大阪産業大学附属高等学校（運動場）","大阪府大阪市城東区古市１-20-26",,,,TRUE,TRUE,,,,34.70839639,135.5590091
61302,"大阪府大阪市","城東中学校","大阪府大阪市城東区永田3-3-58",TRUE,,,,TRUE,,,,34.68187142,135.5556884
61303,"大阪府大阪市","開明高等学校（運動場）","大阪府大阪市城東区野江１-９-９",,,,TRUE,,,,,34.70101399,135.5381358
61304,"大阪府大阪市","鯰江中学校","大阪府大阪市城東区今福西4-7-20",TRUE,,,,TRUE,,,,34.70206667,135.5527388
61350,"大阪府大阪市","榎本小学校","大阪府大阪市鶴見区今津北1-5-35",TRUE,,,,TRUE,,,,34.69474709,135.5684843
61352,"大阪府大阪市","茨田南小学校","大阪府大阪市鶴見区諸口1-3-71",TRUE,,,,TRUE,,,,34.69830154,135.5778662
61354,"大阪府大阪市","茨田北小学校","大阪府大阪市鶴見区浜3-8-66",TRUE,,,,TRUE,,,,34.7089366,135.5861111
61356,"大阪府大阪市","鶴見小学校","大阪府大阪市鶴見区鶴見4-14-10",TRUE,,,,TRUE,,,,34.70533446,135.5642612
61358,"大阪府大阪市","今津小学校","大阪府大阪市鶴見区今津中4-1-48",TRUE,,,,TRUE,,,,34.69322812,135.5771833
61360,"大阪府大阪市","茨田東小学校","大阪府大阪市鶴見区茨田大宮3-7-61",TRUE,,,,TRUE,,,,34.70873657,135.595441
61362,"大阪府大阪市","茨田西小学校","大阪府大阪市鶴見区横堤5-13-61",TRUE,,,,TRUE,,,,34.70734397,135.5731627
61364,"大阪府大阪市","横堤小学校","大阪府大阪市鶴見区横堤1-11-83",TRUE,,,,TRUE,,,,34.70146176,135.5700836
61366,"大阪府大阪市","みどり小学校","大阪府大阪市鶴見区緑2-4-45",TRUE,,,,TRUE,,,,34.71044455,135.5641103
61368,"大阪府大阪市","鶴見南小学校","大阪府大阪市鶴見区鶴見2-17-22",TRUE,,,,TRUE,,,,34.69904109,135.5657979
61370,"大阪府大阪市","茨田小学校","大阪府大阪市鶴見区安田2-1-8",TRUE,,,,TRUE,,,,34.70279509,135.5905952
61372,"大阪府大阪市","焼野小学校","大阪府大阪市鶴見区焼野1-3-44",TRUE,,,,TRUE,,,,34.71623749,135.5842841
61374,"大阪府大阪市","茨田中学校","大阪府大阪市鶴見区諸口3-4-44",TRUE,,,,TRUE,,,,34.70366023,135.578081
61376,"大阪府大阪市","緑中学校","大阪府大阪市鶴見区鶴見6-6-11",TRUE,,,,TRUE,,,,34.70866174,135.5644813
61378,"大阪府大阪市","茨田北中学校","大阪府大阪市鶴見区茨田大宮1-1-31",TRUE,,,,TRUE,,,,34.710904,135.5880888
61380,"大阪府大阪市","今津中学校","大阪府大阪市鶴見区今津中1-3-55",TRUE,,,,TRUE,,,,34.69290174,135.5679582
61382,"大阪府大阪市","横堤中学校","大阪府大阪市鶴見区横堤1-11-27",TRUE,,,,TRUE,,,,34.7023818,135.5694651
61384,"大阪府大阪市","汎愛高等学校","大阪府大阪市鶴見区今津中2-1-52",TRUE,,,,TRUE,,,,34.69214627,135.5705301
61386,"大阪府大阪市","鶴見商業高等学校","大阪府大阪市鶴見区緑2-10-9",TRUE,,,,TRUE,,,,34.7103609,135.5665216
61403,"大阪府大阪市","大阪府立成城高等学校","大阪府大阪市城東区諏訪３-11-41",,,,TRUE,TRUE,,,,34.68175651,135.5613
61405,"大阪府大阪市","みどり小学校（運動場）","大阪府大阪市鶴見区緑２-４-45",,,,TRUE,TRUE,,,,34.71085466,135.5641496
61407,"大阪府大阪市","鶴見商業高等学校（運動場）","大阪府大阪市鶴見区緑２-10-９",,,,TRUE,TRUE,,,,34.70992433,135.5674782
61409,"大阪府大阪市","鶴見小学校（運動場）","大阪府大阪市鶴見区鶴見４-14-10",,,,TRUE,,,,,34.70500812,135.5646814
61411,"大阪府大阪市","鶴見南小学校（運動場）","大阪府大阪市鶴見区鶴見２-17-22",,,,TRUE,,,,,34.69901022,135.5648046
61413,"大阪府大阪市","緑中学校（運動場）","大阪府大阪市鶴見区鶴見６-６-11",,,,TRUE,TRUE,,,,34.70804876,135.5645957
61415,"大阪府大阪市","榎本小学校（運動場）","大阪府大阪市鶴見区今津北１-５-35",,,,TRUE,TRUE,,,,34.69511317,135.5686416
61417,"大阪府大阪市","今津中学校（運動場）","大阪府大阪市鶴見区今津中１-３-35",,,,TRUE,TRUE,,,,34.69262935,135.5686693
61419,"大阪府大阪市","汎愛高等学校（運動場）","大阪府大阪市鶴見区今津中２-１-52",,,,TRUE,TRUE,,,,34.6930196,135.5707143
61421,"大阪府大阪市","今津小学校（運動場）","大阪府大阪市鶴見区今津中４-１-48",,,,TRUE,TRUE,,,,34.6927457,135.5775897
61423,"大阪府大阪市","茨田南小学校（運動場）","大阪府大阪市鶴見区諸口１-３-71",,,,TRUE,TRUE,,,,34.69847795,135.5775193
61425,"大阪府大阪市","茨田中学校（運動場）","大阪府大阪市鶴見区諸口３-４-44",,,,TRUE,TRUE,,,,34.70276772,135.5767573
61427,"大阪府大阪市","茨田東小学校（運動場）","大阪府大阪市鶴見区茨田大宮３-７-61",,,,TRUE,TRUE,,,,34.70844993,135.5951853
61429,"大阪府大阪市","茨田北小学校（運動場）","大阪府大阪市鶴見区浜３-８-66",,,,TRUE,TRUE,,,,34.70835009,135.5857374
61431,"大阪府大阪市","茨田北中学校（運動場）","大阪府大阪市鶴見区茨田大宮１-１-31",,,,TRUE,TRUE,,,,34.71073643,135.5873127
61433,"大阪府大阪市","茨田高等学校（運動場）","大阪府大阪市鶴見区安田１-５-49",,,,TRUE,TRUE,,,,34.70417459,135.587316
61435,"大阪府大阪市","茨田小学校（運動場）","大阪府大阪市鶴見区安田２-１-８",,,,TRUE,TRUE,,,,34.70249961,135.5906346
61437,"大阪府大阪市","茨田西小学校（運動場）","大阪府大阪市鶴見区横堤５-13-61",,,,TRUE,TRUE,,,,34.70784946,135.5731479
61439,"大阪府大阪市","横堤小学校（運動場）","大阪府大阪市鶴見区横堤１-11-83",,,,TRUE,,,,,34.70154996,135.5695167
61441,"大阪府大阪市","横堤中学校（運動場）","大阪府大阪市鶴見区横堤１-11-27",,,,TRUE,,,,,34.70248934,135.569962
61443,"大阪府大阪市","焼野小学校（運動場）","大阪府大阪市鶴見区焼野１-３-44",,,,TRUE,TRUE,,,,34.71707969,135.5843288
61505,"大阪府大阪市","高松小学校（運動場）","大阪府大阪市阿倍野区天王寺町北３-17-19",,,,TRUE,TRUE,,,,34.64346678,135.5252788
61506,"大阪府大阪市","安立小学校","大阪府大阪市住之江区住之江1-4-29",TRUE,,,,TRUE,,,,34.60440993,135.4882432
61507,"大阪府大阪市","常盤小学校（運動場）","大阪府大阪市阿倍野区松崎町３-11-12",,,,TRUE,TRUE,,,,34.64101551,135.5171873
61508,"大阪府大阪市","敷津浦小学校","大阪府大阪市住之江区北島2-9-22",TRUE,,,,TRUE,,,,34.60265144,135.4779029
61509,"大阪府大阪市","金塚小学校（運動場）","大阪府大阪市阿倍野区旭町３-４-46",,,,TRUE,TRUE,,,,34.64248409,135.507534
61510,"大阪府大阪市","住之江中学校","大阪府大阪市住之江区御崎8-1-6",TRUE,,,,TRUE,,,,34.60583786,135.478401
61511,"大阪府大阪市","苗代小学校（運動場）","大阪府大阪市阿倍野区阪南町１-26-30",,,,TRUE,TRUE,,,,34.63539605,135.5166186
61512,"大阪府大阪市","住吉商業高等学校","大阪府大阪市住之江区御崎7-12-55",TRUE,,,,TRUE,,,,34.60401144,135.4797551
61513,"大阪府大阪市","丸山小学校（運動場）","大阪府大阪市阿倍野区丸山通１-４-43",,,,TRUE,TRUE,,,,34.6366551,135.5086426
61514,"大阪府大阪市","真住中学校","大阪府大阪市住之江区御崎2-2-32",TRUE,,,,TRUE,,,,34.61328149,135.4777957
61515,"大阪府大阪市","阿倍野小学校（運動場）","大阪府大阪市阿倍野区阪南町２-17-21",,,,TRUE,TRUE,,,,34.6318052,135.5132728
61516,"大阪府大阪市","住之江小学校","大阪府大阪市住之江区御崎4-6-43",TRUE,,,,TRUE,,,,34.60993273,135.4792402
61517,"大阪府大阪市","晴明丘小学校（運動場）","大阪府大阪市阿倍野区晴明通10-34",,,,TRUE,TRUE,,,,34.63214769,135.5039757
61518,"大阪府大阪市","清江小学校","大阪府大阪市住之江区御崎5-7-18",TRUE,,,,TRUE,,,,34.60796041,135.4804309
61519,"大阪府大阪市","晴明丘南小学校（運動場）","大阪府大阪市阿倍野区帝塚山１-23-８",,,,TRUE,TRUE,,,,34.6244008,135.4964423
61520,"大阪府大阪市","住吉川小学校","大阪府大阪市住之江区西加賀屋4-1-4",TRUE,,,,TRUE,,,,34.61482906,135.4787012
61521,"大阪府大阪市","阪南小学校（運動場）","大阪府大阪市阿倍野区阪南町５-７-40",,,,TRUE,TRUE,,,,34.62421824,135.5124396
61522,"大阪府大阪市","加賀屋小学校","大阪府大阪市住之江区北加賀屋2-5-26",TRUE,,,,TRUE,,,,34.62239076,135.4790241
61523,"大阪府大阪市","大阪教育大学附属天王寺小学校（運動場）","大阪府大阪市阿倍野区松崎町１-２-45",,,,TRUE,TRUE,,,,34.64441883,135.5184836
61524,"大阪府大阪市","加賀屋東小学校","大阪府大阪市住之江区東加賀屋1-6-25",TRUE,,,,TRUE,,,,34.62018057,135.4843579
61525,"大阪府大阪市","文の里中学校（運動場）","大阪府大阪市阿倍野区美章園１-５-52",,,,TRUE,TRUE,,,,34.63955552,135.5224141
61526,"大阪府大阪市","加賀屋中学校","大阪府大阪市住之江区西加賀屋2-9-20",TRUE,,,,TRUE,,,,34.61938804,135.4761417
61527,"大阪府大阪市","松虫中学校（運動場）","大阪府大阪市阿倍野区松虫通３-４-45",,,,TRUE,TRUE,,,,34.6347869,135.5048297
61528,"大阪府大阪市","粉浜小学校","大阪府大阪市住之江区粉浜2-6-6",TRUE,,,,TRUE,,,,34.61811083,135.4904897
61529,"大阪府大阪市","昭和中学校（運動場）","大阪府大阪市阿倍野区桃ヶ池町２-３-17",,,,TRUE,TRUE,,,,34.62834529,135.5213311
61530,"大阪府大阪市","北粉浜小学校","大阪府大阪市住之江区粉浜1-5-48",TRUE,,,,TRUE,,,,34.62278193,135.4910507
61531,"大阪府大阪市","阿倍野中学校（運動場）","大阪府大阪市阿倍野区昭和町３-２-４",,,,TRUE,TRUE,,,,34.62829737,135.5184045
61532,"大阪府大阪市","住吉第一中学校","大阪府大阪市住之江区粉浜西1-5-11",TRUE,,,,TRUE,,,,34.62139645,135.4878499
61533,"大阪府大阪市","阪南中学校（運動場）","大阪府大阪市阿倍野区北畠１-16-24",,,,TRUE,TRUE,,,,34.62655923,135.5063467
61534,"大阪府大阪市","平林小学校","大阪府大阪市住之江区平林南2-6-48",TRUE,,,,TRUE,,,,34.60898373,135.4561658
61535,"大阪府大阪市","工芸高等学校（運動場）","大阪府大阪市阿倍野区文の里１-７-２",,,,TRUE,TRUE,,,,34.63865653,135.5192286
61536,"大阪府大阪市","新北島小学校","大阪府大阪市住之江区新北島6-2-56",TRUE,,,,TRUE,,,,34.60557628,135.4636927
61537,"大阪府大阪市","阿倍野高等学校（運動場）","大阪府大阪市阿倍野区阪南町１-30-34",,,,TRUE,TRUE,,,,34.63543583,135.5147953
61538,"大阪府大阪市","新北島中学校","大阪府大阪市住之江区新北島8-2-46",TRUE,,,,TRUE,,,,34.60704164,135.4598393
61539,"大阪府大阪市","住吉高等学校（運動場）","大阪府大阪市阿倍野区北畠２-４-１",,,,TRUE,TRUE,,,,34.62727649,135.5040696
61540,"大阪府大阪市","南港光小学校","大阪府大阪市住之江区南港中4-4-22",TRUE,,,,TRUE,,,,34.633727,135.4234168
61541,"大阪府大阪市","あべの翔学高等学校（運動場）","大阪府大阪市阿倍野区天王寺南町２-８-１９",,,,TRUE,TRUE,,,,34.64189382,135.5262322
61542,"大阪府大阪市","南港緑小学校","大阪府大阪市住之江区南港中2-7-18",TRUE,,,,TRUE,,,,34.6275193,135.4275738
61543,"大阪府大阪市","明浄学院高等学校（運動場）","大阪府大阪市阿倍野区文の里３-15-７",,,,TRUE,TRUE,,,,34.63514602,135.5212963
61544,"大阪府大阪市","南港桜小学校","大阪府大阪市住之江区南港中5-2-48",TRUE,,,,TRUE,,,,34.63536141,135.4212098
61545,"大阪府大阪市","大谷高等学校（運動場）","大阪府大阪市阿倍野区共立通２-８-４",,,,TRUE,TRUE,,,,34.63867146,135.5059908
61546,"大阪府大阪市","南港渚小学校","大阪府大阪市住之江区南港中3-7-13",TRUE,,,,TRUE,,,,34.62698756,135.4257813
61547,"大阪府大阪市","桃山学院高等学校（運動場）","大阪府大阪市阿倍野区昭和町３-１-64",,,,TRUE,TRUE,,,,34.6294191,135.5173339
61548,"大阪府大阪市","南港北中学校","大阪府大阪市住之江区南港中4-3-39",TRUE,,,,TRUE,,,,34.63559942,135.4232956
61549,"大阪府大阪市","大阪キリスト教短期大学（運動場）","大阪府大阪市阿倍野区丸山通１-３-61",,,,TRUE,TRUE,,,,34.63687849,135.5070391
61550,"大阪府大阪市","南港南中学校","大阪府大阪市住之江区南港中3-5-14",TRUE,,,,TRUE,,,,34.62873574,135.4259671
61552,"大阪府大阪市","港南造形高等学校","大阪府大阪市住之江区南港東2-5-72",TRUE,,,,TRUE,,,,34.61338589,135.4415678
61607,"大阪府大阪市","安立小学校（運動場）","大阪府大阪市住之江区住之江１-４-29",,,,TRUE,,,,,34.60509504,135.4879581
61609,"大阪府大阪市","敷津浦小学校（運動場）","大阪府大阪市住之江区北島２-９-22",,,,TRUE,,,,,34.60246875,135.4783629
61611,"大阪府大阪市","住之江中学校（運動場）","大阪府大阪市住之江区御崎８-１-６",,,,TRUE,,,,,34.60591292,135.4778502
61613,"大阪府大阪市","住吉商業高等学校（運動場）","大阪府大阪市住之江区御崎７-12-55",,,,TRUE,,,,,34.60373768,135.4810229
61615,"大阪府大阪市","真住中学校（運動場）","大阪府大阪市住之江区御崎２-２-32",,,,TRUE,,,,,34.61300776,135.4787094
61617,"大阪府大阪市","住之江小学校（運動場）","大阪府大阪市住之江区御崎４-６-43",,,,TRUE,,,,,34.60969873,135.4795558
61619,"大阪府大阪市","清江小学校（運動場）","大阪府大阪市住之江区御崎５-７-18",,,,TRUE,,,,,34.60802277,135.4807783
61621,"大阪府大阪市","住吉川小学校（運動場）","大阪府大阪市住之江区西加賀屋４-１-４",,,,TRUE,,,,,34.61476283,135.478129
61623,"大阪府大阪市","加賀屋小学校（運動場）","大阪府大阪市住之江区北加賀屋２-５-26",,,,TRUE,,,,,34.62297346,135.4791653
61625,"大阪府大阪市","加賀屋東小学校（運動場）","大阪府大阪市住之江区東加賀屋１-６-25",,,,TRUE,,,,,34.61978767,135.4844777
61627,"大阪府大阪市","加賀屋中学校（運動場）","大阪府大阪市住之江区西加賀屋２-９-20",,,,TRUE,,,,,34.61921587,135.4767658
61629,"大阪府大阪市","粉浜小学校（運動場）","大阪府大阪市住之江区粉浜２-６-６",,,,TRUE,,,,,34.61804461,135.4901035
62509,"大阪府堺市","美原中学校","大阪府堺市美原区小平尾390",,,,TRUE,,,,,34.53884563,135.5629639
61631,"大阪府大阪市","北粉浜小学校（運動場）","大阪府大阪市住之江区粉浜１-５-48",,,,TRUE,,,,,34.62263184,135.4906484
61633,"大阪府大阪市","住吉第一中学校（運動場）","大阪府大阪市住之江区粉浜西１-５-11",,,,TRUE,,,,,34.62156862,135.4873742
61635,"大阪府大阪市","平林小学校（運動場）","大阪府大阪市住之江区平林南２-６-48",,,,TRUE,,,,,34.60869233,135.4558082
61637,"大阪府大阪市","新北島小学校（運動場）","大阪府大阪市住之江区新北島６-２-56",,,,TRUE,,,,,34.60568225,135.4629435
61639,"大阪府大阪市","新北島中学校（運動場）","大阪府大阪市住之江区新北島８-２-46",,,,TRUE,,,,,34.6067287,135.4597092
61641,"大阪府大阪市","南港光小学校（運動場）","大阪府大阪市住之江区南港中４-４-22",,,,TRUE,,,,,34.63430521,135.4234346
61643,"大阪府大阪市","南港緑小学校（運動場）","大阪府大阪市住之江区南港中２-７-18",,,,TRUE,,,,,34.62785919,135.427935
61645,"大阪府大阪市","南港桜小学校（運動場）","大阪府大阪市住之江区南港中５-２-48",,,,TRUE,,,,,34.63466845,135.4206966
61647,"大阪府大阪市","南港渚小学校（運動場）","大阪府大阪市住之江区南港中３-７-13",,,,TRUE,,,,,34.62702287,135.4252305
61649,"大阪府大阪市","南港北中学校（運動場）","大阪府大阪市住之江区南港中４-３-39",,,,TRUE,,,,,34.63502342,135.4234906
61651,"大阪府大阪市","南港南中学校（運動場）","大阪府大阪市住之江区南港中３-５-14",,,,TRUE,,,,,34.62893695,135.4250236
61653,"大阪府大阪市","港南造形高等学校（運動場）","大阪府大阪市住之江区南港東２-５-72",,,,TRUE,,,,,34.61278104,135.4414999
61656,"大阪府大阪市","特別養護老人ホーム　加賀屋の森","大阪府大阪市住之江区北加賀屋5-4-23",TRUE,,,,TRUE,,,,34.62231085,135.4745976
61682,"大阪府大阪市","東粉浜小学校","大阪府大阪市住吉区東粉浜2-3-26",TRUE,,,,TRUE,,,,34.619572,135.494585
61684,"大阪府大阪市","住吉小学校","大阪府大阪市住吉区帝塚山西4-1-35",TRUE,,,,TRUE,,,,34.61767004,135.4962996
61686,"大阪府大阪市","長居小学校","大阪府大阪市住吉区長居東3-3-40",TRUE,,,,TRUE,,,,34.60913135,135.5145431
61688,"大阪府大阪市","依羅小学校","大阪府大阪市住吉区我孫子4-11-48",TRUE,,,,TRUE,,,,34.59724141,135.5078284
61690,"大阪府大阪市","墨江小学校","大阪府大阪市住吉区墨江2-3-46",TRUE,,,,TRUE,,,,34.60834194,135.4959167
61692,"大阪府大阪市","遠里小野小学校","大阪府大阪市住吉区遠里小野6-6-27",TRUE,,,,TRUE,,,,34.59742123,135.4953214
61694,"大阪府大阪市","清水丘小学校","大阪府大阪市住吉区清水丘2-9-41",TRUE,,,,TRUE,,,,34.60177887,135.4928451
61696,"大阪府大阪市","南住吉小学校","大阪府大阪市住吉区南住吉3-5-1",TRUE,,,,TRUE,,,,34.60466747,135.5036878
61698,"大阪府大阪市","大空小学校","大阪府大阪市住吉区我孫子1-6-12",TRUE,,,,TRUE,,,,34.60519511,135.5082312
61700,"大阪府大阪市","大領小学校","大阪府大阪市住吉区大領3-3-5",TRUE,,,,TRUE,,,,34.6156093,135.5075184
61702,"大阪府大阪市","苅田小学校","大阪府大阪市住吉区苅田3-5-34",TRUE,,,,TRUE,,,,34.6019413,135.516208
61704,"大阪府大阪市","山之内小学校","大阪府大阪市住吉区山之内2-17-39",TRUE,,,,TRUE,,,,34.59589391,135.4998735
61706,"大阪府大阪市","苅田南小学校","大阪府大阪市住吉区苅田10-1-35",TRUE,,,,TRUE,,,,34.59456814,135.5138503
61708,"大阪府大阪市","苅田北小学校","大阪府大阪市住吉区苅田1-11-39",TRUE,,,,TRUE,,,,34.60379887,135.5207918
61710,"大阪府大阪市","三稜中学校","大阪府大阪市住吉区千躰1-5-22",TRUE,,,,TRUE,,,,34.60725897,135.4997349
61712,"大阪府大阪市","我孫子中学校","大阪府大阪市住吉区我孫子東1-4-32",TRUE,,,,TRUE,,,,34.60464239,135.5117973
61714,"大阪府大阪市","住吉中学校","大阪府大阪市住吉区帝塚山西3-5-6",TRUE,,,,TRUE,,,,34.61933511,135.4957609
61716,"大阪府大阪市","東我孫子中学校","大阪府大阪市住吉区苅田1-16-2",TRUE,,,,TRUE,,,,34.60302626,135.519783
61718,"大阪府大阪市","大和川中学校","大阪府大阪市住吉区遠里小野2-11-4",TRUE,,,,TRUE,,,,34.5975086,135.4968891
61720,"大阪府大阪市","墨江丘中学校","大阪府大阪市住吉区墨江4-15-34",TRUE,,,,TRUE,,,,34.60611308,135.4944497
61722,"大阪府大阪市","大領中学校","大阪府大阪市住吉区大領4-3-25",TRUE,,,,TRUE,,,,34.61368106,135.5073136
61724,"大阪府大阪市","我孫子南中学校","大阪府大阪市住吉区浅香1-8-55",TRUE,,,,TRUE,,,,34.59320697,135.5113074
61755,"大阪府大阪市","墨江小学校（運動場）","大阪府大阪市住吉区墨江２-３-46",,,,TRUE,TRUE,,,,34.60816239,135.4962725
61757,"大阪府大阪市","三稜中学校（運動場）","大阪府大阪市住吉区千躰１-５-22",,,,TRUE,TRUE,,,,34.60741351,135.5005467
61759,"大阪府大阪市","墨江丘中学校（運動場）","大阪府大阪市住吉区墨江４-15-34",,,,TRUE,TRUE,,,,34.60651193,135.4946553
61761,"大阪府大阪市","清明学院高等学校（運動場）","大阪府大阪市住吉区墨江２-４-４",,,,TRUE,TRUE,,,,34.60730226,135.4944996
61763,"大阪府大阪市","清水丘小学校（運動場）","大阪府大阪市住吉区清水丘２-９-41",,,,TRUE,TRUE,,,,34.60163757,135.4924821
61765,"大阪府大阪市","南住吉小学校（運動場）","大阪府大阪市住吉区南住吉３-５-１",,,,TRUE,TRUE,,,,34.60453059,135.5032389
61767,"大阪府大阪市","山之内小学校（運動場）","大阪府大阪市住吉区山之内２-17-39",,,,TRUE,TRUE,,,,34.59596014,135.5002561
61769,"大阪府大阪市","遠里小野小学校（運動場）","大阪府大阪市住吉区遠里小野６-６-27",,,,TRUE,TRUE,,,,34.59735058,135.4949959
61771,"大阪府大阪市","大和川中学校（運動場）","大阪府大阪市住吉区遠里小野２-11-４",,,,TRUE,TRUE,,,,34.59728811,135.497656
61773,"大阪府大阪市","浪速中学校・高等学校（運動場）","大阪府大阪市住吉区山之内２-13-57",,,,TRUE,TRUE,,,,34.597304,135.5007605
61775,"大阪府大阪市","東粉浜小学校（運動場）","大阪府大阪市住吉区東粉浜２-３-26",,,,TRUE,TRUE,,,,34.62011399,135.4946679
61777,"大阪府大阪市","住吉小学校（運動場）","大阪府大阪市住吉区帝塚山西４-１-35",,,,TRUE,TRUE,,,,34.61771419,135.4969022
61779,"大阪府大阪市","大領小学校（運動場）","大阪府大阪市住吉区大領３-３-５",,,,TRUE,TRUE,,,,34.61580576,135.507075
61781,"大阪府大阪市","住吉中学校（運動場）","大阪府大阪市住吉区帝塚山西３-５-６",,,,TRUE,TRUE,,,,34.61890689,135.4960256
61783,"大阪府大阪市","大領中学校（運動場）","大阪府大阪市住吉区大領４-３-25",,,,TRUE,TRUE,,,,34.61400997,135.5074732
61785,"大阪府大阪市","帝塚山学院（運動場）","大阪府大阪市住吉区帝塚山中３-10-51",,,,TRUE,TRUE,,,,34.62046894,135.4988815
61787,"大阪府大阪市","長居小学校（運動場）","大阪府大阪市住吉区長居東３-３-40",,,,TRUE,TRUE,,,,34.60883111,135.5144617
61789,"大阪府大阪市","大阪学芸高等学校（運動場）","大阪府大阪市住吉区長居１-４-15",,,,TRUE,TRUE,,,,34.61562647,135.512448
61791,"大阪府大阪市","大阪府教育センター附属高等学校（運動場）","大阪府大阪市住吉区苅田４-１-72",,,,TRUE,TRUE,,,,34.6014637,135.5207585
61793,"大阪府大阪市","苅田小学校（運動場）","大阪府大阪市住吉区苅田３-５-34",,,,TRUE,TRUE,,,,34.60177351,135.5166765
61795,"大阪府大阪市","苅田北小学校（運動場）","大阪府大阪市住吉区苅田１-11-39",,,,TRUE,TRUE,,,,34.60363992,135.5203859
61797,"大阪府大阪市","苅田南小学校（運動場）","大阪府大阪市住吉区苅田10-１-35",,,,TRUE,TRUE,,,,34.59420162,135.5148052
61799,"大阪府大阪市","東我孫子中学校（運動場）","大阪府大阪市住吉区苅田１-16-２",,,,TRUE,TRUE,,,,34.60274587,135.5192296
61801,"大阪府大阪市","依羅小学校（運動場）","大阪府大阪市住吉区我孫子４-11-48",,,,TRUE,TRUE,,,,34.59741363,135.5082164
61803,"大阪府大阪市","我孫子中学校（運動場）","大阪府大阪市住吉区我孫子東１-４-32",,,,TRUE,TRUE,,,,34.60499562,135.5122497
61805,"大阪府大阪市","清水幼稚園（運動場）","大阪府大阪市住吉区清水丘１-24-10",,,,TRUE,TRUE,,,,34.60335653,135.4914521
61807,"大阪府大阪市","遠里小野幼稚園（運動場）","大阪府大阪市住吉区遠里小野１-２-25",,,,TRUE,TRUE,,,,34.60049391,135.4992401
61809,"大阪府大阪市","大空小学校（運動場）","大阪府大阪市住吉区我孫子西１-６-12",,,,TRUE,TRUE,,,,34.60546706,135.508003
61811,"大阪府大阪市","我孫子南中学校（運動場）","大阪府大阪市住吉区浅香１-８-55",,,,TRUE,TRUE,,,,34.59298691,135.5116879
62510,"大阪府堺市","美原西中学校","大阪府堺市美原区大饗102-2",,,,TRUE,,,,,34.54256382,135.5474759
61864,"大阪府大阪市","桑津小学校","大阪府大阪市東住吉区桑津5-13-13",TRUE,,,,,,,,34.63549005,135.5314451
61865,"大阪府大阪市","育和小学校（運動場）","大阪府大阪市東住吉区杭全４-10-12",,,,TRUE,TRUE,,,,34.63426721,135.5372701
61866,"大阪府大阪市","北田辺小学校","大阪府大阪市東住吉区北田辺3-11-14",TRUE,,,,,,,,34.63282976,135.5248312
61867,"大阪府大阪市","桑津小学校（運動場）","大阪府大阪市東住吉区桑津５-13-13",,,,TRUE,TRUE,,,,34.63532821,135.5309802
61868,"大阪府大阪市","田辺小学校","大阪府大阪市東住吉区田辺2-3-34",TRUE,,,,,,,,34.62619473,135.525851
61869,"大阪府大阪市","北田辺小学校（運動場）","大阪府大阪市東住吉区北田辺３-11-14",,,,TRUE,TRUE,,,,34.63273854,135.524318
61870,"大阪府大阪市","東田辺小学校","大阪府大阪市東住吉区東田辺2-14-6",TRUE,,,,,,,,34.61996652,135.5274374
61871,"大阪府大阪市","田辺小学校（運動場）","大阪府大阪市東住吉区田辺２-３-34",,,,TRUE,TRUE,,,,34.62638602,135.5263839
61872,"大阪府大阪市","南田辺小学校","大阪府大阪市東住吉区南田辺4-3-4",TRUE,,,,,,,,34.6176525,135.522246
61873,"大阪府大阪市","南田辺小学校（運動場）","大阪府大阪市東住吉区南田辺４-３-４",,,,TRUE,TRUE,,,,34.61733611,135.5222451
61874,"大阪府大阪市","南百済小学校","大阪府大阪市東住吉区湯里1-15-40",TRUE,,,,,,,,34.61519479,135.5349398
61875,"大阪府大阪市","東田辺小学校（運動場）","大阪府大阪市東住吉区東田辺２-14-６",,,,TRUE,TRUE,,,,34.6198488,135.5279059
61876,"大阪府大阪市","育和小学校","大阪府大阪市東住吉区杭全4-10-12",TRUE,,,,,,,,34.63452616,135.5378799
61877,"大阪府大阪市","南百済小学校（運動場）","大阪府大阪市東住吉区湯里１-15-40",,,,TRUE,TRUE,,,,34.61505057,135.5351884
61878,"大阪府大阪市","鷹合小学校","大阪府大阪市東住吉区鷹合3-12-38",TRUE,,,,,,,,34.61195494,135.5291528
61879,"大阪府大阪市","湯里小学校（運動場）","大阪府大阪市東住吉区湯里６-８-３",,,,TRUE,TRUE,,,,34.61020098,135.5400546
61880,"大阪府大阪市","今川小学校","大阪府大阪市東住吉区今川4-24-4",TRUE,,,,,,,,34.62716853,135.5354351
61881,"大阪府大阪市","鷹合小学校（運動場）","大阪府大阪市東住吉区鷹合３-12-38",,,,TRUE,TRUE,,,,34.611967,135.5297093
61882,"大阪府大阪市","やたなか小中一貫校 （矢田小学校、矢田南中学校）","大阪府大阪市東住吉区矢田3-4-27",TRUE,,,,,,,,34.6039903,135.5280006
61883,"大阪府大阪市","今川小学校（運動場）","大阪府大阪市東住吉区今川４-24-４",,,,TRUE,TRUE,,,,34.62681373,135.5355893
61884,"大阪府大阪市","矢田東小学校","大阪府大阪市東住吉区住道矢田2-7-43",TRUE,,,,,,,,34.60273621,135.5382089
61885,"大阪府大阪市","矢田北小学校（運動場）","大阪府大阪市東住吉区照ヶ丘矢田２-１-55",,,,TRUE,TRUE,,,,34.60874093,135.5371983
61886,"大阪府大阪市","矢田西小学校","大阪府大阪市東住吉区公園南矢田2-15-43",TRUE,,,,,,,,34.6044851,135.5256864
61887,"大阪府大阪市","矢田東小学校（運動場）","大阪府大阪市東住吉区住道矢田２-７-43",,,,TRUE,TRUE,,,,34.60258314,135.5377869
61888,"大阪府大阪市","矢田北小学校","大阪府大阪市東住吉区照ヶ丘矢田2-1-55",TRUE,,,,,,,,34.60856377,135.5362984
61889,"大阪府大阪市","矢田西小学校（運動場）","大阪府大阪市東住吉区公園南矢田２-15-43",,,,TRUE,TRUE,,,,34.60420399,135.5257633
61890,"大阪府大阪市","湯里小学校","大阪府大阪市東住吉区湯里6-8-3",TRUE,,,,,,,,34.61036949,135.539739
61891,"大阪府大阪市","田辺中学校（運動場）","大阪府大阪市東住吉区南田辺４-７-24",,,,TRUE,TRUE,,,,34.61595225,135.5220335
61892,"大阪府大阪市","田辺中学校","大阪府大阪市東住吉区南田辺4-7-24",TRUE,,,,,,,,34.61584924,135.5221336
61893,"大阪府大阪市","東住吉中学校（運動場）","大阪府大阪市東住吉区桑津５-17-25",,,,TRUE,TRUE,,,,34.63530805,135.5323946
61894,"大阪府大阪市","東住吉中学校","大阪府大阪市東住吉区桑津5-17-25",TRUE,,,,,,,,34.63504175,135.5319744
61895,"大阪府大阪市","白鷺中学校（運動場）","大阪府大阪市東住吉区今川１-２-21",,,,TRUE,TRUE,,,,34.63103271,135.5356477
61896,"大阪府大阪市","中野中学校","大阪府大阪市東住吉区中野4-4-25",TRUE,,,,,,,,34.62039422,135.5404019
61897,"大阪府大阪市","中野中学校（運動場）","大阪府大阪市東住吉区中野４-４-25",,,,TRUE,TRUE,,,,34.62041776,135.5397064
61898,"大阪府大阪市","矢田中学校","大阪府大阪市東住吉区住道矢田9-7-55",TRUE,,,,,,,,34.60197959,135.5410696
61899,"大阪府大阪市","矢田中学校（運動場）","大阪府大阪市東住吉区住道矢田９-７-55",,,,TRUE,TRUE,,,,34.60119859,135.5414035
61900,"大阪府大阪市","白鷺中学校","大阪府大阪市東住吉区今川1-2-21",TRUE,,,,,,,,34.63134776,135.5362418
61901,"大阪府大阪市","やたなか小中一貫校（矢田小学校・矢田南中学校）（運動場）","大阪府大阪市東住吉区矢田３-４-27",,,,TRUE,TRUE,,,,34.60340581,135.5279509
61902,"大阪府大阪市","矢田西中学校","大阪府大阪市東住吉区公園南矢田2-12-47",TRUE,,,,,,,,34.60500739,135.5240409
61903,"大阪府大阪市","矢田西中学校（運動場）","大阪府大阪市東住吉区公園南矢田２-12-47",,,,TRUE,TRUE,,,,34.60481569,135.5244745
61904,"大阪府大阪市","東住吉特別支援学校","大阪府大阪市東住吉区矢田5-1-22",TRUE,,,,,,,,34.60188449,135.5280925
61905,"大阪府大阪市","大阪芸術大学短期大学部（運動場）","大阪府大阪市東住吉区矢田２-14-19",,,,TRUE,TRUE,,,,34.60770678,135.5312561
61907,"大阪府大阪市","城南学園（運動場）","大阪府大阪市東住吉区照ヶ丘矢田２-14-19",,,,TRUE,TRUE,,,,34.60787055,135.5384353
61934,"大阪府大阪市","喜連小学校","大阪府大阪市平野区喜連7-6-4",TRUE,,,,,,,,34.61116414,135.5558708
61936,"大阪府大阪市","平野西小学校","大阪府大阪市平野区背戸口4-1-31",TRUE,,,,,,,,34.62490436,135.5477341
61938,"大阪府大阪市","平野小学校","大阪府大阪市平野区平野宮町1-9-29",TRUE,,,,,,,,34.62712666,135.5545581
61940,"大阪府大阪市","長吉小学校","大阪府大阪市平野区長吉長原2-6-55",TRUE,,,,,,,,34.60587551,135.5693206
61942,"大阪府大阪市","瓜破小学校","大阪府大阪市平野区瓜破5-3-11",TRUE,,,,,,,,34.60245568,135.5525138
61944,"大阪府大阪市","加美小学校","大阪府大阪市平野区加美正覚寺3-13-35",TRUE,,,,,,,,34.63101711,135.5634004
61946,"大阪府大阪市","加美南部小学校","大阪府大阪市平野区加美南1-9-17",TRUE,,,,,,,,34.62420952,135.5702953
61948,"大阪府大阪市","平野南小学校","大阪府大阪市平野区平野南2-3-8",TRUE,,,,,,,,34.61799393,135.5586299
61950,"大阪府大阪市","長吉東小学校","大阪府大阪市平野区長吉出戸8-8-41",TRUE,,,,,,,,34.60844426,135.5767078
61952,"大阪府大阪市","喜連西小学校","大阪府大阪市平野区喜連西3-17-61",TRUE,,,,,,,,34.61233649,135.5453638
61954,"大阪府大阪市","長吉南小学校","大阪府大阪市平野区長吉六反3-2-17",TRUE,,,,,,,,34.60464534,135.5787319
61956,"大阪府大阪市","瓜破北小学校","大阪府大阪市平野区瓜破1-8-33",TRUE,,,,,,,,34.60490396,135.5512501
61958,"大阪府大阪市","長原小学校","大阪府大阪市平野区長吉長原東3-10-9",TRUE,,,,,,,,34.59958168,135.5773242
61960,"大阪府大阪市","喜連東小学校","大阪府大阪市平野区喜連東2-2-17",TRUE,,,,,,,,34.61347952,135.5619423
61962,"大阪府大阪市","瓜破東小学校","大阪府大阪市平野区瓜破東2-5-78",TRUE,,,,,,,,34.60697958,135.56105
61964,"大阪府大阪市","長吉六反小学校","大阪府大阪市平野区長吉六反5-3-41",TRUE,,,,,,,,34.60648542,135.5860861
61966,"大阪府大阪市","加美北小学校","大阪府大阪市平野区加美北7-4-10",TRUE,,,,,,,,34.63648454,135.5602917
61968,"大阪府大阪市","長吉出戸小学校","大阪府大阪市平野区長吉出戸3-1-43",TRUE,,,,,,,,34.61274116,135.5704074
61970,"大阪府大阪市","瓜破西小学校","大阪府大阪市平野区瓜破西2-1-43",TRUE,,,,,,,,34.60416829,135.5446675
61972,"大阪府大阪市","喜連北小学校","大阪府大阪市平野区喜連1-7-4",TRUE,,,,,,,,34.6141384,135.5500331
61974,"大阪府大阪市","加美東小学校","大阪府大阪市平野区加美東5-9-25",TRUE,,,,,,,,34.62719712,135.5716169
61976,"大阪府大阪市","川辺小学校","大阪府大阪市平野区長吉川辺1-4-9",TRUE,,,,,,,,34.59685117,135.5694272
61978,"大阪府大阪市","新平野西小学校","大阪府大阪市平野区背戸口1-5-22",TRUE,,,,,,,,34.62436027,135.5419785
61980,"大阪府大阪市","摂陽中学校","大阪府大阪市平野区平野西3-4-7",TRUE,,,,,,,,34.62021175,135.5457531
61982,"大阪府大阪市","平野中学校","大阪府大阪市平野区背戸口1-16-26",TRUE,,,,,,,,34.62363875,135.5422718
61984,"大阪府大阪市","長吉中学校","大阪府大阪市平野区長吉長原東1-6-15",TRUE,,,,,,,,34.60535703,135.5758032
61986,"大阪府大阪市","瓜破中学校","大阪府大阪市平野区瓜破2-5-31",TRUE,,,,,,,,34.60682591,135.5533276
61988,"大阪府大阪市","加美中学校","大阪府大阪市平野区加美正覚寺3-13-46",TRUE,,,,,,,,34.63095451,135.5621752
61990,"大阪府大阪市","長吉西中学校","大阪府大阪市平野区長吉長原西3-8-21",TRUE,,,,,,,,34.60067058,135.566282
61992,"大阪府大阪市","喜連中学校","大阪府大阪市平野区喜連西6-2-11",TRUE,,,,,,,,34.61139521,135.5480874
61994,"大阪府大阪市","長吉六反中学校","大阪府大阪市平野区長吉六反4-9-61",TRUE,,,,,,,,34.60880357,135.585768
61996,"大阪府大阪市","瓜破西中学校","大阪府大阪市平野区瓜破西2-12-22",TRUE,,,,,,,,34.6024239,135.5454991
61998,"大阪府大阪市","加美南中学校","大阪府大阪市平野区加美南1-10-15",TRUE,,,,,,,,34.62342449,135.5701594
62000,"大阪府大阪市","平野北中学校","大阪府大阪市平野区平野宮町1-8-55",TRUE,,,,,,,,34.62804433,135.5533146
62005,"大阪府大阪市","平野小学校（運動場）","大阪府大阪市平野区平野宮町１-９-29",,,,TRUE,TRUE,,,,34.62712813,135.5538411
62007,"大阪府大阪市","平野西小学校（運動場）","大阪府大阪市平野区背戸口４-１-31",,,,TRUE,TRUE,,,,34.6249897,135.5472531
62009,"大阪府大阪市","新平野西小学校（運動場）","大阪府大阪市平野区背戸口１-５-22",,,,TRUE,TRUE,,,,34.62438676,135.5410737
62011,"大阪府大阪市","平野南小学校（運動場）","大阪府大阪市平野区平野南２-３-８",,,,TRUE,TRUE,,,,34.61789166,135.5581623
62013,"大阪府大阪市","喜連小学校（運動場）","大阪府大阪市平野区喜連７-６-４",,,,TRUE,TRUE,,,,34.6112495,135.5563554
62015,"大阪府大阪市","喜連東小学校（運動場）","大阪府大阪市平野区喜連東２-２-17",,,,TRUE,TRUE,,,,34.61331764,135.5614291
62017,"大阪府大阪市","喜連西小学校（運動場）","大阪府大阪市平野区喜連西３-17-61",,,,TRUE,TRUE,,,,34.61226291,135.5448292
62019,"大阪府大阪市","喜連北小学校（運動場）","大阪府大阪市平野区喜連１-７-４",,,,TRUE,TRUE,,,,34.61402067,135.5506143
62021,"大阪府大阪市","長吉東小学校（運動場）","大阪府大阪市平野区長吉出戸８-８-41",,,,TRUE,TRUE,,,,34.60807927,135.5768115
62023,"大阪府大阪市","長吉南小学校（運動場）","大阪府大阪市平野区長吉六反３-２-17",,,,TRUE,TRUE,,,,34.60454194,135.5782978
62025,"大阪府大阪市","長原小学校（運動場）","大阪府大阪市平野区長吉長原東３-10-９",,,,TRUE,TRUE,,,,34.59923119,135.5776367
62027,"大阪府大阪市","長吉六反小学校（運動場）","大阪府大阪市平野区長吉六反５-３-41",,,,TRUE,TRUE,,,,34.60635793,135.5864844
62029,"大阪府大阪市","長吉小学校（運動場）","大阪府大阪市平野区長吉長原２-６-55",,,,TRUE,TRUE,,,,34.60560764,135.5695155
62031,"大阪府大阪市","長吉出戸小学校（運動場）","大阪府大阪市平野区長吉出戸３-１-43",,,,TRUE,TRUE,,,,34.61317438,135.5706367
62033,"大阪府大阪市","川辺小学校（運動場）","大阪府大阪市平野区長吉川辺１-４-９",,,,TRUE,TRUE,,,,34.59629919,135.5693754
62035,"大阪府大阪市","瓜破小学校（運動場）","大阪府大阪市平野区瓜破５-３-11",,,,TRUE,TRUE,,,,34.60232027,135.5530842
62037,"大阪府大阪市","瓜破西小学校（運動場）","大阪府大阪市平野区瓜破西２-１-43",,,,TRUE,TRUE,,,,34.60412119,135.5438807
62039,"大阪府大阪市","瓜破北小学校（運動場）","大阪府大阪市平野区瓜破１-８-33",,,,TRUE,TRUE,,,,34.60507322,135.5504901
62041,"大阪府大阪市","瓜破東小学校（運動場）","大阪府大阪市平野区瓜破東２-５-78",,,,TRUE,TRUE,,,,34.60775593,135.5607916
62043,"大阪府大阪市","加美小学校（運動場）","大阪府大阪市平野区加美正覚寺３-13-35",,,,TRUE,TRUE,,,,34.63065621,135.5634067
62045,"大阪府大阪市","加美南部小学校（運動場）","大阪府大阪市平野区加美南１-９-17",,,,TRUE,TRUE,,,,34.62424318,135.5698755
62047,"大阪府大阪市","加美北小学校（運動場）","大阪府大阪市平野区加美北７-４-10",,,,TRUE,TRUE,,,,34.63605347,135.5603472
62049,"大阪府大阪市","加美東小学校（運動場）","大阪府大阪市平野区加美東５-９-25",,,,TRUE,TRUE,,,,34.62748404,135.5713505
62051,"大阪府大阪市","平野中学校（運動場）","大阪府大阪市平野区背戸口１-16-26",,,,TRUE,TRUE,,,,34.62327235,135.5429388
62053,"大阪府大阪市","摂陽中学校（運動場）","大阪府大阪市平野区平野西３-４-７",,,,TRUE,TRUE,,,,34.62047662,135.545948
62055,"大阪府大阪市","平野北中学校（運動場）","大阪府大阪市平野区平野宮町１-８-55",,,,TRUE,TRUE,,,,34.62844601,135.5534076
62057,"大阪府大阪市","喜連中学校（運動場）","大阪府大阪市平野区喜連西６-２-11",,,,TRUE,TRUE,,,,34.611276,135.5474616
62059,"大阪府大阪市","長吉中学校（運動場）","大阪府大阪市平野区長吉長原東１-６-15",,,,TRUE,TRUE,,,,34.60480732,135.5760195
62061,"大阪府大阪市","長吉六反中学校（運動場）","大阪府大阪市平野区長吉六反４-９-61",,,,TRUE,TRUE,,,,34.60865787,135.5865476
62063,"大阪府大阪市","長吉西中学校（運動場）","大阪府大阪市平野区長吉長原西３-８-21",,,,TRUE,TRUE,,,,34.60049837,135.5654738
62065,"大阪府大阪市","瓜破中学校（運動場）","大阪府大阪市平野区瓜破２-５-31",,,,TRUE,TRUE,,,,34.60623426,135.5528842
62067,"大阪府大阪市","瓜破西中学校（運動場）","大阪府大阪市平野区瓜破西２-12-22",,,,TRUE,TRUE,,,,34.60252546,135.5467884
62069,"大阪府大阪市","加美中学校（運動場）","大阪府大阪市平野区加美正覚寺３-13-46",,,,TRUE,TRUE,,,,34.6306218,135.5623267
62071,"大阪府大阪市","加美南中学校（運動場）","大阪府大阪市平野区加美南１-10-15",,,,TRUE,TRUE,,,,34.62302278,135.5697374
62073,"大阪府大阪市","大阪教育大学附属平野中学校・高等学校平野校舎（運動場）","大阪府大阪市平野区流町２-１-24",,,,TRUE,TRUE,,,,34.61728376,135.54987
62075,"大阪府大阪市","東住吉高等学校（運動場）","大阪府大阪市平野区平野西２-３-77",,,,TRUE,TRUE,,,,34.61772714,135.5427186
62077,"大阪府大阪市","大阪教育大学附属特別支援学校（運動場）","大阪府大阪市平野区喜連４-８-71",,,,TRUE,TRUE,,,,34.61025353,135.5538328
62079,"大阪府大阪市","長吉高等学校（運動場）","大阪府大阪市平野区長吉長原西３-11-33",,,,TRUE,TRUE,,,,34.59820895,135.5659786
62081,"大阪府大阪市","平野特別支援学校（運動場）","大阪府大阪市平野区長吉川辺３-４-115",,,,TRUE,TRUE,,,,34.59859211,135.5780593
62216,"大阪府大阪市","天下茶屋中学校","大阪府大阪市西成区橘1-8-2",TRUE,,,,TRUE,,,,34.6384841,135.4940892
62218,"大阪府大阪市","いまみや小中一貫校 （新今宮小学校・今宮中学校）","大阪府大阪市西成区花園北1-8-32",TRUE,,,,TRUE,,,,34.6484418,135.4983474
62219,"大阪府大阪市","天下茶屋中学校（運動場）","大阪府大阪市西成区橘１-８-２",,,,TRUE,,,,,34.63841508,135.4936091
62220,"大阪府大阪市","成南中学校","大阪府大阪市西成区千本中1-17-10",TRUE,,,,TRUE,,,,34.63361909,135.4904603
62221,"大阪府大阪市","いまみや小中一貫校（新今宮小学校・今宮中学校）（運動場）","大阪府大阪市西成区花園北１-８-32",,,,TRUE,,,,,34.64871909,135.4988373
62222,"大阪府大阪市","鶴見橋中学校","大阪府大阪市西成区長橋3-9-23",TRUE,,,,TRUE,,,,34.6486375,135.4872396
62223,"大阪府大阪市","成南中学校（運動場）","大阪府大阪市西成区千本中１-17-10",,,,TRUE,,,,,34.63304234,135.4897754
62224,"大阪府大阪市","玉出中学校","大阪府大阪市西成区玉出西1-15-37",TRUE,,,,TRUE,,,,34.6268136,135.4884195
62225,"大阪府大阪市","鶴見橋中学校（運動場）","大阪府大阪市西成区長橋３-９-23",,,,TRUE,,,,,34.64859925,135.4865762
62226,"大阪府大阪市","梅南中学校","大阪府大阪市西成区梅南3-3-17",TRUE,,,,TRUE,,,,34.6425574,135.4878438
62227,"大阪府大阪市","玉出中学校（運動場）","大阪府大阪市西成区玉出西１-15-37",,,,TRUE,,,,,34.62712848,135.4879707
62228,"大阪府大阪市","もと弘治小学校","大阪府大阪市西成区花園北2-16-26",TRUE,,,,TRUE,,,,34.6441846,135.4970801
62229,"大阪府大阪市","梅南中学校（運動場）","大阪府大阪市西成区梅南３-３-17",,,,TRUE,,,,,34.6426065,135.4874348
62230,"大阪府大阪市","長橋小学校","大阪府大阪市西成区長橋2-3-21",TRUE,,,,TRUE,,,,34.64812645,135.4922414
62231,"大阪府大阪市","もと弘治小学校（運動場）","大阪府大阪市西成区花園北２-16-26",,,,TRUE,,,,,34.64395603,135.4970725
62232,"大阪府大阪市","もと萩之茶屋小学校","大阪府大阪市西成区萩之茶屋1-11-15",TRUE,,,,TRUE,,,,34.64747103,135.5005856
62233,"大阪府大阪市","長橋小学校（運動場）","大阪府大阪市西成区長橋２-３-21",,,,TRUE,,,,,34.64774091,135.4923558
62234,"大阪府大阪市","もと今宮小学校","大阪府大阪市西成区天下茶屋1-17-14",TRUE,,,,TRUE,,,,34.64197671,135.500342
62235,"大阪府大阪市","もと今宮小学校（運動場）","大阪府大阪市西成区天下茶屋１-17-14",,,,TRUE,TRUE,,,,34.64191474,135.4999213
62236,"大阪府大阪市","橘小学校","大阪府大阪市西成区橘2-1-18",TRUE,,,,TRUE,,,,34.63957568,135.4917855
62237,"大阪府大阪市","橘小学校（運動場）","大阪府大阪市西成区橘２-１-29",,,,TRUE,,,,,34.63924182,135.4918733
62238,"大阪府大阪市","松之宮小学校","大阪府大阪市西成区旭3-5-39",TRUE,,,,TRUE,,,,34.64499646,135.4884296
62239,"大阪府大阪市","松之宮小学校（運動場）","大阪府大阪市西成区旭３-５-39",,,,TRUE,,,,,34.64467135,135.4884421
62240,"大阪府大阪市","梅南津守小学校","大阪府大阪市西成区梅南3-2-25",TRUE,,,,TRUE,,,,34.64244248,135.4890375
62241,"大阪府大阪市","梅南津守小学校（運動場）","大阪府大阪市西成区梅南３-２-25",,,,TRUE,,,,,34.64230511,135.4894206
62242,"大阪府大阪市","玉出小学校","大阪府大阪市西成区玉出中2-13-56",TRUE,,,,TRUE,,,,34.6244028,135.4915484
62243,"大阪府大阪市","玉出小学校（運動場）","大阪府大阪市西成区玉出中２-13-48",,,,TRUE,,,,,34.62452725,135.4918233
62244,"大阪府大阪市","岸里小学校","大阪府大阪市西成区千本中1-8-22",TRUE,,,,TRUE,,,,34.63343762,135.4916396
62245,"大阪府大阪市","岸里小学校（運動場）","大阪府大阪市西成区千本中１-８-22",,,,TRUE,,,,,34.63361123,135.4920812
62246,"大阪府大阪市","千本小学校","大阪府大阪市西成区千本中2-8-8",TRUE,,,,TRUE,,,,34.63151566,135.4888172
62247,"大阪府大阪市","千本小学校（運動場）","大阪府大阪市西成区千本中２-８-８",,,,TRUE,,,,,34.63178638,135.488717
62248,"大阪府大阪市","もと津守小学校","大阪府大阪市西成区津守3-1-66",TRUE,,,,TRUE,,,,34.64063383,135.4846694
62249,"大阪府大阪市","もと津守小学校（運動場）","大阪府大阪市西成区津守３-１-66",,,,TRUE,,,,,34.64029546,135.4848571
62250,"大阪府大阪市","南津守小学校","大阪府大阪市西成区南津守6-1-14",TRUE,,,,TRUE,,,,34.62803193,135.4854135
62251,"大阪府大阪市","南津守小学校（運動場）","大阪府大阪市西成区南津守６-１-14",,,,TRUE,,,,,34.62796913,135.4850361
62252,"大阪府大阪市","北津守小学校","大阪府大阪市西成区北津守3-3-40",TRUE,,,,TRUE,,,,34.65154576,135.4833417
62253,"大阪府大阪市","北津守小学校（運動場）","大阪府大阪市西成区北津守３-３-40",,,,TRUE,,,,,34.65110153,135.483601
62254,"大阪府大阪市","天下茶屋小学校","大阪府大阪市西成区聖天下1-11-35",TRUE,,,,TRUE,,,,34.63698811,135.5016995
62255,"大阪府大阪市","天下茶屋小学校（運動場）","大阪府大阪市西成区聖天下１-11-35",,,,TRUE,TRUE,,,,34.63687041,135.5012775
62256,"大阪府大阪市","今宮工科高等学校","大阪府大阪市西成区出城1-1-6",TRUE,,,,TRUE,,,,34.65027026,135.4964823
62257,"大阪府大阪市","西成高等学校（運動場）","大阪府大阪市西成区津守１-13-10",,,,TRUE,,,,,34.64660898,135.4819284
62258,"大阪府大阪市","西成高等学校","大阪府大阪市西成区津守1-13-10",TRUE,,,,TRUE,,,,34.64719887,135.4821734
62259,"大阪府大阪市","今宮工科高等学校（運動場）","大阪府大阪市西成区出城１-１-６",,,,TRUE,,,,,34.64985691,135.4962856
62261,"大阪府大阪市","山王集会所（広場）","大阪府大阪市西成区山王２-10-24",,,,TRUE,TRUE,,,,34.64629795,135.5054974
62263,"大阪府大阪市","飛田ふれあい会館（広場）","大阪府大阪市西成区山王３-12-13",,,,TRUE,TRUE,,,,34.64381768,135.5045468
62372,"大阪府堺市","三宝小学校","大阪府堺市堺区三宝町5-286",TRUE,,,TRUE,TRUE,,,,34.59382792,135.4717443
62373,"大阪府堺市","錦西小学校","大阪府堺市堺区神明町西2-1-1",TRUE,,,TRUE,TRUE,,,,34.58544459,135.4783955
62374,"大阪府堺市","市小学校","大阪府堺市堺区市之町西3-1-14",TRUE,,,TRUE,TRUE,,,,34.58015148,135.47092
62375,"大阪府堺市","錦綾小学校","大阪府堺市堺区錦綾町1-6-19",TRUE,,,TRUE,TRUE,,,,34.58599243,135.4860261
62376,"大阪府堺市","浅香山小学校","大阪府堺市堺区今池町5-4-43",TRUE,,,TRUE,,,,,34.58566419,135.4945096
62377,"大阪府堺市","錦小学校","大阪府堺市堺区九間町東3-1-17",TRUE,,,TRUE,TRUE,,,,34.58442305,135.4827866
62378,"大阪府堺市","熊野小学校","大阪府堺市堺区熊野町東5-1-49",TRUE,,,TRUE,TRUE,,,,34.57639464,135.4789961
62379,"大阪府堺市","榎小学校","大阪府堺市堺区榎元町2-3-11",,,,TRUE,,,,,34.57042975,135.4857367
62380,"大阪府堺市","三国丘小学校","大阪府堺市堺区北三国ヶ丘町5-1-1",,,,TRUE,,,,,34.57522516,135.492802
62381,"大阪府堺市","英彰小学校","大阪府堺市堺区寺地町西4-1-1",TRUE,,,TRUE,TRUE,,,,34.57605,135.4659364
62382,"大阪府堺市","旧湊小学校","大阪府堺市堺区東湊町2-119-4",TRUE,,,TRUE,,,,,34.56785866,135.4659857
62383,"大阪府堺市","新湊小学校","大阪府堺市堺区西湊町6-6-1",TRUE,,,TRUE,TRUE,,,,34.56625289,135.4608312
62384,"大阪府堺市","少林寺小学校","大阪府堺市堺区少林寺町東4-1-1",TRUE,,,TRUE,TRUE,,,,34.57069609,135.4719182
62385,"大阪府堺市","安井小学校","大阪府堺市堺区南安井町4-1-5",TRUE,,,TRUE,TRUE,,,,34.57015665,135.47821
62386,"大阪府堺市","大仙西小学校","大阪府堺市堺区大仙西町4-129",,,,TRUE,,,,,34.56407453,135.4727608
62387,"大阪府堺市","神石小学校","大阪府堺市堺区石津町2-6-1",TRUE,,,TRUE,,,,,34.55486068,135.4669491
62388,"大阪府堺市","大仙小学校","大阪府堺市堺区大仙中町16-1",,,,TRUE,,,,,34.56066408,135.4793448
62389,"大阪府堺市","浜寺石津小学校","大阪府堺市西区浜寺石津町中2-3-28",TRUE,,,TRUE,TRUE,,,,34.55959364,135.4558834
62390,"大阪府堺市","浜寺東小学校","大阪府堺市西区浜寺船尾町東1-101",TRUE,,,TRUE,TRUE,,,,34.55113121,135.4581923
62391,"大阪府堺市","浜寺小学校","大阪府堺市西区浜寺諏訪森町東2-163",TRUE,,,TRUE,TRUE,,,,34.54952771,135.4512779
62392,"大阪府堺市","浜寺昭和小学校","大阪府堺市西区浜寺昭和町2-282",,,,TRUE,,,,,34.54255962,135.4488211
62393,"大阪府堺市","津久野小学校","大阪府堺市西区津久野町3-14-11",TRUE,,,TRUE,,,,,34.54509367,135.4708726
62394,"大阪府堺市","上野芝小学校","大阪府堺市西区神野町2-25-1",,,,TRUE,,,,,34.5443093,135.4757214
62395,"大阪府堺市","家原寺小学校","大阪府堺市西区家原寺町1-7-1",TRUE,TRUE,,TRUE,,,,,34.5374783,135.4760344
62396,"大阪府堺市","鳳小学校","大阪府堺市西区鳳中町2-22",TRUE,,,TRUE,,,,,34.53429748,135.4588862
62397,"大阪府堺市","鳳南小学校","大阪府堺市西区鳳南町1-7",,,,TRUE,,,,,34.52831836,135.4575319
62398,"大阪府堺市","向丘小学校","大阪府堺市西区上野芝向ヶ丘町6-7-1",,,,TRUE,,,,,34.53962177,135.4785784
62399,"大阪府堺市","平岡小学校","大阪府堺市西区堀上緑町1-6-1",,,,TRUE,,,,,34.53466685,135.4773919
62400,"大阪府堺市","福泉上小学校","大阪府堺市西区上127-1",TRUE,,,TRUE,,,,,34.52612565,135.4682669
62401,"大阪府堺市","福泉小学校","大阪府堺市西区菱木2-2186-1",,,,TRUE,,,,,34.51452945,135.4711739
62402,"大阪府堺市","福泉東小学校","大阪府堺市西区草部946-1",,,,TRUE,,,,,34.51923693,135.4731867
62403,"大阪府堺市","八田荘小学校","大阪府堺市中区八田寺町231",TRUE,TRUE,,TRUE,,,,,34.52729608,135.4804428
62404,"大阪府堺市","深井小学校","大阪府堺市中区深井中町1409",,,,TRUE,,,,,34.5352369,135.4916876
62405,"大阪府堺市","東百舌鳥小学校","大阪府堺市中区土塔町139",,,,TRUE,,,,,34.5385804,135.5084043
62406,"大阪府堺市","久世小学校","大阪府堺市中区平井999",,TRUE,,TRUE,,,,,34.52071731,135.4955926
62407,"大阪府堺市","東陶器小学校","大阪府堺市中区陶器北674",,TRUE,,TRUE,,,,,34.51784104,135.5249117
62408,"大阪府堺市","西陶器小学校","大阪府堺市中区田園570",,TRUE,,TRUE,,,,,34.51020319,135.5116147
62409,"大阪府堺市","宮園小学校","大阪府堺市中区宮園町4-1",,,,TRUE,,,,,34.52604727,135.4952427
62410,"大阪府堺市","福田小学校","大阪府堺市中区福田727",,,,TRUE,,,,,34.52444903,135.5185499
62411,"大阪府堺市","八田荘西小学校","大阪府堺市中区毛穴町268-2",TRUE,TRUE,,TRUE,,,,,34.52715661,135.4757576
62412,"大阪府堺市","東深井小学校","大阪府堺市中区深井水池町3214",,,,TRUE,,,,,34.53109277,135.5009243
62413,"大阪府堺市","土師小学校","大阪府堺市中区土師町3-35-1",,,,TRUE,,,,,34.5385131,135.4991055
62414,"大阪府堺市","深井西小学校","大阪府堺市中区深井北町926",,,,TRUE,,,,,34.53914816,135.4835912
62415,"大阪府堺市","深阪小学校","大阪府堺市中区深阪5-15-1",,TRUE,,TRUE,,,,,34.50929403,135.5080016
62416,"大阪府堺市","東三国丘小学校","大阪府堺市北区東三国ヶ丘町2-2-1",,,,TRUE,,,,,34.57070132,135.4976348
62417,"大阪府堺市","東浅香山小学校","大阪府堺市北区大豆塚町1-60",TRUE,,,TRUE,,,,,34.58019647,135.5044948
62418,"大阪府堺市","五箇荘小学校","大阪府堺市北区新堀町2-58",TRUE,,,TRUE,,,,,34.57753949,135.5137112
62419,"大阪府堺市","金岡小学校","大阪府堺市北区金岡町1254",,,,TRUE,,,,,34.55874302,135.5151693
62420,"大阪府堺市","北八下小学校","大阪府堺市北区中村町250",,,,TRUE,,,,,34.56544933,135.5365494
62421,"大阪府堺市","百舌鳥小学校","大阪府堺市北区百舌鳥梅町2-498",,,,TRUE,,,,,34.55089578,135.495586
62422,"大阪府堺市","新金岡小学校","大阪府堺市北区新金岡町1-4-1",,,,TRUE,,,,,34.56967897,135.5111695
62423,"大阪府堺市","光竜寺小学校","大阪府堺市北区新金岡町3-7-１",,,,TRUE,,,,,34.57244489,135.5214473
62424,"大阪府堺市","中百舌鳥小学校","大阪府堺市北区中百舌鳥町6-1033-2",,,,TRUE,,,,,34.55064958,135.5070743
62425,"大阪府堺市","五箇荘東小学校","大阪府堺市北区北花田町2-203",TRUE,,,TRUE,,,,,34.58059911,135.5194918
62426,"大阪府堺市","西百舌鳥小学校","大阪府堺市北区百舌鳥西之町1-82",,TRUE,,TRUE,,,,,34.55059618,135.4903089
62427,"大阪府堺市","金岡南小学校","大阪府堺市北区金岡町1182-1",,,,TRUE,,,,,34.55558587,135.5112815
62428,"大阪府堺市","新金岡東小学校","大阪府堺市北区新金岡町4-1-9",,,,TRUE,,,,,34.56846577,135.5158975
62429,"大阪府堺市","新浅香山小学校","大阪府堺市北区東浅香山町3-31-4",TRUE,,,TRUE,,,,,34.58546053,135.5091616
62430,"大阪府堺市","南八下小学校","大阪府堺市東区菩提町5-228",,,,TRUE,,,,,34.54721421,135.5377815
62431,"大阪府堺市","八下西小学校","大阪府堺市東区引野町1-110",,,,TRUE,,,,,34.55075925,135.5226933
62432,"大阪府堺市","日置荘小学校","大阪府堺市東区日置荘西町2-46-1",,,,TRUE,,,,,34.54161374,135.5340071
62433,"大阪府堺市","日置荘西小学校","大阪府堺市東区日置荘西町6-9-1",,,,TRUE,,,,,34.53831837,135.5248108
62434,"大阪府堺市","白鷺小学校","大阪府堺市東区白鷺町2-8-1",,,,TRUE,,,,,34.54533127,135.5152512
62435,"大阪府堺市","登美丘東小学校","大阪府堺市東区丈六224",TRUE,,,TRUE,,,,,34.52705812,135.5400267
62436,"大阪府堺市","登美丘西小学校","大阪府堺市東区大美野135",,,,TRUE,,,,,34.52673715,135.5284511
62437,"大阪府堺市","登美丘南小学校","大阪府堺市東区草尾596",TRUE,TRUE,,TRUE,,,,,34.51819459,135.5363941
62438,"大阪府堺市","野田小学校","大阪府堺市東区北野田897-2",TRUE,,,TRUE,,,,,34.52406191,135.5511693
62439,"大阪府堺市","上神谷小学校","大阪府堺市南区片蔵1425",,TRUE,,TRUE,,,,,34.48002133,135.5120602
62440,"大阪府堺市","福泉中央小学校","大阪府堺市南区桃山台4-17-1",TRUE,TRUE,,TRUE,,,,,34.49693454,135.4833419
62441,"大阪府堺市","美木多小学校","大阪府堺市南区鴨谷台1-48-1",,TRUE,,TRUE,,,,,34.47438496,135.4840716
62442,"大阪府堺市","宮山台小学校","大阪府堺市南区宮山台2-2-1",,TRUE,,TRUE,,,,,34.50424256,135.4992057
62443,"大阪府堺市","竹城台小学校","大阪府堺市南区竹城台3-2-1",,TRUE,,TRUE,,,,,34.4959224,135.5036369
62449,"大阪府堺市","竹城台東小学校","大阪府堺市南区竹城台1-10-1",,,,TRUE,,,,,34.50315958,135.5110506
62450,"大阪府堺市","原山台小学校","大阪府堺市南区原山台4-3-1",,,,TRUE,,,,,34.47983768,135.4943839
62451,"大阪府堺市","庭代台小学校","大阪府堺市南区庭代台3-12-1",,,,TRUE,,,,,34.47424992,135.499985
62452,"大阪府堺市","赤坂台小学校","大阪府堺市南区赤坂台2-2-1",,TRUE,,TRUE,,,,,34.48648636,135.4760047
62453,"大阪府堺市","原山台東小学校","大阪府堺市南区原山台5-4-1",,,,TRUE,,,,,34.48391287,135.4973315
62454,"大阪府堺市","城山台小学校","大阪府堺市南区城山台1-20-1",,,,TRUE,,,,,34.46833433,135.4879812
62455,"大阪府堺市","御池台小学校","大阪府堺市南区御池台2-3-1",,,,TRUE,,,,,34.46543114,135.5031916
62456,"大阪府堺市","新檜尾台小学校","大阪府堺市南区新檜尾台3-7-1",,,,TRUE,,,,,34.47984427,135.4762824
62457,"大阪府堺市","旧高倉台西小学校","大阪府堺市南区高倉台1-2-1",,TRUE,,TRUE,,,,,34.49584821,135.5194714
62458,"大阪府堺市","泉北高倉小学校","大阪府堺市堺区高倉台3-5-1",,TRUE,,TRUE,,,,,34.49365528,135.5256512
62459,"大阪府堺市","はるみ小学校","大阪府堺市南区晴美台3-3-1",,,,TRUE,,,,,34.49030695,135.5309572
62460,"大阪府堺市","黒山小学校","大阪府堺市美原区阿弥93",TRUE,,,TRUE,,,,,34.53552173,135.556112
62461,"大阪府堺市","平尾小学校","大阪府堺市美原区平尾360",TRUE,TRUE,,TRUE,,,,,34.53297334,135.5665391
62462,"大阪府堺市","美原北小学校","大阪府堺市美原区大保19",,,,TRUE,,,,,34.54930529,135.5611745
62463,"大阪府堺市","八上小学校","大阪府堺市美原区大饗117-1",TRUE,,,TRUE,,,,,34.54314681,135.5457195
62464,"大阪府堺市","美原西小学校","大阪府堺市美原区太井548",TRUE,,,TRUE,,,,,34.53860566,135.553068
62465,"大阪府堺市","さつき野小学校","大阪府堺市美原区さつき野東1-6-1",,TRUE,,TRUE,,,,,34.5324226,135.5817033
62466,"大阪府堺市","月州中学校","大阪府堺市堺区神南辺町1-1",TRUE,,,TRUE,TRUE,,,,34.58462725,135.4744489
62467,"大阪府堺市","殿馬場中学校","大阪府堺市堺区櫛屋町東3-2-1",TRUE,,,TRUE,TRUE,,,,34.57900499,135.4792022
62468,"大阪府堺市","三国丘中学校","大阪府堺市堺区向陵西町3-6-15",,,,TRUE,,,,,34.5704542,135.4937074
62469,"大阪府堺市","長尾中学校","大阪府堺市北区長曽根町1179-5",,,,TRUE,,,,,34.57377577,135.5025629
62470,"大阪府堺市","金岡南中学校","大阪府堺市北区金岡町2469",,,,TRUE,,,,,34.55557805,135.5214586
62471,"大阪府堺市","八下中学校","大阪府堺市北区中村町977-20",,,,TRUE,,,,,34.56039302,135.5324984
62472,"大阪府堺市","大浜中学校","大阪府堺市堺区大浜南町2-4-1",TRUE,,,TRUE,TRUE,,,,34.57400478,135.4613831
62473,"大阪府堺市","浜寺中学校","大阪府堺市西区浜寺船尾町西5-60",TRUE,,,TRUE,,,,,34.54338103,135.458033
62474,"大阪府堺市","鳳中学校","大阪府堺市西区鳳西町1-159-1",,,,TRUE,,,,,34.52849118,135.4544474
62475,"大阪府堺市","泉ヶ丘東中学校","大阪府堺市中区陶器北184",,,,TRUE,,,,,34.51740874,135.5155454
62476,"大阪府堺市","福泉中学校","大阪府堺市西区山田2-55",TRUE,,,TRUE,,,,,34.50884057,135.4644778
62477,"大阪府堺市","関西大学堺キャンパス","大阪府堺市堺区香ヶ丘町1-11-1",TRUE,,,TRUE,TRUE,,,,34.59017873,135.4920324
62478,"大阪府堺市","市立堺高校","大阪府堺市堺区向陵東町1-10-1",,,,TRUE,,,,,34.5641434,135.4972262
62479,"大阪府堺市","みはら大地幼稚園","大阪府堺市美原区菅生587",TRUE,,,TRUE,,,,,34.52319045,135.5704353
62480,"大阪府堺市","東百舌鳥中学校","大阪府堺市中区新家町260",,,,TRUE,,,,,34.54033982,135.5103103
62481,"大阪府堺市","八田荘中学校","大阪府堺市中区八田北町580-11",,,,TRUE,,,,,34.52616189,135.4807348
62482,"大阪府堺市","深井中学校","大阪府堺市中区深井沢町2470-1",,,,TRUE,,,,,34.52784182,135.5007686
62483,"大阪府堺市","平井中学校","大阪府堺市中区平井346",,,,TRUE,,,,,34.5172803,135.4977193
62484,"大阪府堺市","深井中央中学校","大阪府堺市中区深井北町220-1",,,,TRUE,,,,,34.54034816,135.4953513
62485,"大阪府堺市","浜寺南中学校","大阪府堺市西区浜寺南町1-55",,,,TRUE,,,,,34.53599782,135.4487725
62486,"大阪府堺市","浅香山中学校","大阪府堺市堺区今池町5-3-8",TRUE,,,TRUE,,,,,34.58423318,135.4943562
62487,"大阪府堺市","陵西中学校","大阪府堺市堺区大仙西町2-79",TRUE,,,TRUE,TRUE,,,,34.56562504,135.4695442
62488,"大阪府堺市","旭中学校","大阪府堺市堺区大仙中町11-1",,,,TRUE,,,,,34.56160511,135.4781897
62489,"大阪府堺市","日置荘中学校","大阪府堺市東区日置荘北町3-11-28",,,,TRUE,,,,,34.5411245,135.5353477
62490,"大阪府堺市","南八下中学校","大阪府堺市東区菩提町2-58",,,,TRUE,,,,,34.55063964,135.5329779
62491,"大阪府堺市","登美丘中学校","大阪府堺市東区高松408",,,,TRUE,,,,,34.52630331,135.5313787
62492,"大阪府堺市","野田中学校","大阪府堺市東区南野田101-1",,,,TRUE,,,,,34.52120511,135.5505076
62493,"大阪府堺市","上野芝中学校","大阪府堺市西区上野芝向ヶ丘町5-25-1",,,,TRUE,,,,,34.54126934,135.4803891
62494,"大阪府堺市","津久野中学校","大阪府堺市西区神野町2-16-1",,,,TRUE,,,,,34.54171778,135.4752616
62495,"大阪府堺市","中百舌鳥中学校","大阪府堺市北区中百舌鳥町6-1034-11",,,,TRUE,,,,,34.5493716,135.5093118
62496,"大阪府堺市","金岡北中学校","大阪府堺市北区新金岡町1-5-1",,,,TRUE,,,,,34.57083244,135.5113586
62497,"大阪府堺市","大泉学園（大泉小学校・中学校）","大阪府堺市北区新金岡町4-9-1",,,,TRUE,,,,,34.56701542,135.522697
62498,"大阪府堺市","五箇荘中学校","大阪府堺市北区新堀町1-85-2",,,,TRUE,,,,,34.57716973,135.5096555
62499,"大阪府堺市","陵南中学校","大阪府堺市北区百舌鳥西之町1-75",,,,TRUE,,,,,34.54995511,135.491474
62500,"大阪府堺市","福泉南中学校","大阪府堺市南区桃山台3-7-1",,,,TRUE,,,,,34.49680063,135.4816538
62501,"大阪府堺市","宮山台中学校","大阪府堺市南区宮山台1-1-1",,,,TRUE,,,,,34.49987367,135.5037887
62502,"大阪府堺市","若松台中学校","大阪府堺市南区若松台3-34-1",,,,TRUE,,,,,34.48682236,135.5129449
62503,"大阪府堺市","三原台中学校","大阪府堺市南区三原台1-12-1",,,,TRUE,,,,,34.49995275,135.5231745
62504,"大阪府堺市","晴美台中学校","大阪府堺市南区晴美台3-8-1",,,,TRUE,,,,,34.48648459,135.5281471
62505,"大阪府堺市","原山台中学校","大阪府堺市南区原山台4-2-1",,,,TRUE,,,,,34.48227886,135.4942876
62506,"大阪府堺市","庭代台中学校","大阪府堺市南区庭代台2-19-1",,,,TRUE,,,,,34.46857031,135.5003829
62507,"大阪府堺市","赤坂台中学校","大阪府堺市南区赤坂台2-1-1",,,,TRUE,,,,,34.48461331,135.4771501
62508,"大阪府堺市","美木多中学校","大阪府堺市南区鴨谷台1-47-1",,,,TRUE,,,,,34.4725779,135.483341
62511,"大阪府堺市","さつき野中学校","大阪府堺市美原区さつき野西2-6-1",,,,TRUE,,,,,34.53218055,135.5802175
62512,"大阪府堺市","教育文化センター","大阪府堺市中区深井清水町1426",,,,TRUE,,,,,34.53387059,135.4914461
62513,"大阪府堺市","栂文化会館","大阪府堺市南区桃山台2-1-2",,,,TRUE,,,,,34.48581039,135.4892928
62514,"大阪府堺市","勤労者総合福祉センター","大阪府堺市堺区田出井町2-1",,,,TRUE,,,,,34.57861191,135.4964538
62515,"大阪府堺市","金岡公園体育館","大阪府堺市北区長曽根町1179-18",,,,TRUE,,,,,34.57072177,135.506351
62516,"大阪府堺市","大浜体育館","大阪府堺市堺区大浜北町5-7-1",,,,TRUE,,,,,34.58153438,135.4590368
62517,"大阪府堺市","初芝体育館","大阪府堺市東区野尻町221-4",,,,TRUE,,,,,34.54039656,135.5231309
62518,"大阪府堺市","鴨谷体育館","大阪府堺市南区鴨谷台2-4-1",,,,TRUE,,,,,34.47408796,135.4786921
62519,"大阪府堺市","家原大池体育館","大阪府堺市西区家原寺町1-18-1",,,,TRUE,,,,,34.53682608,135.4724694
62520,"大阪府堺市","原池公園体育館","大阪府堺市中区八田寺町320",,,,TRUE,,,,,34.51964322,135.4932833
62521,"大阪府堺市","美原体育館","大阪府堺市美原区多治井878-1",,,,TRUE,,,,,34.54276501,135.5669689
62601,"大阪府岸和田市","大芝小学校 (３F廊下)","大阪府岸和田市磯上町２丁目４−１",,,TRUE,,TRUE,,,,34.48566602,135.3882561
62602,"大阪府岸和田市","春木中学校 (３F廊下、屋上)","大阪府岸和田市松風町１０−６５",,,TRUE,,TRUE,,,,34.48397587,135.3852245
62603,"大阪府岸和田市","春木小学校 (３F教室・会議室・廊下)","大阪府岸和田市春木宮川町１１−１３",,,TRUE,,TRUE,,,,34.47959252,135.3875195
62606,"大阪府岸和田市","朝陽小学校 (３F廊下)","大阪府岸和田市上野町西１−２８",,,TRUE,,TRUE,,,,34.46662735,135.3788258
62607,"大阪府岸和田市","野村中学校 (３F廊下)","大阪府岸和田市下野町２丁目１３−１８",,,TRUE,,TRUE,,,,34.47220896,135.3773598
62608,"大阪府岸和田市","浪切ホール (２Fラウンジ・廊下、３F屋根部屋・機械置場、４F廊下)","大阪府岸和田市港緑町１−１",,,TRUE,,TRUE,,,,34.46621691,135.3698773
62609,"大阪府岸和田市","市立公民館 (３F会議室・ロビー、４F多目的室・ロビー)","大阪府岸和田市堺町１−１",,,TRUE,,TRUE,,,,34.46167911,135.3730013
62612,"大阪府岸和田市","大阪府立岸和田高校 (３F・４F廊下)","大阪府岸和田市岸城町１０−１",,,TRUE,,TRUE,,,,34.45824162,135.3715789
62613,"大阪府岸和田市","浜小学校 (３F教室・廊下)","大阪府岸和田市紙屋町１２−２０",,,TRUE,,TRUE,,,,34.46266999,135.3665289
62771,"大阪府池田市","池田小学校","大阪府池田市大和町1-4",TRUE,TRUE,,TRUE,,,,,34.82268193,135.4288312
62772,"大阪府池田市","細河小学校","大阪府池田市中川原町498",TRUE,TRUE,,TRUE,,,,,34.84409322,135.4298428
62773,"大阪府池田市","秦野小学校","大阪府池田市畑1-1-1",TRUE,TRUE,,TRUE,,,,,34.82368928,135.4434566
62774,"大阪府池田市","北豊島小学校","大阪府池田市豊島北2-12-1",TRUE,TRUE,,TRUE,,,,,34.80506785,135.4359043
62775,"大阪府池田市","呉服小学校","大阪府池田市姫室町10-1",TRUE,TRUE,,TRUE,,,,,34.81790276,135.4220032
62776,"大阪府池田市","石橋小学校","大阪府池田市井口堂3-3-30",TRUE,TRUE,,,,,,,34.81408382,135.4471998
62777,"大阪府池田市","五月丘小学校","大阪府池田市五月丘2-3-1",TRUE,TRUE,,TRUE,,,,,34.82868241,135.4339561
62778,"大阪府池田市","石橋南小学校","大阪府池田市石橋4-6-1",TRUE,TRUE,,TRUE,,,,,34.80326511,135.4457868
62779,"大阪府池田市","緑丘小学校","大阪府池田市緑丘2-5-12",TRUE,TRUE,,TRUE,,,,,34.82183648,135.4430008
62780,"大阪府池田市","神田小学校","大阪府池田市神田2-4-1",TRUE,TRUE,,TRUE,,,,,34.81067171,135.4249629
62781,"大阪府池田市","伏尾台小学校","大阪府池田市伏尾台2-11",TRUE,TRUE,,TRUE,,,,,34.86436955,135.4380193
62843,"大阪府吹田市","吹田第一小学校","大阪府吹田市元町30-35",TRUE,,,TRUE,,,,,34.75993187,135.5233522
62844,"大阪府吹田市","吹田第二小学校","大阪府吹田市泉町3丁目15-18",TRUE,,,TRUE,,,,,34.75869064,135.5108415
62845,"大阪府吹田市","吹田第三小学校","大阪府吹田市高城町18-39",TRUE,,,TRUE,,,,,34.76238256,135.5304387
62846,"大阪府吹田市","吹田東小学校","大阪府吹田市幸町20-1",TRUE,,,TRUE,,,,,34.76771619,135.5357526
62847,"大阪府吹田市","吹田南小学校","大阪府吹田市南吹田5丁目12-1",TRUE,,,TRUE,,,,,34.75216265,135.5039006
62848,"大阪府吹田市","吹田第六小学校","大阪府吹田市南清和園町43-1",TRUE,,,TRUE,,,,,34.75366522,135.514779
62849,"大阪府吹田市","千里第一小学校","大阪府吹田市片山町4丁目32-10",,,,TRUE,,,,,34.76939023,135.5265843
62850,"大阪府吹田市","千里第二小学校","大阪府吹田市千里山松が丘25-1",,TRUE,,TRUE,,,,,34.77904349,135.5092861
62851,"大阪府吹田市","千里第三小学校","大阪府吹田市千里山西2丁目13-1",,TRUE,,TRUE,,,,,34.77264326,135.5000312
62852,"大阪府吹田市","千里新田小学校","大阪府吹田市春日4丁目10-1",,TRUE,,TRUE,,,,,34.78464356,135.5000113
62853,"大阪府吹田市","佐井寺小学校","大阪府吹田市佐井寺3丁目3-1",,TRUE,,TRUE,,,,,34.78617945,135.5169037
62854,"大阪府吹田市","東佐井寺小学校","大阪府吹田市五月が丘西4-1",TRUE,,,TRUE,,,,,34.78680419,135.5226848
62855,"大阪府吹田市","岸部第一小学校","大阪府吹田市岸部中2丁目19-1",,,,TRUE,,,,,34.77707478,135.536035
62856,"大阪府吹田市","岸部第二小学校","大阪府吹田市岸部北4丁目12-1",TRUE,TRUE,,TRUE,,,,,34.78237621,135.5291545
62857,"大阪府吹田市","豊津第一小学校","大阪府吹田市江坂町1丁目15-42",TRUE,TRUE,,TRUE,,,,,34.76142428,135.4998561
62858,"大阪府吹田市","豊津第二小学校","大阪府吹田市江坂町2丁目5-1",TRUE,,,TRUE,,,,,34.76234714,135.4949721
62859,"大阪府吹田市","江坂大池小学校","大阪府吹田市江坂町3丁目13-1",TRUE,,,TRUE,,,,,34.76637142,135.4958653
62860,"大阪府吹田市","山手小学校","大阪府吹田市山手町2丁目15-43",TRUE,TRUE,,TRUE,,,,,34.76699994,135.5111839
62861,"大阪府吹田市","片山小学校","大阪府吹田市朝日が丘町16-1",,TRUE,,TRUE,,,,,34.76991862,135.5188028
62862,"大阪府吹田市","山田第一小学校","大阪府吹田市山田東2丁目33-2",TRUE,TRUE,,TRUE,,,,,34.79982167,135.5286844
62863,"大阪府吹田市","山田第二小学校","大阪府吹田市千里丘下19-1",TRUE,TRUE,,TRUE,,,,,34.79352056,135.5502457
62864,"大阪府吹田市","山田第三小学校","大阪府吹田市山田西1丁目4-1",,TRUE,,TRUE,,,,,34.79293193,135.5317853
62865,"大阪府吹田市","山田第五小学校","大阪府吹田市山田西1丁目6-1",TRUE,TRUE,,TRUE,,,,,34.79169322,135.5341854
62866,"大阪府吹田市","東山田小学校","大阪府吹田市青葉丘南15-10",,,,TRUE,,,,,34.80533258,135.5489269
62867,"大阪府吹田市","南山田小学校","大阪府吹田市千里丘西9-1",,TRUE,,TRUE,,,,,34.79436606,135.5434352
62868,"大阪府吹田市","西山田小学校","大阪府吹田市山田西2丁目10-1",,TRUE,,TRUE,,,,,34.79555737,135.5244662
62869,"大阪府吹田市","北山田小学校","大阪府吹田市山田北1-1",,,,TRUE,,,,,34.80820733,135.5208241
62870,"大阪府吹田市","佐竹台小学校","大阪府吹田市佐竹台4丁目12-1",,TRUE,,TRUE,,,,,34.78792173,135.5152241
62871,"大阪府吹田市","高野台小学校","大阪府吹田市高野台2丁目16-1",,,,TRUE,,,,,34.79586557,135.5156673
62872,"大阪府吹田市","津雲台小学校","大阪府吹田市津雲台4丁目7-1",,TRUE,,TRUE,,,,,34.80239367,135.5096838
62873,"大阪府吹田市","古江台小学校","大阪府吹田市古江台5丁目6-1",,TRUE,,TRUE,,,,,34.81550252,135.5099801
62874,"大阪府吹田市","藤白台小学校","大阪府吹田市藤白台3丁目3-1",,TRUE,,TRUE,,,,,34.81966963,135.5154998
62875,"大阪府吹田市","青山台小学校","大阪府吹田市青山台2丁目5-1",,,,TRUE,,,,,34.82198897,135.5040737
62876,"大阪府吹田市","桃山台小学校","大阪府吹田市桃山台1丁目5-1",,,,TRUE,,,,,34.79185669,135.5033883
62877,"大阪府吹田市","千里たけみ小学校","大阪府吹田市竹見台3丁目3-1",,,,TRUE,,,,,34.79560571,135.5017179
62878,"大阪府吹田市","千里丘北小学校","大阪府吹田市千里丘北1-30",,,,TRUE,,,,,34.799928,135.544885
62879,"大阪府吹田市","第一中学校","大阪府吹田市千里山西2丁目2-1",TRUE,,,TRUE,,,,,34.77261246,135.5022077
62880,"大阪府吹田市","第二中学校","大阪府吹田市岸部北1丁目21-1",,,,TRUE,,,,,34.78065526,135.5271036
62881,"大阪府吹田市","第三中学校","大阪府吹田市中の島町3-51",TRUE,,,TRUE,,,,,34.75206507,135.5227616
62882,"大阪府吹田市","第五中学校","大阪府吹田市幸町21-1",TRUE,,,TRUE,,,,,34.76830224,135.5362497
62883,"大阪府吹田市","第六中学校","大阪府吹田市穂波町16-1",TRUE,,,TRUE,,,,,34.75559681,135.509962
62884,"大阪府吹田市","片山中学校","大阪府吹田市竹谷町35-1",,,,TRUE,,,,,34.77829682,135.5210292
62885,"大阪府吹田市","佐井寺中学校","大阪府吹田市五月が丘南5-1",,,,TRUE,,,,,34.78427593,135.5262592
62886,"大阪府吹田市","南千里中学校","大阪府吹田市桃山台4丁目2-1",TRUE,,,TRUE,,,,,34.7876074,135.5003431
62887,"大阪府吹田市","豊津中学校","大阪府吹田市垂水町3丁目32-50",TRUE,,,TRUE,,,,,34.75831555,135.5041369
62888,"大阪府吹田市","豊津西中学校","大阪府吹田市豊津町6-1",TRUE,,,TRUE,,,,,34.76043236,135.4945138
62889,"大阪府吹田市","山田中学校","大阪府吹田市山田市場15-1",TRUE,,,TRUE,,,,,34.79262151,135.53882
62890,"大阪府吹田市","西山田中学校","大阪府吹田市山田西2丁目11-1",,,,TRUE,,,,,34.7965328,135.5230247
62891,"大阪府吹田市","山田東中学校","大阪府吹田市山田東4丁目33-1",,,,TRUE,,,,,34.8031013,135.5277717
62892,"大阪府吹田市","千里丘中学校","大阪府吹田市青葉丘南15-1",,,,TRUE,,,,,34.80367604,135.5480857
62893,"大阪府吹田市","高野台中学校","大阪府吹田市高野台4丁目5-1",,,,TRUE,,,,,34.79197466,135.5193245
62894,"大阪府吹田市","青山台中学校","大阪府吹田市青山台4丁目2-1",,,,TRUE,,,,,34.8224467,135.5084306
62895,"大阪府吹田市","竹見台中学校","大阪府吹田市竹見台1丁目3-1",,,,TRUE,,,,,34.79565656,135.5040868
62896,"大阪府吹田市","古江台中学校","大阪府吹田市古江台1丁目1-1",,,,TRUE,,,,,34.80806886,135.5064303
62897,"大阪府吹田市","江坂大池幼稚園","大阪府吹田市江坂町3丁目13-1",TRUE,,,,,,,,34.76621505,135.4961708
62898,"大阪府吹田市","文化会館（メイシアター）","大阪府吹田市泉町2丁目29-1",TRUE,,,,,,,,34.75973783,135.5153083
62901,"大阪府吹田市","総合運動場","大阪府吹田市竹谷町37-1",,,,TRUE,,,,,34.77976334,135.5226071
62917,"大阪府吹田市","吹田高校","大阪府吹田市原町4丁目24-14",,,,TRUE,,,,,34.77758871,135.5280783
62918,"大阪府吹田市","千里高校","大阪府吹田市高野台2丁目17-1",,,,TRUE,,,,,34.80001288,135.5149239
62919,"大阪府吹田市","北千里高校","大阪府吹田市藤白台5丁目6-1",,,,TRUE,,,,,34.82865064,135.5068828
62920,"大阪府吹田市","山田高校","大阪府吹田市山田東3丁目28-1",,,,TRUE,,,,,34.80128818,135.5288421
62921,"大阪府吹田市","吹田東高校","大阪府吹田市青葉丘南16-1",,,,TRUE,,,,,34.80521695,135.5471821
62940,"大阪府吹田市","目俵市民体育館","大阪府吹田市目俵町1-11",TRUE,,,,,,,,34.76634877,135.5317644
62941,"大阪府吹田市","吹二地区公民館","大阪府吹田市泉町3丁目15-29",TRUE,,,,,,,,34.75851065,135.5102408
62942,"大阪府吹田市","千二地区公民館","大阪府吹田市千里山東2丁目19-23",TRUE,,,,,,,,34.77689621,135.5070483
62943,"大阪府吹田市","山三地区公民館","大阪府吹田市山田西1丁目26-2",TRUE,,,,,,,,34.79103851,135.5291656
62944,"大阪府吹田市","千三地区公民館","大阪府吹田市千里山西1丁目12-1",TRUE,TRUE,,,,,,,34.7721345,135.5043822
62945,"大阪府吹田市","山五地区公民館","大阪府吹田市山田南45-13",TRUE,,,,,,,,34.78800231,135.535985
62946,"大阪府吹田市","北山田地区公民館","大阪府吹田市山田東4丁目43番20号",,TRUE,,,,,,,34.80499272,135.52408
62947,"大阪府吹田市","岸部市民センター","大阪府吹田市岸部南１丁目4-8",TRUE,,,,,,,,34.77580909,135.5448675
62948,"大阪府吹田市","吹田市立勤労者会館","大阪府吹田市昭和町12-1",TRUE,,,,,,,,34.76242804,135.527241
62949,"大阪府吹田市","内本町コミュニティーセンター","大阪府吹田市内本町2丁目2-12",TRUE,,,,,,,,34.7583388,135.5258345
62950,"大阪府吹田市","豊一市民センター","大阪府吹田市垂水町１丁目53-7",TRUE,,,,,,,,34.7650108,135.4994872
62951,"大阪府吹田市","亥の子谷コミュニティセンタ-","大阪府吹田市山田西1丁目26-20",TRUE,,,,,,,,34.7898642,135.5289998
62952,"大阪府吹田市","山田ふれあい文化センター","大阪府吹田市山田東1丁目28-9",TRUE,,,,,,,,34.79735449,135.5329471
62953,"大阪府泉大津市","戎小学校","大阪府泉大津市河原町3-7",TRUE,,TRUE,TRUE,TRUE,TRUE,TRUE,,34.50181991,135.3946659
62954,"大阪府泉大津市","旭小学校","大阪府泉大津市昭和町2-27",TRUE,,TRUE,TRUE,TRUE,TRUE,TRUE,,34.50056009,135.4049413
62955,"大阪府泉大津市","穴師小学校","大阪府泉大津市我孫子1-12-10",TRUE,,TRUE,TRUE,TRUE,TRUE,TRUE,,34.49496006,135.4170156
62956,"大阪府泉大津市","上條小学校","大阪府泉大津市東助松町3-13-1",TRUE,,TRUE,TRUE,TRUE,TRUE,TRUE,,34.51112414,135.4224302
62957,"大阪府泉大津市","浜小学校","大阪府泉大津市小松町5-6",TRUE,,TRUE,TRUE,TRUE,TRUE,TRUE,,34.50907562,135.4083936
62958,"大阪府泉大津市","条東小学校","大阪府泉大津市千原町2-12-1",TRUE,,TRUE,TRUE,TRUE,TRUE,TRUE,,34.50615669,135.4285811
62959,"大阪府泉大津市","条南小学校","大阪府泉大津市宮町9-1",TRUE,,TRUE,TRUE,TRUE,TRUE,TRUE,,34.50066424,135.4196836
62960,"大阪府泉大津市","楠小学校","大阪府泉大津市我孫子2-4-7",TRUE,,TRUE,TRUE,TRUE,TRUE,TRUE,,34.49301902,135.4122999
62961,"大阪府泉大津市","東陽中学校","大阪府泉大津市池浦町4-4-1",TRUE,,TRUE,TRUE,TRUE,TRUE,TRUE,,34.49985279,135.4142987
62962,"大阪府泉大津市","誠風中学校","大阪府泉大津市池浦町4-1-1",TRUE,,TRUE,TRUE,TRUE,TRUE,TRUE,,34.49901269,135.4134861
62963,"大阪府泉大津市","小津中学校","大阪府泉大津市助松町2-13-1",TRUE,,TRUE,TRUE,TRUE,TRUE,TRUE,,34.51636808,135.418468
62995,"大阪府高槻市","樫田小学校","大阪府高槻市 大字田能小字岡崎6",,TRUE,,TRUE,,,,,34.95552912,135.5885946
62996,"大阪府高槻市","阿武山小学校","大阪府高槻市 阿武野2-1-2",TRUE,TRUE,,TRUE,,,,,34.86032938,135.576804
62997,"大阪府高槻市","土室小学校","大阪府高槻市 上土室6-10-1",TRUE,,,TRUE,,,,,34.84839695,135.5772714
62998,"大阪府高槻市","南平台小学校","大阪府高槻市 南平台5-20-1",TRUE,TRUE,,TRUE,,,,,34.86229326,135.5904658
62999,"大阪府高槻市","郡家小学校","大阪府高槻市 郡家新町68-1",TRUE,,,TRUE,,,,,34.85131006,135.5967825
63000,"大阪府高槻市","阿武野小学校","大阪府高槻市 氷室町4-4-5",TRUE,,,TRUE,,,,,34.85199616,135.588125
63001,"大阪府高槻市","川西小学校","大阪府高槻市 川西町1-34-7",TRUE,,,TRUE,,,,,34.85125262,135.6043534
63002,"大阪府高槻市","清水小学校","大阪府高槻市 宮之川原4-20-1",TRUE,TRUE,,TRUE,,,,,34.86592198,135.6005862
63003,"大阪府高槻市","安岡寺小学校","大阪府高槻市 安岡寺町1-60-1",TRUE,TRUE,,TRUE,,,,,34.87223573,135.6039476
63004,"大阪府高槻市","北清水小学校","大阪府高槻市 安岡寺町6-2-1",TRUE,,,TRUE,,,,,34.88171607,135.6044855
63005,"大阪府高槻市","芥川小学校","大阪府高槻市 真上町1-2-3",TRUE,TRUE,,TRUE,,,,,34.85494262,135.6136064
63006,"大阪府高槻市","真上小学校","大阪府高槻市 西真上2-17-1",TRUE,,,TRUE,,,,,34.85785089,135.6008221
63007,"大阪府高槻市","日吉台小学校","大阪府高槻市 日吉台一番町24-18",TRUE,TRUE,,TRUE,,,,,34.8699051,135.6130005
63008,"大阪府高槻市","北日吉台小学校","大阪府高槻市 日吉台三番町4-20",TRUE,,,TRUE,,,,,34.87894855,135.6089772
63009,"大阪府高槻市","磐手小学校","大阪府高槻市 安満西の町27-1",TRUE,TRUE,,TRUE,,,,,34.86109413,135.6288424
63010,"大阪府高槻市","奥坂小学校","大阪府高槻市 別所本町35-5",TRUE,TRUE,,TRUE,,,,,34.86390847,135.6250001
63011,"大阪府高槻市","五領小学校","大阪府高槻市 五領町12-1",TRUE,TRUE,,TRUE,,,,,34.86176134,135.6526819
63012,"大阪府高槻市","上牧小学校","大阪府高槻市 上牧町4-22-1",,,,TRUE,,,,,34.86042773,135.6610499
63013,"大阪府高槻市","北大冠小学校","大阪府高槻市 宮野町10-5",TRUE,,,TRUE,,,,,34.85133819,135.6366327
63014,"大阪府高槻市","大冠小学校","大阪府高槻市 天川町42-2",,,,TRUE,,,,,34.84169603,135.6341072
63015,"大阪府高槻市","松原小学校","大阪府高槻市 沢良木町18-1",TRUE,,,TRUE,,,,,34.84573286,135.6315606
63016,"大阪府高槻市","冠小学校","大阪府高槻市 大冠町2-40-2",TRUE,,,TRUE,,,,,34.83405635,135.6367174
63017,"大阪府高槻市","南大冠小学校","大阪府高槻市 大塚町1-4-8",TRUE,,,TRUE,,,,,34.82593291,135.634221
63018,"大阪府高槻市","竹の内小学校","大阪府高槻市 竹の内町60-1",TRUE,,,TRUE,,,,,34.82466664,135.627714
63019,"大阪府高槻市","桃園小学校","大阪府高槻市 桃園町3-27",TRUE,,,TRUE,,,,,34.84503591,135.6161077
63020,"大阪府高槻市","高槻小学校","大阪府高槻市 本町3-69",,,,TRUE,,,,,34.84495335,135.6261916
63021,"大阪府高槻市","桜台小学校","大阪府高槻市 登町9-1",,,,TRUE,,,,,34.83009231,135.6250865
63022,"大阪府高槻市","西大冠小学校","大阪府高槻市 城南町3-1-1",,,,TRUE,,,,,34.83809376,135.6235331
63023,"大阪府高槻市","若松小学校","大阪府高槻市 若松町22-2",TRUE,,,TRUE,,,,,34.83460861,135.6282436
63024,"大阪府高槻市","芝生小学校","大阪府高槻市 芝生町3-30-1",TRUE,,,TRUE,,,,,34.82575243,135.6087371
63025,"大阪府高槻市","如是小学校","大阪府高槻市 如是町2-3",TRUE,,,TRUE,,,,,34.83651154,135.6054144
63026,"大阪府高槻市","津之江小学校","大阪府高槻市 津之江北町7-1",TRUE,,,TRUE,,,,,34.84324526,135.6051671
63027,"大阪府高槻市","丸橋小学校","大阪府高槻市 芝生町3-16-2",TRUE,,,TRUE,,,,,34.82719863,135.6102654
63028,"大阪府高槻市","五百住小学校","大阪府高槻市 登美の里町24-1",TRUE,,,TRUE,,,,,34.83429366,135.6007731
63029,"大阪府高槻市","富田小学校","大阪府高槻市 昭和台町1-1-1",TRUE,,,TRUE,,,,,34.83025498,135.5907564
63030,"大阪府高槻市","赤大路小学校","大阪府高槻市 赤大路町15-1",TRUE,,,TRUE,,,,,34.8349195,135.5850836
63031,"大阪府高槻市","寿栄小学校","大阪府高槻市 栄町3-11-2",TRUE,,,TRUE,,,,,34.82581257,135.6016842
63032,"大阪府高槻市","柳川小学校","大阪府高槻市 西町2-1",TRUE,,,TRUE,,,,,34.82508778,135.5957773
63033,"大阪府高槻市","玉川小学校","大阪府高槻市 牧田町8-1",TRUE,,,TRUE,,,,,34.819788,135.6041199
63034,"大阪府高槻市","三箇牧小学校","大阪府高槻市 三島江1-13-6",TRUE,,,TRUE,,,,,34.80487083,135.6131706
63035,"大阪府高槻市","柱本小学校","大阪府高槻市 柱本新町10-8",TRUE,,,TRUE,,,,,34.79244248,135.6022003
63036,"大阪府高槻市","阿武野中学校","大阪府高槻市 氷室町5-7-1",TRUE,,,TRUE,,,,,34.85858971,135.5849263
63037,"大阪府高槻市","阿武山中学校","大阪府高槻市 奈佐原1-2-1",TRUE,,,TRUE,,,,,34.85817152,135.581962
63038,"大阪府高槻市","第二中学校","大阪府高槻市 郡家本町52-1",TRUE,,,TRUE,,,,,34.85713408,135.5966412
63039,"大阪府高槻市","川西中学校","大阪府高槻市 川西町2-33-1",TRUE,,,TRUE,,,,,34.84588817,135.6052545
63040,"大阪府高槻市","第九中学校","大阪府高槻市 松が丘1-17-1",TRUE,TRUE,,TRUE,,,,,34.87325172,135.5994963
63041,"大阪府高槻市","芝谷中学校","大阪府高槻市 芝谷町3-1",TRUE,,,TRUE,,,,,34.8697528,135.6096437
63042,"大阪府高槻市","第八中学校","大阪府高槻市 紅茸町5-1",TRUE,,,TRUE,,,,,34.8646137,135.6275032
63043,"大阪府高槻市","五領中学校","大阪府高槻市 道鵜町3-20-1",TRUE,,,TRUE,,,,,34.85778897,135.6557121
63044,"大阪府高槻市","第六中学校","大阪府高槻市 永楽町10-3",TRUE,,,TRUE,,,,,34.84684461,135.6379218
63045,"大阪府高槻市","冠中学校","大阪府高槻市 大冠町2-24-1",TRUE,,,TRUE,,,,,34.83212077,135.6378284
63046,"大阪府高槻市","第十中学校","大阪府高槻市 竹の内町61-1",TRUE,,,TRUE,,,,,34.82174019,135.6277932
63047,"大阪府高槻市","第一中学校","大阪府高槻市 城内町1-35",TRUE,,,TRUE,,,,,34.84406269,135.6229994
63048,"大阪府高槻市","城南中学校","大阪府高槻市 城南町2-30-1",,,,TRUE,,,,,34.83867555,135.6260404
63049,"大阪府高槻市","第三中学校","大阪府高槻市 芝生町2-49-5",TRUE,,,TRUE,,,,,34.8320955,135.6078269
63050,"大阪府高槻市","如是中学校","大阪府高槻市 如是町7-1",TRUE,,,TRUE,,,,,34.8349744,135.6040705
63051,"大阪府高槻市","第四中学校","大阪府高槻市 大畑町4-4",TRUE,,,TRUE,,,,,34.83903323,135.59198
63052,"大阪府高槻市","柳川中学校","大阪府高槻市 川添1-1-5",TRUE,,,TRUE,,,,,34.82302733,135.5993948
63053,"大阪府高槻市","第七中学校","大阪府高槻市 西面北1-45-1",,,,TRUE,,,,,34.8069861,135.6036552
63054,"大阪府高槻市","今城塚公民館","大阪府高槻市 郡家新町48-3",TRUE,,,TRUE,,,,,34.85224545,135.5948507
63055,"大阪府高槻市","北清水公民館","大阪府高槻市 清水台1-7-1",TRUE,TRUE,,TRUE,,,,,34.87847928,135.5982129
63056,"大阪府高槻市","芥川公民館","大阪府高槻市 芥川町4-20-12",TRUE,,,TRUE,,,,,34.85201085,135.6083828
63057,"大阪府高槻市","真上公民館","大阪府高槻市 真上町2-16-6",TRUE,,,TRUE,,,,,34.85780036,135.6087336
63058,"大阪府高槻市","日吉台公民館","大阪府高槻市 寺谷町50-1",TRUE,TRUE,,TRUE,,,,,34.87800809,135.6085535
63059,"大阪府高槻市","磐手公民館","大阪府高槻市 安満北の町18-1",TRUE,,,TRUE,,,,,34.86302206,135.6290421
63060,"大阪府高槻市","五領公民館","大阪府高槻市 五領町11-6",TRUE,,,TRUE,,,,,34.86200608,135.6535257
63061,"大阪府高槻市","城内公民館","大阪府高槻市 城内町1-1",TRUE,,,TRUE,,,,,34.84466381,135.6224442
63062,"大阪府高槻市","如是公民館","大阪府高槻市 如是町2-5",TRUE,,,TRUE,,,,,34.83615836,135.6049205
63063,"大阪府高槻市","南大冠公民館","大阪府高槻市 大塚町1-20-1",TRUE,,,TRUE,,,,,34.82235906,135.6328724
63064,"大阪府高槻市","富田公民館","大阪府高槻市 富田町5-17-1",TRUE,,,TRUE,,,,,34.83065857,135.5950958
63065,"大阪府高槻市","三箇牧公民館","大阪府高槻市 三島江1-11-8",TRUE,,,TRUE,,,,,34.80358779,135.6115203
63066,"大阪府高槻市","阿武山公民館","大阪府高槻市 奈佐原2-11-12",TRUE,,,TRUE,,,,,34.86024149,135.5801859
63067,"大阪府高槻市","春日ふれあい文化センター","大阪府高槻市 春日町22-1",TRUE,,,TRUE,,,,,34.83679772,135.6276557
63068,"大阪府高槻市","阿武野コミュニティセンター","大阪府高槻市 南平台5-21-2",TRUE,,,TRUE,,,,,34.86207515,135.5885386
63069,"大阪府高槻市","川西コミュニティセンター","大阪府高槻市 清福寺町6-5",TRUE,,,TRUE,,,,,34.85173849,135.6043528
63070,"大阪府高槻市","清水コミュニティセンター","大阪府高槻市 宮之川原5-4-3",TRUE,,,TRUE,,,,,34.86573604,135.598383
63071,"大阪府高槻市","奥坂コミュニティセンター","大阪府高槻市 別所本町35-3",TRUE,,,TRUE,,,,,34.86322305,135.6250278
63072,"大阪府高槻市","大冠北第一コミュニティセンター","大阪府高槻市 永楽町1-15",TRUE,,,TRUE,,,,,34.84561151,135.632587
63073,"大阪府高槻市","大冠北第二コミュニティセンター","大阪府高槻市 宮野町10-16",TRUE,,,TRUE,,,,,34.85062328,135.6372429
63074,"大阪府高槻市","冠コミュニティセンター","大阪府高槻市 大冠町2-40-10",,,,TRUE,,,,,34.83329484,135.637001
63075,"大阪府高槻市","竹の内コミュニティセンター","大阪府高槻市 竹の内町60-6",TRUE,,,TRUE,,,,,34.82510744,135.6277782
63076,"大阪府高槻市","庄所コミュニティセンター","大阪府高槻市 南庄所町3-3",TRUE,,,TRUE,,,,,34.83693303,135.6144956
63077,"大阪府高槻市","西大冠コミュニティセンター","大阪府高槻市 城南町3-1-3",,,,TRUE,,,,,34.8370098,135.6238798
63078,"大阪府高槻市","堤コミュニティセンター","大阪府高槻市 堤町3-2",TRUE,,,TRUE,,,,,34.82724647,135.618389
63079,"大阪府高槻市","女瀬川南コミュニティセンター","大阪府高槻市 芝生町3-16-1",TRUE,,,TRUE,,,,,34.82786983,135.6099804
63080,"大阪府高槻市","赤大路コミュニティセンター","大阪府高槻市 赤大路町15-6",TRUE,,,TRUE,,,,,34.83558069,135.5861158
63081,"大阪府高槻市","玉川牧田コミュニティセンター","大阪府高槻市 牧田町26-3",TRUE,,,TRUE,,,,,34.81992506,135.5990137
63082,"大阪府高槻市","寿栄コミュニティセンター","大阪府高槻市 栄町3-11-3",TRUE,,,TRUE,,,,,34.82651044,135.6004555
63083,"大阪府高槻市","柳川コミュニティセンター","大阪府高槻市 西町2-5",TRUE,,,TRUE,,,,,34.8237971,135.5955438
63084,"大阪府高槻市","桃園コミュニティセンター","大阪府高槻市 城西町10-12",TRUE,,,TRUE,,,,,34.84143975,135.6142218
63085,"大阪府高槻市","清水池コミュニティセンター","大阪府高槻市 川西町3-7-7",TRUE,,,TRUE,,,,,34.84544998,135.6092104
63086,"大阪府高槻市","西阿武野コミュニティセンター","大阪府高槻市 阿武野1-10-2",TRUE,,,TRUE,,,,,34.85557333,135.5753685
63127,"大阪府貝塚市","二色小学校校舎","大阪府貝塚市二色1丁目3-1",,,,,TRUE,,,,34.44859386,135.3441995
63128,"大阪府貝塚市","第五中学校校舎","大阪府貝塚市二色2丁目3-1",,,,,TRUE,,,,34.44581552,135.3430899
63129,"大阪府貝塚市","津田小学校校舎","大阪府貝塚市津田南町1-1",,,,,TRUE,,,,34.45218515,135.3621313
63130,"大阪府貝塚市","北小学校校舎","大阪府貝塚市北441",,,,,TRUE,,,,34.44938008,135.3569844
63131,"大阪府貝塚市","西小学校校舎","大阪府貝塚市脇浜4丁目6-1",,,,,TRUE,,,,34.44020335,135.3476152
63154,"大阪府守口市","庭窪中学校","大阪府守口市佐太中町4-1-7",TRUE,,,,,,TRUE,,34.75663684,135.5856294
63155,"大阪府守口市","庭窪小学校","大阪府守口市佐太中町1-6-10",TRUE,,,,,,TRUE,,34.75609481,135.5807127
63156,"大阪府守口市","佐太小学校","大阪府守口市佐太中町6-11-51",TRUE,,,,,,TRUE,,34.76157116,135.5875615
63157,"大阪府守口市","藤田小学校","大阪府守口市藤田町1-58-18",TRUE,,,,,,TRUE,,34.74918148,135.5954331
63158,"大阪府守口市","金田小学校","大阪府守口市金田町3-11-11",TRUE,,,,,,TRUE,,34.75659098,135.5951375
63159,"大阪府守口市","梶小学校","大阪府守口市梶町4-79-12",TRUE,,,,,,TRUE,,34.75117908,135.5887677
63160,"大阪府守口市","よつば小学校（旧東小学校）","大阪府守口市大久保町5-3-48",TRUE,,,,,,TRUE,,34.75183721,135.6011238
63161,"大阪府守口市","大久保中学校","大阪府守口市大久保町4-23-46",TRUE,,,,,,TRUE,,34.75452066,135.5993296
63162,"大阪府守口市","梶中学校","大阪府守口市梶町4-28-5",TRUE,,,,,,TRUE,,34.75065327,135.5902516
63163,"大阪府守口市","第一中学校","大阪府守口市竹町12-29",TRUE,,,,,,TRUE,,34.7378693,135.5609626
63164,"大阪府守口市","守口小学校","大阪府守口市八島町13-40",TRUE,,,,,,TRUE,,34.74108569,135.5653191
63165,"大阪府守口市","八雲小学校","大阪府守口市八雲西町4-31-31",TRUE,,,,,,TRUE,,34.75006664,135.5674034
63166,"大阪府守口市","下島小学校","大阪府守口市下島町15-27",TRUE,,,,,,TRUE,,34.74671163,135.5612251
63167,"大阪府守口市","八雲東小学校","大阪府守口市八雲東町2-77-7",TRUE,,,,,,TRUE,,34.74737445,135.5774771
63168,"大阪府守口市","旧さつき小学校","大阪府守口市文園町9-32",TRUE,,,,,,TRUE,,34.72898207,135.5570186
63169,"大阪府守口市","西部コミュニティセンター","大阪府守口市文園町8-8",TRUE,,,,,,TRUE,,34.72977561,135.5569315
63170,"大阪府守口市","八雲中学校","大阪府守口市八雲西町3-5-21",TRUE,,,,,,TRUE,,34.74775687,135.5647479
63171,"大阪府守口市","守口東高校","大阪府守口市八雲中町2-1-31",TRUE,,,,,,TRUE,,34.74479037,135.5685785
63172,"大阪府守口市","芦間高校","大阪府守口市外島町1-43",TRUE,,,,,,TRUE,,34.74152607,135.5640205
63173,"大阪府守口市","淀川工科高校","大阪府大阪市旭区太子橋3-1-32",TRUE,,,,,,TRUE,,34.73653499,135.5607687
63174,"大阪府守口市","樟風中学校","大阪府守口市西郷通3-14-60",TRUE,,,,,,TRUE,,34.72828689,135.5734006
63175,"大阪府守口市","寺方小学校","大阪府守口市寺方元町1-1-1",TRUE,,,,,,TRUE,,34.72787509,135.5703441
63176,"大阪府守口市","橋波小学校","大阪府守口市大宮通1-14-9",TRUE,,,,,,TRUE,,34.73205483,135.5759479
63177,"大阪府守口市","三郷小学校","大阪府守口市東光町2-1-4",TRUE,,,,,,TRUE,,34.73140034,135.5680622
63178,"大阪府守口市","南小学校","大阪府守口市南寺方南通3-2-8",TRUE,,,,,,TRUE,,34.7197909,135.5682677
63179,"大阪府守口市","大阪電気通信大学高校","大阪府守口市橋波西之町1-5-18",TRUE,,,,,,TRUE,,34.73751527,135.5711584
63180,"大阪府守口市","大阪国際滝井高校","大阪府守口市馬場町2-8-24",TRUE,,,,,,TRUE,,34.72667281,135.5611911
63181,"大阪府守口市","さつき学園","大阪府守口市春日町13-26",TRUE,,,,,,TRUE,,34.73133084,135.5624978
63182,"大阪府守口市","旧第四中学校","大阪府守口市大宮通3-9-39",TRUE,,,,,,TRUE,,34.72891636,135.5761166
63183,"大阪府守口市","錦小学校","大阪府守口市寺方錦通2-8-45",TRUE,,,,,,TRUE,,34.72271898,135.5764922
63184,"大阪府守口市","錦中学校","大阪府守口市南寺方東通4-1-31",TRUE,,,,,,TRUE,,34.72121105,135.5767604
63185,"大阪府枚方市","樟葉北小学校","大阪府枚方市楠葉野田３-13-１",TRUE,,,TRUE,,TRUE,TRUE,,34.86862558,135.6869166
63186,"大阪府枚方市","樟葉小学校","大阪府枚方市南楠葉２-40-６",,,,TRUE,,TRUE,TRUE,,34.86486635,135.6838662
63187,"大阪府枚方市","樟葉西小学校","大阪府枚方市楠葉並木１-11-１",,,,TRUE,,TRUE,TRUE,,34.85764095,135.6790092
63188,"大阪府枚方市","樟葉南小学校","大阪府枚方市楠葉美咲１-25-１",TRUE,,,TRUE,,TRUE,TRUE,,34.85476538,135.6880146
63189,"大阪府枚方市","船橋小学校","大阪府枚方市東山１-68",,,,TRUE,,TRUE,TRUE,,34.8501444,135.6880864
63190,"大阪府枚方市","牧野小学校","大阪府枚方市上島東町４-18",,,,TRUE,,TRUE,TRUE,,34.84940511,135.6758159
63191,"大阪府枚方市","殿山第二小学校","大阪府枚方市養父丘２-７-53",TRUE,,,TRUE,,TRUE,TRUE,,34.84186965,135.6797783
63192,"大阪府枚方市","招提小学校","大阪府枚方市招提東町２-２-８",TRUE,,,TRUE,,TRUE,TRUE,,34.83621804,135.6861878
63193,"大阪府枚方市","平野小学校","大阪府枚方市招提中町１-53-１",TRUE,,,TRUE,,TRUE,TRUE,,34.83727198,135.6794853
63194,"大阪府枚方市","大阪歯科大学牧野学舎","大阪府枚方市牧野本町１-４-４",TRUE,,,TRUE,,TRUE,TRUE,,34.84072518,135.6696453
63195,"大阪府枚方市","市民交流センター","大阪府枚方市牧野北町11−１",TRUE,,,TRUE,,TRUE,TRUE,,34.84895634,135.6629366
63196,"大阪府枚方市","西牧野小学校","大阪府枚方市西牧野２-１-１",,,,TRUE,,TRUE,TRUE,,34.84332806,135.661076
63197,"大阪府枚方市","小倉小学校","大阪府枚方市小倉町29-１",,TRUE,,TRUE,,TRUE,TRUE,,34.83666341,135.6645675
63198,"大阪府枚方市","交北小学校","大阪府枚方市交北２-30-５",,,,TRUE,,TRUE,TRUE,,34.83155056,135.6768256
63199,"大阪府枚方市","山田東小学校","大阪府枚方市田口３-16-１",,,,TRUE,,TRUE,TRUE,,34.82408983,135.6780505
63200,"大阪府枚方市","枚方市立総合体育館","大阪府枚方市中宮大池４-10-１",,,,TRUE,,TRUE,TRUE,,34.82014583,135.6837781
63201,"大阪府枚方市","殿山第一小学校","大阪府枚方市上野１-６-５",TRUE,TRUE,,TRUE,,TRUE,TRUE,,34.83001451,135.6598964
63202,"大阪府枚方市","山田小学校","大阪府枚方市甲斐田町１-27",,,,TRUE,,TRUE,TRUE,,34.8244015,135.6692809
63203,"大阪府枚方市","高陵小学校","大阪府枚方市御殿山南町２-２",TRUE,TRUE,,TRUE,,TRUE,TRUE,,34.82544058,135.6567235
63204,"大阪府枚方市","中宮北小学校","大阪府枚方市中宮北町４-１",TRUE,,,TRUE,,TRUE,TRUE,,34.82271618,135.6604009
63205,"大阪府枚方市","磯島小学校","大阪府枚方市磯島北町３-１",,,,TRUE,,TRUE,TRUE,,34.82613245,135.6478083
63206,"大阪府枚方市","中宮小学校","大阪府枚方市中宮山戸町22-３",TRUE,,,TRUE,,TRUE,TRUE,,34.81591152,135.6658183
63207,"大阪府枚方市","明倫小学校","大阪府枚方市中宮西之町10-６",TRUE,TRUE,,TRUE,,TRUE,TRUE,,34.81636695,135.6599588
63208,"大阪府枚方市","桜丘北小学校","大阪府枚方市星丘４-31-１",TRUE,,,TRUE,,TRUE,TRUE,,34.80797205,135.6730456
63209,"大阪府枚方市","桜丘小学校","大阪府枚方市村野本町30-１",TRUE,TRUE,,TRUE,,TRUE,TRUE,,34.80413066,135.6712213
63210,"大阪府枚方市","メセナひらかた会館","大阪府枚方市新町２-１-５",,,,TRUE,,TRUE,TRUE,,34.8190597,135.6482023
63211,"大阪府枚方市","枚方公園青少年 センター","大阪府枚方市伊加賀東町６-８",,,,TRUE,,TRUE,TRUE,,34.81112078,135.6376489
63212,"大阪府枚方市","枚方小学校","大阪府枚方市枚方上之町9-21",TRUE,TRUE,,TRUE,,TRUE,TRUE,,34.81014621,135.6443835
63213,"大阪府枚方市","枚方第二小学校","大阪府枚方市田宮本町11-１",TRUE,TRUE,,TRUE,,TRUE,TRUE,,34.80709944,135.6498261
63214,"大阪府枚方市","サプリ村野","大阪府枚方市村野西町５-１",TRUE,,,TRUE,,TRUE,TRUE,,34.80404486,135.6609571
63215,"大阪府枚方市","山之上小学校","大阪府枚方市山之上１-32-１",TRUE,TRUE,,TRUE,,TRUE,TRUE,,34.79983296,135.6521111
63216,"大阪府枚方市","川越小学校","大阪府枚方市釈尊寺町30-１",,TRUE,,TRUE,,TRUE,TRUE,,34.79078007,135.6682356
63217,"大阪府枚方市","蹉跎東小学校","大阪府枚方市翠香園町30-１",TRUE,TRUE,,TRUE,,TRUE,TRUE,,34.80153127,135.6406535
63218,"大阪府枚方市","五常小学校","大阪府枚方市香里ケ丘６-９",TRUE,TRUE,,TRUE,,TRUE,TRUE,,34.79757237,135.6473671
63219,"大阪府枚方市","開成小学校","大阪府枚方市香里ケ丘２-５",TRUE,TRUE,,TRUE,,TRUE,TRUE,,34.79262881,135.6563193
63220,"大阪府枚方市","伊加賀小学校","大阪府枚方市伊加賀西町53-１",,,,TRUE,,TRUE,TRUE,,34.8039963,135.6252078
63221,"大阪府枚方市","蹉跎小学校","大阪府枚方市北中振２-11-21",TRUE,TRUE,,TRUE,,TRUE,TRUE,,34.79690861,135.6355782
63222,"大阪府枚方市","香陽小学校","大阪府枚方市香里ケ丘11-36-１",TRUE,TRUE,,TRUE,,TRUE,TRUE,,34.78781145,135.6547135
63223,"大阪府枚方市","蹉跎西小学校","大阪府枚方市出口６-20-１",,,,TRUE,,TRUE,TRUE,,34.7963418,135.6205977
63224,"大阪府枚方市","第二中学校","大阪府枚方市香里園東之町20-26",TRUE,TRUE,,TRUE,,TRUE,TRUE,,34.78763968,135.642671
63225,"大阪府枚方市","香里小学校","大阪府枚方市香里ケ丘10-５-２",TRUE,TRUE,,TRUE,,TRUE,TRUE,,34.78528261,135.6465434
63226,"大阪府枚方市","春日小学校","大阪府枚方市高田２-15-10",,TRUE,,TRUE,,TRUE,TRUE,,34.78029687,135.6614048
63227,"大阪府枚方市","東香里小学校","大阪府枚方市東香里南町44-１",,,,TRUE,,TRUE,TRUE,,34.77781595,135.6534045
63228,"大阪府枚方市","長尾小学校","大阪府枚方市長尾北町３-３-２",,TRUE,,TRUE,,TRUE,TRUE,,34.83528186,135.7091856
63229,"大阪府枚方市","西長尾小学校","大阪府枚方市長尾西町２-45-１",TRUE,TRUE,,TRUE,,TRUE,TRUE,,34.83155062,135.7016776
63230,"大阪府枚方市","田口山小学校","大阪府枚方市田口山３-10-１",TRUE,TRUE,,TRUE,,TRUE,TRUE,,34.82655764,135.6966798
63231,"大阪府枚方市","菅原小学校","大阪府枚方市藤阪中町13-１",TRUE,,,TRUE,,TRUE,TRUE,,34.82304699,135.7081009
63232,"大阪府枚方市","菅原東小学校","大阪府枚方市藤阪東町３-10-１",TRUE,TRUE,,TRUE,,TRUE,TRUE,,34.81890886,135.7134442
63233,"大阪府枚方市","藤阪小学校","大阪府枚方市藤阪南町１-40-１",,,,TRUE,,TRUE,TRUE,,34.81658887,135.6990911
63234,"大阪府枚方市","氷室小学校","大阪府枚方市尊延寺３-１-38",,TRUE,,TRUE,,TRUE,TRUE,,34.80393068,135.7263217
63235,"大阪府枚方市","関西外国語大学 学研都市キャンパス","大阪府枚方市穂谷１-10-１",,TRUE,,TRUE,,TRUE,TRUE,,34.79746381,135.7332927
63236,"大阪府枚方市","津田小学校","大阪府枚方市津田西町１ー33-１",TRUE,TRUE,,TRUE,,TRUE,TRUE,,34.80784641,135.6987478
63237,"大阪府枚方市","津田南小学校","大阪府枚方市津田西町３ー10-１",TRUE,TRUE,,TRUE,,TRUE,TRUE,,34.80543367,135.6969335
63238,"大阪府枚方市","楠葉中学校","大阪府枚方市楠葉丘２-12-１",TRUE,,,,,,,,34.86680417,135.6901348
63239,"大阪府茨木市","茨木小学校","大阪府茨木市片桐町8番40号",TRUE,,,TRUE,,TRUE,TRUE,,34.82047801,135.5719432
63240,"大阪府茨木市","茨木公民館","大阪府茨木市東宮町1番19号",TRUE,,,TRUE,,TRUE,TRUE,,34.82256469,135.5745872
63241,"大阪府茨木市","茨木高等学校","大阪府茨木市新庄町12番1号",TRUE,,,TRUE,,TRUE,TRUE,,34.81334876,135.5709932
63242,"大阪府茨木市","養精中学校","大阪府茨木市駅前四丁目7番60号",,,,TRUE,,TRUE,TRUE,,34.81784917,135.5680145
63243,"大阪府茨木市","生涯学習センターきらめき","大阪府茨木市畑田町1番43号",,,,TRUE,,TRUE,TRUE,,34.82790802,135.5655439
63244,"大阪府茨木市","市民体育館","大阪府茨木市小川町2-1",,,,TRUE,,TRUE,TRUE,,34.81060204,135.569793
63245,"大阪府茨木市","東奈良小学校","大阪府茨木市東奈良二丁目5番36号",,,,TRUE,,TRUE,TRUE,,34.80513375,135.5690128
63246,"大阪府茨木市","中条小学校","大阪府茨木市新中条町7番12号",,,,TRUE,,TRUE,TRUE,,34.81009846,135.5656245
63247,"大阪府茨木市","春日丘高等学校","大阪府茨木市春日二丁目1番2号",,,,TRUE,,TRUE,TRUE,,34.81767996,135.560585
63248,"大阪府茨木市","春日小学校","大阪府茨木市上穂東町5番18号",,,,TRUE,,TRUE,TRUE,,34.82342413,135.5612244
63249,"大阪府茨木市","茨木工科高等学校","大阪府茨木市春日五丁目6番41号",,,,TRUE,,TRUE,TRUE,,34.82520231,135.5642577
63250,"大阪府茨木市","畑田小学校","大阪府茨木市畑田町3番31号",TRUE,,,TRUE,,TRUE,TRUE,,34.8279282,135.5642419
63251,"大阪府茨木市","春日コミュニティセンター","大阪府茨木市上穂積二丁目13番30号",,,,TRUE,,TRUE,TRUE,,34.8253078,135.5598459
63252,"大阪府茨木市","西中学校","大阪府茨木市見付山二丁目5番4号",,,,TRUE,,TRUE,TRUE,,34.82054961,135.5535535
63253,"大阪府茨木市","春日丘小学校","大阪府茨木市中穂積三丁目3番43号",,,,TRUE,,TRUE,TRUE,,34.81562817,135.5539951
63254,"大阪府茨木市","穂積小学校","大阪府茨木市下穂積二丁目6番62号",,TRUE,,TRUE,,TRUE,TRUE,,34.81031293,135.5549439
63255,"大阪府茨木市","沢池小学校","大阪府茨木市南春日丘三丁目11番6号",,TRUE,,TRUE,,TRUE,TRUE,,34.81613858,135.5388337
63256,"大阪府茨木市","西陵中学校","大阪府茨木市南春日丘一丁目19番6号",,,,TRUE,,TRUE,TRUE,,34.81241737,135.5437951
63257,"大阪府茨木市","茨木西高等学校","大阪府茨木市紫明園10番68号",,,,TRUE,,TRUE,TRUE,,34.81186557,135.5502696
63258,"大阪府茨木市","西小学校","大阪府茨木市北春日丘三丁目12番23号",,TRUE,,TRUE,,TRUE,TRUE,,34.82074984,135.5365753
63259,"大阪府茨木市","郡小学校","大阪府茨木市郡五丁目26番23号",TRUE,,,TRUE,,TRUE,TRUE,,34.83445021,135.5521322
63260,"大阪府茨木市","郡山小学校","大阪府茨木市新郡山二丁目30番18号",,TRUE,,TRUE,,TRUE,TRUE,,34.83067468,135.5429283
63261,"大阪府茨木市","豊川いのち・愛・ゆめセンター","大阪府茨木市豊川四丁目4番28号",,,,TRUE,,TRUE,TRUE,,34.83202403,135.5330416
63262,"大阪府茨木市","豊川小学校","大阪府茨木市宿久庄五丁目14番5号",,,,TRUE,,TRUE,TRUE,,34.83986576,135.5272212
63263,"大阪府茨木市","豊川中学校","大阪府茨木市藤の里一丁目16番8号",,,,TRUE,,TRUE,TRUE,,34.84010814,135.5450833
63264,"大阪府茨木市","福井小学校","大阪府茨木市東福井二丁目4番20号",TRUE,TRUE,,TRUE,,TRUE,TRUE,,34.84554061,135.5529497
63265,"大阪府茨木市","福井多世代交流センター","大阪府茨木市東福井二丁目23番22号",,,,TRUE,,TRUE,TRUE,,34.84900102,135.55553
63266,"大阪府茨木市","福井市民体育館","大阪府茨木市西福井3-30-45",,,,TRUE,,TRUE,TRUE,,34.84583208,135.5493875
63267,"大阪府茨木市","見山公民館","大阪府茨木市大字下音羽163番地",,TRUE,,TRUE,,TRUE,TRUE,,34.9016718,135.5402032
63268,"大阪府茨木市","清溪小学校","大阪府茨木市大字泉原857番地",,TRUE,,TRUE,,TRUE,TRUE,,34.88414127,135.5216178
63269,"大阪府茨木市","忍頂寺小学校","大阪府茨木市大字忍頂寺31番2号",,TRUE,,TRUE,,TRUE,TRUE,,34.89533105,135.5414854
63270,"大阪府茨木市","山手台小学校","大阪府茨木市山手台四丁目9番4号",,TRUE,,TRUE,,TRUE,TRUE,,34.8638197,135.5535714
63271,"大阪府茨木市","北陵中学校","大阪府茨木市山手台一丁目23番10号",,,,TRUE,,TRUE,TRUE,,34.85479479,135.5602414
63272,"大阪府茨木市","安威小学校","大阪府茨木市安威二丁目21番23号",TRUE,TRUE,,TRUE,,TRUE,TRUE,,34.84946717,135.5641151
63273,"大阪府茨木市","北中学校","大阪府茨木市南安威三丁目10番3号",,,,TRUE,,TRUE,TRUE,,34.84286856,135.5590747
63274,"大阪府茨木市","耳原小学校","大阪府茨木市耳原二丁目20番55号",TRUE,,,TRUE,,TRUE,TRUE,,34.83878125,135.562081
63275,"大阪府茨木市","太田小学校","大阪府茨木市花園一丁目21番26号",TRUE,,,TRUE,,TRUE,TRUE,,34.84650681,135.5741362
63276,"大阪府茨木市","太田中学校","大阪府茨木市花園一丁目6番10号",,,,TRUE,,TRUE,TRUE,,34.84369107,135.571895
63277,"大阪府茨木市","太田公民館","大阪府茨木市太田三丁目6番18号",TRUE,,,TRUE,,TRUE,TRUE,,34.84278639,135.5784725
63278,"大阪府茨木市","西河原小学校","大阪府茨木市西河原北町7番33号",TRUE,,,TRUE,,TRUE,TRUE,,34.83459895,135.571597
63279,"大阪府茨木市","三島小学校","大阪府茨木市三島町3番13号",TRUE,,,TRUE,,TRUE,TRUE,,34.83118329,135.5778311
63280,"大阪府茨木市","三島コミュニティセンター","大阪府茨木市西河原二丁目7番12号",TRUE,,,TRUE,,TRUE,TRUE,,34.83069489,135.5750816
63281,"大阪府茨木市","三島中学校","大阪府茨木市西河原一丁目17番10号",TRUE,,,TRUE,,TRUE,TRUE,,34.82960683,135.576452
63282,"大阪府茨木市","西河原多世代交流センター","大阪府茨木市西河原二丁目17番4号",TRUE,,,TRUE,,TRUE,TRUE,,34.83242329,135.5762077
63283,"大阪府茨木市","総持寺いのち・愛・ゆめセンター","大阪府茨木市総持寺二丁目5番36号",TRUE,,,TRUE,,TRUE,TRUE,,34.83010087,135.5852626
63284,"大阪府茨木市","庄栄小学校","大阪府茨木市庄二丁目26番5号",TRUE,,,TRUE,,TRUE,TRUE,,34.82656897,135.5813972
63285,"大阪府茨木市","東小学校","大阪府茨木市鮎川二丁目5番23号",TRUE,,,TRUE,,TRUE,TRUE,,34.82049429,135.5904722
63286,"大阪府茨木市","白川公民館","大阪府茨木市鮎川一丁目8番17号",TRUE,,,TRUE,,TRUE,TRUE,,34.81648955,135.5934533
63287,"大阪府茨木市","白川小学校","大阪府茨木市白川一丁目4番1号",TRUE,,,TRUE,,TRUE,TRUE,,34.81642966,135.5980531
63288,"大阪府茨木市","東雲中学校","大阪府茨木市学園南町21番7号",TRUE,,,TRUE,,TRUE,TRUE,,34.81327432,135.5908919
63289,"大阪府茨木市","玉島小学校","大阪府茨木市玉島二丁目11番23号",TRUE,,,TRUE,,TRUE,TRUE,,34.80033484,135.5884624
63290,"大阪府茨木市","平田中学校","大阪府茨木市平田一丁目8番20号",TRUE,,,TRUE,,TRUE,TRUE,,34.80549525,135.587391
63291,"大阪府茨木市","玉島公民館","大阪府茨木市平田二丁目25番9号",TRUE,,,TRUE,,TRUE,TRUE,,34.80445742,135.5900563
63292,"大阪府茨木市","北摂つばさ高等学校","大阪府茨木市玉島台2番15号",TRUE,,,TRUE,,TRUE,TRUE,,34.80049484,135.5843092
63293,"大阪府茨木市","中津小学校","大阪府茨木市中津町10番15号",TRUE,,,TRUE,,TRUE,TRUE,,34.81642841,135.5837022
63294,"大阪府茨木市","高齢者活動支援センターシニアプラザいばらき","大阪府茨木市桑田町24番21号",,,,TRUE,,TRUE,TRUE,,34.81053429,135.5862744
63295,"大阪府茨木市","大池小学校","大阪府茨木市大池一丁目5番8号",TRUE,,,TRUE,,TRUE,TRUE,,34.81247398,135.5800314
63296,"大阪府茨木市","大池コミュニティセンター","大阪府茨木市舟木町11番35号",TRUE,,,TRUE,,TRUE,TRUE,,34.81384134,135.5784768
63297,"大阪府茨木市","東中学校","大阪府茨木市末広町7番4号",TRUE,,,TRUE,,TRUE,TRUE,,34.82006271,135.5800523
63298,"大阪府茨木市","水尾小学校","大阪府茨木市水尾四丁目7番16号",TRUE,,,TRUE,,TRUE,TRUE,,34.8057068,135.5788204
63299,"大阪府茨木市","玉櫛小学校","大阪府茨木市水尾三丁目1番51号",TRUE,,,TRUE,,TRUE,TRUE,,34.80450286,135.5730161
63300,"大阪府茨木市","南中学校","大阪府茨木市若園町6番41号",TRUE,,,TRUE,,TRUE,TRUE,,34.80135845,135.5794353
63301,"大阪府茨木市","葦原小学校","大阪府茨木市新和町13番50号",TRUE,,,TRUE,,TRUE,TRUE,,34.79569542,135.5763496
63302,"大阪府茨木市","沢良宜いのち・愛・ゆめセンター","大阪府茨木市沢良宜浜三丁目12番19号",TRUE,,,TRUE,,TRUE,TRUE,,34.79436405,135.5726956
63303,"大阪府茨木市","玉櫛公民館","大阪府茨木市沢良宜東町5番39号",TRUE,,,TRUE,,TRUE,TRUE,,34.79888965,135.5732076
63304,"大阪府茨木市","天王小学校","大阪府茨木市天王二丁目13番57号",,,,TRUE,,TRUE,TRUE,,34.79994632,135.5621862
63305,"大阪府茨木市","天王中学校","大阪府茨木市沢良宜西三丁目8番5号",TRUE,,,TRUE,,TRUE,TRUE,,34.79550204,135.5622704
63306,"大阪府茨木市","蔵垣内会館","大阪府茨木市蔵垣内三丁目11番23号",,,,TRUE,,TRUE,TRUE,,34.79254462,135.5560867
63307,"大阪府茨木市","彩都西小学校","大阪府茨木市彩都あさぎ五丁目8番1号",,TRUE,,TRUE,,TRUE,TRUE,,34.85186744,135.528124
63308,"大阪府茨木市","東市民体育館","大阪府茨木市学園町4-18",TRUE,,,TRUE,,TRUE,TRUE,,34.81829896,135.5911807
63309,"大阪府茨木市","彩都西中学校","大阪府茨木市彩都あさぎ四丁目6番7号",,,,TRUE,,TRUE,TRUE,,34.84916834,135.5284486
63310,"大阪府茨木市","市民総合センター（クリエイトセンター）","大阪府茨木市駅前四丁目6番16号",,,,TRUE,,TRUE,TRUE,,34.81878117,135.5683741
63311,"大阪府茨木市","男女共生センターローズＷＡＭ","大阪府茨木市元町4番7号",,,,TRUE,,TRUE,TRUE,,34.81724586,135.5706776
63312,"大阪府茨木市","豊川コミュニティセンター","大阪府茨木市藤の里二丁目16番8号",,TRUE,,TRUE,,TRUE,TRUE,,34.83673767,135.5371365
63313,"大阪府茨木市","南市民体育館","大阪府茨木市島三丁目8-19",TRUE,,,TRUE,,TRUE,TRUE,,34.79042909,135.5738571
63314,"大阪府八尾市","八尾小学校","大阪府八尾市本町1-1-65",TRUE,TRUE,,TRUE,,TRUE,TRUE,,34.62620989,135.6013343
63315,"大阪府八尾市","山本小学校","大阪府八尾市山本町北2-6-39",TRUE,TRUE,,TRUE,,TRUE,TRUE,,34.63555822,135.6184069
63316,"大阪府八尾市","用和小学校","大阪府八尾市山城町3-1-46",TRUE,TRUE,,TRUE,,TRUE,TRUE,,34.63489955,135.6008163
63317,"大阪府八尾市","久宝寺小学校","大阪府八尾市久宝寺2-2-33",TRUE,TRUE,,TRUE,,TRUE,TRUE,,34.62846527,135.5904299
63318,"大阪府八尾市","龍華小学校","大阪府八尾市東太子1-6-12",TRUE,TRUE,,TRUE,,TRUE,TRUE,,34.61638015,135.5890865
63319,"大阪府八尾市","大正小学校","大阪府八尾市太田3-183",TRUE,TRUE,,TRUE,,TRUE,TRUE,,34.59153143,135.5879628
63320,"大阪府八尾市","桂小学校","大阪府八尾市桂町4-57",TRUE,TRUE,,TRUE,,TRUE,TRUE,,34.64445938,135.6088864
63321,"大阪府八尾市","安中小学校","大阪府八尾市陽光園2-7-33",TRUE,TRUE,,TRUE,,TRUE,TRUE,,34.61851696,135.6002454
63322,"大阪府八尾市","竹渕小学校","大阪府八尾市竹渕東4-1",TRUE,TRUE,,TRUE,,TRUE,TRUE,,34.61718671,135.5708679
63323,"大阪府八尾市","南高安小学校","大阪府八尾市恩智北町4-650",TRUE,,,TRUE,,TRUE,TRUE,,34.61019115,135.6330962
63324,"大阪府八尾市","(旧)中高安小学校","大阪府八尾市服部川6-200",TRUE,TRUE,,TRUE,,TRUE,TRUE,,34.62852883,135.6399066
63325,"大阪府八尾市","（旧）北高安小学校","大阪府八尾市水越2-98",TRUE,TRUE,,TRUE,,TRUE,TRUE,,34.63358212,135.6389382
63326,"大阪府八尾市","曙川小学校","大阪府八尾市八尾木東2-28",TRUE,TRUE,,TRUE,,TRUE,TRUE,,34.60899459,135.6170018
63327,"大阪府八尾市","北山本小学校","大阪府八尾市福万寺町2-1",TRUE,TRUE,,TRUE,,TRUE,TRUE,,34.64368484,135.6209125
63328,"大阪府八尾市","南山本小学校","大阪府八尾市山本町南7-1-9",TRUE,TRUE,,TRUE,,TRUE,TRUE,,34.62092755,135.618067
63329,"大阪府八尾市","志紀小学校","大阪府八尾市田井中3-101",TRUE,TRUE,,TRUE,,TRUE,TRUE,,34.60254956,135.6062361
63330,"大阪府八尾市","高美小学校","大阪府八尾市高美町3-1-26",TRUE,TRUE,,TRUE,,TRUE,TRUE,,34.62064397,135.6085221
63331,"大阪府八尾市","長池小学校","大阪府八尾市長池町2-52-2",TRUE,TRUE,,TRUE,,TRUE,TRUE,,34.6395191,135.6116281
63332,"大阪府八尾市","東山本小学校","大阪府八尾市東山本町9-3-33",TRUE,TRUE,,TRUE,,TRUE,TRUE,,34.63113591,135.6284388
63333,"大阪府八尾市","美園小学校","大阪府八尾市美園町2-51-1",TRUE,TRUE,,TRUE,,TRUE,TRUE,,34.63818918,135.5949637
63334,"大阪府八尾市","永畑小学校","大阪府八尾市永畑町1-2-27",TRUE,TRUE,,TRUE,,TRUE,TRUE,,34.61249111,135.5979263
63335,"大阪府八尾市","刑部小学校","大阪府八尾市刑部3-29-1",TRUE,TRUE,,TRUE,,TRUE,TRUE,,34.61337578,135.6179698
63336,"大阪府八尾市","高美南小学校","大阪府八尾市高美町6-1-11",TRUE,TRUE,,TRUE,,TRUE,TRUE,,34.61359645,135.6084683
63337,"大阪府八尾市","西山本小学校","大阪府八尾市西山本町3-5-25",TRUE,TRUE,,TRUE,,TRUE,TRUE,,34.63213411,135.6135861
63338,"大阪府八尾市","高安西小学校","大阪府八尾市高安町北4-15",TRUE,TRUE,,TRUE,,TRUE,TRUE,,34.62246235,135.6300901
63339,"大阪府八尾市","曙川東小学校","大阪府八尾市曙川東8-136",TRUE,TRUE,,TRUE,,TRUE,TRUE,,34.60054965,135.6210062
63340,"大阪府八尾市","亀井小学校","大阪府八尾市亀井町1-4-1",TRUE,TRUE,,TRUE,,TRUE,TRUE,,34.61638837,135.5792886
63341,"大阪府八尾市","上之島小学校","大阪府八尾市上之島町北3-22-1",TRUE,TRUE,,TRUE,,TRUE,TRUE,,34.63895002,135.6232843
63342,"大阪府八尾市","大正北小学校","大阪府八尾市西木の本2-141",TRUE,TRUE,,TRUE,,TRUE,TRUE,,34.5997854,135.5837792
63343,"大阪府八尾市","八尾中学校","大阪府八尾市緑ヶ丘1-17",TRUE,TRUE,,TRUE,,TRUE,TRUE,,34.63614067,135.6079494
63344,"大阪府八尾市","久宝寺中学校","大阪府八尾市久宝寺2-4-33",TRUE,TRUE,,TRUE,,TRUE,TRUE,,34.62975489,135.5901891
63345,"大阪府八尾市","龍華中学校","大阪府八尾市南太子堂3-1-70",TRUE,TRUE,,TRUE,,TRUE,TRUE,,34.61171272,135.5879076
63346,"大阪府八尾市","大正中学校","大阪府八尾市西木の本3-83",TRUE,TRUE,,TRUE,,TRUE,TRUE,,34.60066853,135.5818193
63347,"大阪府八尾市","成法中学校","大阪府八尾市清水町2-2-5",TRUE,TRUE,,TRUE,,TRUE,TRUE,,34.62275385,135.6015635
63348,"大阪府八尾市","南高安中学校","大阪府八尾市恩智北町3-13",TRUE,TRUE,,TRUE,,TRUE,TRUE,,34.61309081,135.6312537
63349,"大阪府八尾市","（旧）高安中学校","大阪府八尾市水越2-117",TRUE,TRUE,,TRUE,,TRUE,TRUE,,34.63385709,135.636739
63350,"大阪府八尾市","曙川中学校","大阪府八尾市山本町南8-18-1",TRUE,TRUE,,TRUE,,TRUE,TRUE,,34.62017357,135.617163
63351,"大阪府八尾市","志紀中学校","大阪府八尾市志紀町西2-2",TRUE,TRUE,,TRUE,,TRUE,TRUE,,34.59975878,135.6068585
63352,"大阪府八尾市","桂中学校","大阪府八尾市桂町4-47",TRUE,TRUE,,TRUE,,TRUE,TRUE,,34.64402246,135.611346
63353,"大阪府八尾市","上之島中学校","大阪府八尾市上之島町南6-5-1",TRUE,TRUE,,TRUE,,TRUE,TRUE,,34.63492812,135.6269006
63354,"大阪府八尾市","高美中学校","大阪府八尾市高美町2-1-22",TRUE,TRUE,,TRUE,,TRUE,TRUE,,34.62211481,135.6086312
63355,"大阪府八尾市","曙川南中学校","大阪府八尾市大字八尾木167",TRUE,TRUE,,TRUE,,TRUE,TRUE,,34.60951771,135.6191489
63356,"大阪府八尾市","東中学校","大阪府八尾市東町3-8",TRUE,TRUE,,TRUE,,TRUE,TRUE,,34.63106841,135.6298477
63357,"大阪府八尾市","亀井中学校","大阪府八尾市南亀井町4-1-48",TRUE,TRUE,,TRUE,,TRUE,TRUE,,34.61406592,135.5787676
63358,"大阪府八尾市","高安小学校・中学校","大阪府八尾市千塚2-96",TRUE,TRUE,,TRUE,,TRUE,TRUE,,34.63260283,135.6384539
63359,"大阪府八尾市","府立八尾高等学校","大阪府八尾市高町1-74",TRUE,TRUE,,TRUE,,TRUE,TRUE,,34.62458132,135.5951773
63360,"大阪府八尾市","府立山本高等学校","大阪府八尾市山本町北1-1-44",TRUE,TRUE,,TRUE,,TRUE,TRUE,,34.63416491,135.6173511
63361,"大阪府八尾市","府立八尾翠翔高等学校","大阪府八尾市神宮寺3-107",TRUE,TRUE,,TRUE,,TRUE,TRUE,,34.60027489,135.6278199
63362,"大阪府八尾市","府立八尾北高等学校","大阪府八尾市萱振町7-42",TRUE,TRUE,,TRUE,,TRUE,TRUE,,34.64319255,135.6044068
63363,"大阪府八尾市","幸第１公園","大阪府八尾市幸町6-2-1他",TRUE,TRUE,,TRUE,,TRUE,TRUE,,34.65009021,135.6077485
63364,"大阪府八尾市","山本町北第１公園","大阪府八尾市山本町北4-24-1",TRUE,TRUE,,TRUE,,TRUE,TRUE,,34.63875736,135.6185881
63365,"大阪府八尾市","跡部本町公園","大阪府八尾市跡部本町3-99",TRUE,TRUE,,TRUE,,TRUE,TRUE,,34.6155157,135.5817851
63366,"大阪府八尾市","恩智城址公園","大阪府八尾市恩智中町5-139他",TRUE,,,TRUE,,TRUE,TRUE,,34.60642308,135.6338445
63367,"大阪府八尾市","太子堂公園","大阪府八尾市太子堂4-18",TRUE,TRUE,,TRUE,,TRUE,TRUE,,34.61462833,135.5867213
63368,"大阪府八尾市","北本町第１公園","大阪府八尾市北本町2-216",TRUE,TRUE,,TRUE,,TRUE,TRUE,,34.63184679,135.6025572
63369,"大阪府八尾市","田井中公園","大阪府八尾市田井中4-229他",TRUE,TRUE,,TRUE,,TRUE,TRUE,,34.6006328,135.6026346
63370,"大阪府八尾市","太田第１公園","大阪府八尾市太田6-119",TRUE,TRUE,,TRUE,,TRUE,TRUE,,34.58832669,135.5958728
63371,"大阪府八尾市","竹渕第１公園","大阪府八尾市竹渕4-152",TRUE,TRUE,,TRUE,,TRUE,TRUE,,34.61715179,135.5663503
63372,"大阪府八尾市","志紀町西公園","大阪府八尾市志紀町西3-16",TRUE,TRUE,,TRUE,,TRUE,TRUE,,34.60167362,135.6100163
63373,"大阪府八尾市","新家公園","大阪府八尾市新家町2-74",TRUE,TRUE,,TRUE,,TRUE,TRUE,,34.64540748,135.5971019
63374,"大阪府八尾市","木の本公園","大阪府八尾市木の本1-64",TRUE,TRUE,,TRUE,,TRUE,TRUE,,34.60068808,135.5876265
63375,"大阪府八尾市","弓削公園","大阪府八尾市弓削町3-42他",TRUE,TRUE,,TRUE,,TRUE,TRUE,,34.59833879,135.6151585
63376,"大阪府八尾市","山本町北第２公園","大阪府八尾市山本町北7-2",TRUE,TRUE,,TRUE,,TRUE,TRUE,,34.64567872,135.6175094
63377,"大阪府八尾市","水越公園","大阪府八尾市水越8-67、68",TRUE,,,TRUE,,TRUE,TRUE,,34.63497035,135.6451982
63378,"大阪府八尾市","老原第１公園","大阪府八尾市老原7-43",TRUE,TRUE,,TRUE,,TRUE,TRUE,,34.60512089,135.5995339
63379,"大阪府八尾市","中田第１公園","大阪府八尾市中田4-118",TRUE,TRUE,,TRUE,,TRUE,TRUE,,34.61768941,135.6133755
63380,"大阪府八尾市","中田第２公園","大阪府八尾市中田5-84",TRUE,TRUE,,TRUE,,TRUE,TRUE,,34.61697098,135.6162427
63381,"大阪府八尾市","八尾木北第２公園","大阪府八尾市八尾木北6-96",TRUE,TRUE,,TRUE,,TRUE,TRUE,,34.6140273,135.6168431
63382,"大阪府八尾市","萱振公園","大阪府八尾市萱振町2-38-1",TRUE,TRUE,,TRUE,,TRUE,TRUE,,34.63857008,135.607384
63383,"大阪府八尾市","上尾公園","大阪府八尾市上尾町3-22-2",TRUE,TRUE,,TRUE,,TRUE,TRUE,,34.63583917,135.632176
63384,"大阪府八尾市","西山本公園","大阪府八尾市西山本町5-67-3",TRUE,TRUE,,TRUE,,TRUE,TRUE,,34.6302814,135.6164147
63385,"大阪府八尾市","東山本公園","大阪府八尾市東山本町4-70-2",TRUE,TRUE,,TRUE,,TRUE,TRUE,,34.63097333,135.6221957
63386,"大阪府八尾市","小阪合公園","大阪府八尾市小阪合町3-93-2",TRUE,TRUE,,TRUE,,TRUE,TRUE,,34.62643038,135.6160899
63387,"大阪府八尾市","山本町南公園","大阪府八尾市山本町南3-26",TRUE,TRUE,,TRUE,,TRUE,TRUE,,34.62497872,135.6199203
63388,"大阪府八尾市","垣内公園","大阪府八尾市垣内5-126",TRUE,,,TRUE,,TRUE,TRUE,,34.61591524,135.6365053
63389,"大阪府八尾市","教興寺第１公園","大阪府八尾市教興寺5-180",TRUE,TRUE,,TRUE,,TRUE,TRUE,,34.61655175,135.6306642
63390,"大阪府八尾市","高安町南公園","大阪府八尾市高安町南3-70",TRUE,TRUE,,TRUE,,TRUE,TRUE,,34.61659084,135.6271701
63391,"大阪府八尾市","南本町第２公園","大阪府八尾市南本町4-19",TRUE,TRUE,,TRUE,,TRUE,TRUE,,34.62205841,135.6077836
63392,"大阪府八尾市","天王寺屋公園","大阪府八尾市天王寺屋4-257",TRUE,TRUE,,TRUE,,TRUE,TRUE,,34.60543165,135.6134046
63393,"大阪府八尾市","南本町第１公園","大阪府八尾市南本町8-66-1他",TRUE,TRUE,,TRUE,,TRUE,TRUE,,34.61328871,135.6073704
63394,"大阪府八尾市","明美公園","大阪府八尾市明美町2-44-8",TRUE,TRUE,,TRUE,,TRUE,TRUE,,34.61846214,135.6025138
63395,"大阪府八尾市","安中第２公園","大阪府八尾市安中町9-102",TRUE,TRUE,,TRUE,,TRUE,TRUE,,34.61487713,135.6026392
63396,"大阪府八尾市","老原第２公園","大阪府八尾市老原2-63",TRUE,TRUE,,TRUE,,TRUE,TRUE,,34.60905815,135.6011318
63397,"大阪府八尾市","沼公園","大阪府八尾市沼3-119",TRUE,TRUE,,TRUE,,TRUE,TRUE,,34.58549548,135.6016682
63398,"大阪府八尾市","光南公園","大阪府八尾市光南町2-54",TRUE,TRUE,,TRUE,,TRUE,TRUE,,34.62300007,135.5998658
63399,"大阪府八尾市","太田第２公園","大阪府八尾市太田町二丁目地内",TRUE,TRUE,,TRUE,,TRUE,TRUE,,34.59163069,135.5912804
63400,"大阪府八尾市","南植松公園","大阪府八尾市南植松町5-285",TRUE,TRUE,,TRUE,,TRUE,TRUE,,34.60935963,135.5917106
63401,"大阪府八尾市","南太子堂公園","大阪府八尾市南太子堂3-78-1",TRUE,TRUE,,TRUE,,TRUE,TRUE,,34.60996466,135.5880105
63402,"大阪府八尾市","春日公園","大阪府八尾市春日町４丁目地内",TRUE,TRUE,,TRUE,,TRUE,TRUE,,34.61753006,135.5904798
63403,"大阪府八尾市","渋川公園","大阪府八尾市渋川町4-73-2",TRUE,TRUE,,TRUE,,TRUE,TRUE,,34.62049913,135.5922772
63404,"大阪府八尾市","久宝園公園","大阪府八尾市久宝園3-128他",TRUE,TRUE,,TRUE,,TRUE,TRUE,,34.63742237,135.5877243
63405,"大阪府八尾市","亀井公園","大阪府八尾市亀井町3-27",TRUE,TRUE,,TRUE,,TRUE,TRUE,,34.61839508,135.5771532
63406,"大阪府八尾市","本町第２公園","大阪府八尾市本町3-206-2",TRUE,TRUE,,TRUE,,TRUE,TRUE,,34.62687739,135.5958547
63407,"大阪府八尾市","若林第１公園","大阪府八尾市若林町3-126-2",TRUE,TRUE,,TRUE,,TRUE,TRUE,,34.59616007,135.578002
63408,"大阪府八尾市","若林第２公園","大阪府八尾市若林町3-28",TRUE,TRUE,,TRUE,,TRUE,TRUE,,34.59281279,135.5832403
63409,"大阪府八尾市","光町公園","大阪府八尾市光町2-5",TRUE,TRUE,,TRUE,,TRUE,TRUE,,34.63102604,135.6067929
63410,"大阪府八尾市","桜ヶ丘公園","大阪府八尾市桜ヶ丘1-33",TRUE,TRUE,,TRUE,,TRUE,TRUE,,34.62966652,135.607383
63411,"大阪府八尾市","幸第２公園","大阪府八尾市幸町1-1-3他",TRUE,TRUE,,TRUE,,TRUE,TRUE,,34.64700167,135.6077484
63412,"大阪府八尾市","南木の本公園","大阪府八尾市南木の本町2-13-35",TRUE,TRUE,,TRUE,,TRUE,TRUE,,34.60519813,135.5911606
63413,"大阪府八尾市","久宝寺第２公園","大阪府八尾市久宝寺4-86",TRUE,TRUE,,TRUE,,TRUE,TRUE,,34.62605814,135.5893313
63414,"大阪府八尾市","南小阪合公園","大阪府八尾市南小阪合町1-61",TRUE,TRUE,,TRUE,,TRUE,TRUE,,34.62460994,135.6124825
63415,"大阪府八尾市","青山第１公園","大阪府八尾市青山町5-214",TRUE,TRUE,,TRUE,,TRUE,TRUE,,34.62115519,135.6131074
63416,"大阪府八尾市","青山第２公園","大阪府八尾市青山町4-211",TRUE,TRUE,,TRUE,,TRUE,TRUE,,34.62099091,135.6110269
63417,"大阪府八尾市","山本町南第２公園","大阪府八尾市山本町南8-228",TRUE,TRUE,,TRUE,,TRUE,TRUE,,34.62001088,135.6161338
63418,"大阪府八尾市","教興寺第２公園","大阪府八尾市教興寺1-204他",TRUE,TRUE,,TRUE,,TRUE,TRUE,,34.62077622,135.6309769
63419,"大阪府八尾市","太田第３公園","大阪府八尾市太田7-55-4他",TRUE,TRUE,,TRUE,,TRUE,TRUE,,34.58831211,135.5993401
63420,"大阪府八尾市","長池公園","大阪府八尾市長池町２丁目地内",TRUE,TRUE,,TRUE,,TRUE,TRUE,,34.63832454,135.6106161
63421,"大阪府八尾市","東山本新町第２公園","大阪府八尾市東山本新町8丁目地内",TRUE,TRUE,,TRUE,,TRUE,TRUE,,34.62387663,135.6305841
63422,"大阪府八尾市","明美第２公園","大阪府八尾市明美町１丁目地内",TRUE,TRUE,,TRUE,,TRUE,TRUE,,34.62198049,135.6024708
63423,"大阪府八尾市","龍華東公園","大阪府八尾市龍華町1-1",TRUE,TRUE,,TRUE,,TRUE,TRUE,,34.62005134,135.5892797
63424,"大阪府八尾市","北亀井町公園","大阪府八尾市北亀井町3-203",TRUE,TRUE,,TRUE,,TRUE,TRUE,,34.62092864,135.5772031
63425,"大阪府八尾市","安中第１公園","大阪府八尾市栄町2-163",TRUE,TRUE,,TRUE,,TRUE,TRUE,,34.62194542,135.5954097
63426,"大阪府八尾市","八尾木北第１公園","大阪府八尾市八尾木北4-68",TRUE,TRUE,,TRUE,,TRUE,TRUE,,34.61322136,135.6118726
63427,"大阪府八尾市","桂公園","大阪府八尾市桂町3-49他4-1他",TRUE,TRUE,,TRUE,,TRUE,TRUE,,34.64404961,135.6100058
63428,"大阪府八尾市","西弓削公園","大阪府八尾市西弓削1丁目地内",TRUE,TRUE,,TRUE,,TRUE,TRUE,,34.59534774,135.6072378
63429,"大阪府八尾市","美園公園","大阪府八尾市美園2-98-1他",TRUE,TRUE,,TRUE,,TRUE,TRUE,,34.6369174,135.5950283
63430,"大阪府八尾市","南木の本第２公園 (南木の本防災公園)","大阪府八尾市南木の本3-1-1",TRUE,TRUE,,TRUE,,TRUE,TRUE,,34.60585691,135.5882799
63448,"大阪府泉佐野市","大木小学校　屋内運動場及び校舎２階","大阪府泉佐野市大木１４４３",,TRUE,,,,,,,34.35391938,135.3702106
63472,"大阪府富田林市","喜志西小学校","大阪府富田林市梅の里四丁目6-1",TRUE,TRUE,,TRUE,,TRUE,,,34.52647155,135.5930088
63473,"大阪府富田林市","喜志中学校","大阪府富田林市梅の里一丁目7-1",TRUE,TRUE,,TRUE,,TRUE,,,34.52372776,135.598684
63474,"大阪府富田林市","喜志小学校","大阪府富田林市木戸山町1-36",TRUE,TRUE,,TRUE,,TRUE,,,34.5243789,135.6115266
63475,"大阪府富田林市","新堂小学校","大阪府富田林市若松町四丁目5-4",TRUE,TRUE,,TRUE,,TRUE,,,34.50808408,135.6093788
63476,"大阪府富田林市","大伴小学校","大阪府富田林市南大伴町一丁目2-20",TRUE,TRUE,,TRUE,,TRUE,,,34.4974375,135.6169249
63477,"大阪府富田林市","富田林小学校","大阪府富田林市常盤町16-20",TRUE,TRUE,,TRUE,,TRUE,,,34.49953915,135.5979782
63478,"大阪府富田林市","府立富田林中学校・高等学校","大阪府富田林市谷川町4-30",TRUE,TRUE,,TRUE,,TRUE,,,34.4980979,135.5986783
63479,"大阪府富田林市","第一中学校","大阪府富田林市寿町一丁目3-5",TRUE,TRUE,,TRUE,,TRUE,,,34.49951025,135.5946074
63480,"大阪府富田林市","府立河南高等学校","大阪府富田林市錦ヶ丘町1-15",TRUE,TRUE,,TRUE,,TRUE,,,34.49905062,135.5916729
63481,"大阪府富田林市","向陽台小学校","大阪府富田林市向陽台五丁目1-1",TRUE,TRUE,,TRUE,,TRUE,,,34.50693956,135.5808021
63482,"大阪府富田林市","藤陽中学校","大阪府富田林市向陽台三丁目4-1",TRUE,TRUE,,TRUE,,TRUE,,,34.50513308,135.5793048
63483,"大阪府富田林市","藤沢台小学校","大阪府富田林市藤沢台二丁目3-1",TRUE,TRUE,,TRUE,,TRUE,,,34.50526093,135.5734441
63484,"大阪府富田林市","府立金剛高等学校","大阪府富田林市藤沢台二丁目1-1",TRUE,TRUE,,TRUE,,TRUE,,,34.50357358,135.5737473
63485,"大阪府富田林市","葛城中学校","大阪府富田林市藤沢台三丁目4-1",TRUE,TRUE,,TRUE,,TRUE,,,34.50390857,135.5695005
63486,"大阪府富田林市","高辺台小学校","大阪府富田林市高辺台三丁目1-1",TRUE,TRUE,,TRUE,,TRUE,,,34.49974318,135.5692755
63487,"大阪府富田林市","久野喜台小学校","大阪府富田林市久野喜台一丁目16-1",TRUE,TRUE,,TRUE,,TRUE,,,34.50010947,135.5627198
63488,"大阪府富田林市","金剛中学校","大阪府富田林市寺池台一丁目1-1",TRUE,TRUE,,TRUE,,TRUE,,,34.4955602,135.5679989
63489,"大阪府富田林市","小金台小学校","大阪府富田林市小金台三丁目11-1",TRUE,TRUE,,TRUE,,TRUE,,,34.49673228,135.5798926
63490,"大阪府富田林市","明治池中学校","大阪府富田林市小金台二丁目11-1",TRUE,TRUE,,TRUE,,TRUE,,,34.4974776,135.5816809
63491,"大阪府富田林市","川西小学校","大阪府富田林市新家一丁目3-1",TRUE,TRUE,,TRUE,,TRUE,,,34.49349794,135.5878483
63492,"大阪府富田林市","第二中学校","大阪府富田林市新家一丁目4-1",TRUE,TRUE,,TRUE,,TRUE,,,34.49294083,135.5863032
63493,"大阪府富田林市","第三中学校","大阪府富田林市佐備15",TRUE,TRUE,,TRUE,,TRUE,,,34.48653367,135.6071254
63494,"大阪府富田林市","寺池台小学校","大阪府富田林市寺池台四丁目3-1",TRUE,TRUE,,TRUE,,TRUE,,,34.49046205,135.566691
63495,"大阪府富田林市","伏山台小学校","大阪府富田林市伏山二丁目1-1",TRUE,TRUE,,TRUE,,TRUE,,,34.48830822,135.5629819
63496,"大阪府富田林市","錦郡小学校","大阪府富田林市錦織南一丁目8-1",TRUE,TRUE,,TRUE,,TRUE,,,34.4788249,135.5822246
63497,"大阪府富田林市","彼方小学校西館","大阪府富田林市彼方411",TRUE,,,TRUE,,TRUE,,,34.47990574,135.5904202
63498,"大阪府富田林市","府立富田林支援学校","大阪府富田林市甘南備216",TRUE,TRUE,,TRUE,,TRUE,,,34.45447787,135.5960166
63512,"大阪府富田林市","初芝富田林中学校・高等学校","大阪府富田林市大字彼方1801",TRUE,TRUE,,TRUE,,TRUE,,,34.47217111,135.5900838
63514,"大阪府富田林市","大阪大谷大学","大阪府富田林市錦織北三丁目11-1",TRUE,TRUE,,TRUE,,TRUE,,,34.48265536,135.5799195
63574,"大阪府河内長野市","長野中学校","大阪府河内長野市本多町3-1",TRUE,TRUE,,TRUE,,TRUE,,,34.45508256,135.5673656
63575,"大阪府河内長野市","長野小学校","大阪府河内長野市西代町14-1",TRUE,TRUE,,TRUE,,TRUE,,,34.45399884,135.5647209
63576,"大阪府河内長野市","小山田小学校","大阪府河内長野市小山田町590-1",TRUE,TRUE,,TRUE,,TRUE,,,34.45701208,135.5566693
63577,"大阪府河内長野市","あやたホール","大阪府河内長野市小山田町1824-4",TRUE,TRUE,,TRUE,,TRUE,,,34.44617414,135.5473439
63578,"大阪府河内長野市","保健センター","大阪府河内長野市菊水町2-13",TRUE,TRUE,,TRUE,,TRUE,,,34.45172964,135.5736983
63579,"大阪府河内長野市","ノバティホール","大阪府河内長野市長野町5-1-303",TRUE,TRUE,,TRUE,,TRUE,,,34.45051241,135.5719541
63580,"大阪府河内長野市","ラブリーホール","大阪府河内長野市西代町12-46",TRUE,TRUE,,TRUE,,TRUE,,,34.4530514,135.5665941
63581,"大阪府河内長野市","キックス","大阪府河内長野市昭栄町7-1",TRUE,TRUE,,TRUE,,TRUE,,,34.45447292,135.5604547
63582,"大阪府河内長野市","東中学校","大阪府河内長野市日東町26-1",TRUE,TRUE,,TRUE,,TRUE,,,34.43846787,135.5783361
63583,"大阪府河内長野市","三日市小学校","大阪府河内長野市上田町380",TRUE,TRUE,,TRUE,,TRUE,,,34.43866514,135.5655255
63584,"大阪府河内長野市","川上小学校","大阪府河内長野市清見台4-18-1",TRUE,TRUE,,TRUE,,TRUE,,,34.43651137,135.5861966
63585,"大阪府河内長野市","天見小学校","大阪府河内長野市天見2370-1",TRUE,TRUE,,TRUE,,TRUE,,,34.39881258,135.5943511
63586,"大阪府河内長野市","三日市幼稚園","大阪府河内長野市上田町200-1",TRUE,TRUE,,TRUE,,TRUE,,,34.44066975,135.5684935
63587,"大阪府河内長野市","川上公民館","大阪府河内長野市寺元501",,,,TRUE,,TRUE,,,34.43546837,135.5984693
63588,"大阪府河内長野市","天見公民館","大阪府河内長野市岩瀬1244",TRUE,TRUE,,TRUE,,TRUE,,,34.41242991,135.5919799
63589,"大阪府河内長野市","総合体育館","大阪府河内長野市大師町25-1",TRUE,TRUE,,TRUE,,TRUE,,,34.44522248,135.5717292
63590,"大阪府河内長野市","福祉センター","大阪府河内長野市大師町26-1",TRUE,TRUE,,TRUE,,TRUE,,,34.44612268,135.5719428
63591,"大阪府河内長野市","くすのかホール","大阪府河内長野市清見台4-18-2",TRUE,TRUE,,TRUE,,TRUE,,,34.43685574,135.5865074
63592,"大阪府河内長野市","三日市市民ホール","大阪府河内長野市三日市町32-1",TRUE,TRUE,,TRUE,,TRUE,,,34.43681712,135.5701647
63593,"大阪府河内長野市","千代田中学校","大阪府河内長野市市町1367-1",TRUE,TRUE,,TRUE,,TRUE,,,34.46784086,135.5708129
63594,"大阪府河内長野市","千代田小学校","大阪府河内長野市木戸町649",TRUE,TRUE,,TRUE,,TRUE,,,34.46913552,135.571507
63595,"大阪府河内長野市","楠小学校","大阪府河内長野市楠町東1011",TRUE,TRUE,,TRUE,,TRUE,,,34.4699935,135.5621962
63596,"大阪府河内長野市","汐の宮保育園","大阪府河内長野市汐の宮町8-39",TRUE,TRUE,,TRUE,,TRUE,,,34.46901583,135.5797819
63597,"大阪府河内長野市","千代田公民館","大阪府河内長野市木戸西町1-2-9",TRUE,TRUE,,TRUE,,TRUE,,,34.46693635,135.5669954
63598,"大阪府河内長野市","西中学校","大阪府河内長野市下里町257-3",TRUE,TRUE,,TRUE,,TRUE,,,34.43641419,135.5406176
63599,"大阪府河内長野市","天野小学校","大阪府河内長野市下里町365",TRUE,TRUE,,TRUE,,TRUE,,,34.43768485,135.53875
63600,"大阪府河内長野市","高向小学校","大阪府河内長野市高向86",TRUE,TRUE,,TRUE,,TRUE,,,34.43404713,135.5457952
63601,"大阪府河内長野市","高向公民館","大阪府河内長野市高向515-3",TRUE,TRUE,,TRUE,,TRUE,,,34.43844055,135.5510513
63602,"大阪府河内長野市","天野公民館","大阪府河内長野市天野町1520-5",TRUE,TRUE,,TRUE,,TRUE,,,34.4379819,135.535411
63603,"大阪府河内長野市","滝畑ふるさと文化財の森センター","大阪府河内長野市滝畑483-3",TRUE,TRUE,,TRUE,,TRUE,,,34.38772788,135.5259455
63604,"大阪府河内長野市","みのでホール","大阪府河内長野市日野980",TRUE,TRUE,,TRUE,,TRUE,,,34.42067531,135.5402341
63605,"大阪府河内長野市","加賀田中学校","大阪府河内長野市石仏570",TRUE,TRUE,,TRUE,,TRUE,,,34.42011435,135.5731233
63606,"大阪府河内長野市","加賀田小学校","大阪府河内長野市加賀田568-1",TRUE,TRUE,,TRUE,,TRUE,,,34.42454729,135.5638293
63607,"大阪府河内長野市","石仏小学校","大阪府河内長野市石仏662",TRUE,TRUE,,TRUE,,TRUE,,,34.4221288,135.5737161
63608,"大阪府河内長野市","加賀田公民館","大阪府河内長野市加賀田617-4",,TRUE,,TRUE,,TRUE,,,34.42313241,135.5641538
63609,"大阪府河内長野市","南花台中学校","大阪府河内長野市南花台6-6-1",TRUE,TRUE,,TRUE,,TRUE,,,34.43406879,135.555336
63610,"大阪府河内長野市","旧南花台西小学校","大阪府河内長野市南花台4-24-1",TRUE,TRUE,,TRUE,,TRUE,,,34.42375919,135.5538876
63611,"大阪府河内長野市","南花台小学校","大阪府河内長野市南花台2-11-1",TRUE,TRUE,,TRUE,,TRUE,,,34.43032618,135.5602382
63612,"大阪府河内長野市","南花台公民館","大阪府河内長野市南花台8-4-1",TRUE,TRUE,,TRUE,,TRUE,,,34.43448123,135.5622185
63613,"大阪府河内長野市","美加の台中学校","大阪府河内長野市美加の台7-2-1",TRUE,TRUE,,TRUE,,TRUE,,,34.42427294,135.5870465
63614,"大阪府河内長野市","美加の台小学校","大阪府河内長野市美加の台3-25-1",TRUE,TRUE,,TRUE,,TRUE,,,34.42597654,135.5875883
63652,"大阪府大東市","大東市立北条小学校","大阪府大東市北条6-11-1",TRUE,,,TRUE,,TRUE,TRUE,,34.72368182,135.6448942
63653,"大阪府大東市","大東市立北条中学校","大阪府大東市北条2-19-30",TRUE,TRUE,,TRUE,,TRUE,TRUE,,34.72407629,135.6399497
63654,"大阪府大東市","大東市立四条北小学校","大阪府大東市西楠の里町14-1",TRUE,TRUE,,TRUE,,TRUE,TRUE,,34.72710059,135.6320369
63655,"大阪府大東市","大東市立四条小学校","大阪府大東市野崎4-6-1",TRUE,TRUE,,TRUE,,TRUE,TRUE,,34.71329113,135.6405734
63656,"大阪府大東市","大東市立四条中学校","大阪府大東市寺川2-7-1",TRUE,TRUE,,TRUE,,TRUE,TRUE,,34.70832936,135.6451273
63657,"大阪府大東市","大東市立深野小学校","大阪府大東市深野4-15-1",TRUE,TRUE,,TRUE,,TRUE,TRUE,,34.71756876,135.6330999
63658,"大阪府大東市","大東市立深野中学校","大阪府大東市深野北1-15-1",TRUE,TRUE,,TRUE,,TRUE,TRUE,,34.72144855,135.6332547
63659,"大阪府大東市","大東市立三箇小学校","大阪府大東市三箇1-23-1",TRUE,TRUE,,TRUE,,TRUE,TRUE,,34.71895936,135.6224342
63660,"大阪府大東市","大東市立氷野小学校","大阪府大東市大東町9-1",TRUE,TRUE,,TRUE,,TRUE,TRUE,,34.71384124,135.6203806
63661,"大阪府大東市","大東市立谷川中学校","大阪府大東市谷川2-6-1",TRUE,TRUE,,TRUE,,TRUE,TRUE,,34.71253447,135.6284831
63662,"大阪府大東市","大東市立住道北小学校","大阪府大東市浜町2-12",TRUE,TRUE,,TRUE,,TRUE,TRUE,,34.70828034,135.623116
63663,"大阪府大東市","大東市立泉小学校","大阪府大東市泉町1-3-1",TRUE,TRUE,,TRUE,,TRUE,TRUE,,34.70783037,135.6325616
63664,"大阪府大東市","大東市立住道南小学校","大阪府大東市末広町16-1",TRUE,TRUE,,TRUE,,TRUE,TRUE,,34.7036496,135.6191649
63665,"大阪府大東市","大東市立住道中学校","大阪府大東市末広町17-1",TRUE,TRUE,,TRUE,,TRUE,TRUE,,34.70540791,135.6197788
63666,"大阪府大東市","大東市立灰塚小学校","大阪府大東市灰塚1-3-1",TRUE,TRUE,,TRUE,,TRUE,TRUE,,34.70558125,135.6119322
63667,"大阪府大東市","大東市立大東中学校","大阪府大東市朋来1-30-1",TRUE,TRUE,,TRUE,,TRUE,TRUE,,34.69954053,135.613864
63668,"大阪府大東市","大東市立南郷小学校","大阪府大東市太子田1-12-38",TRUE,TRUE,,TRUE,,TRUE,TRUE,,34.70838077,135.6121122
63669,"大阪府大東市","大東市立南郷中学校","大阪府大東市赤井3-15-3",TRUE,TRUE,,TRUE,,TRUE,TRUE,,34.70749815,135.6158958
63670,"大阪府大東市","大東市立諸福小学校","大阪府大東市諸福1-2-2",TRUE,TRUE,,TRUE,,TRUE,TRUE,,34.7052963,135.6075762
63671,"大阪府大東市","大東市立諸福中学校","大阪府大東市諸福5-11-1",TRUE,TRUE,,TRUE,,TRUE,TRUE,,34.70387752,135.5991354
63672,"大阪府大東市","旧大東市立深野北小学校","大阪府大東市深野3-28-3",TRUE,TRUE,,,,TRUE,TRUE,,34.71937543,135.6336656
63673,"大阪府和泉市","和泉中学校","大阪府和泉市伯太町１−２−１",TRUE,TRUE,,TRUE,TRUE,TRUE,TRUE,,34.49275611,135.4299132
63674,"大阪府和泉市","郷荘中学校","大阪府和泉市寺門町１−１４−３５",TRUE,TRUE,,TRUE,TRUE,TRUE,TRUE,,34.47435409,135.4324749
63675,"大阪府和泉市","石尾中学校","大阪府和泉市万町９３０",TRUE,TRUE,,TRUE,TRUE,TRUE,TRUE,,34.45721595,135.4572965
63676,"大阪府和泉市","北池田中学校","大阪府和泉市いぶき野３−４−１",TRUE,TRUE,,TRUE,TRUE,TRUE,TRUE,,34.46664482,135.4555832
63677,"大阪府和泉市","南池田中学校","大阪府和泉市鍛治屋町２２６",TRUE,TRUE,,TRUE,TRUE,TRUE,TRUE,,34.44812212,135.4669814
63678,"大阪府和泉市","南松尾中学校","大阪府和泉市春木町６１５−４",TRUE,TRUE,,TRUE,TRUE,TRUE,TRUE,,34.43151709,135.450517
63679,"大阪府和泉市","槇尾中学校","大阪府和泉市仏並町１９８",TRUE,TRUE,,TRUE,TRUE,TRUE,TRUE,,34.42603322,135.487863
63680,"大阪府和泉市","富秋中学校","大阪府和泉市富秋町２−２−９８",TRUE,TRUE,,TRUE,,TRUE,TRUE,,34.50656996,135.4354319
63681,"大阪府和泉市","信太中学校","大阪府和泉市鶴山台１−１−１",TRUE,TRUE,,TRUE,TRUE,TRUE,TRUE,,34.5055782,135.4484832
63682,"大阪府和泉市","光明台中学校","大阪府和泉市光明台１−２８−１",TRUE,TRUE,,TRUE,TRUE,TRUE,TRUE,,34.45751582,135.4864335
63683,"大阪府和泉市","国府小学校","大阪府和泉市府中町２−５−２０",TRUE,TRUE,,TRUE,TRUE,TRUE,TRUE,,34.48345967,135.4257853
63684,"大阪府和泉市","和気小学校","大阪府和泉市和気町４−９−１",TRUE,TRUE,,TRUE,TRUE,TRUE,TRUE,,34.47564608,135.428478
63685,"大阪府和泉市","伯太小学校","大阪府和泉市伯太町２−２４−２２",TRUE,TRUE,,TRUE,TRUE,TRUE,TRUE,,34.49265735,135.4372643
63686,"大阪府和泉市","池上小学校","大阪府和泉市池上町３−１４−４５",TRUE,TRUE,,TRUE,,TRUE,TRUE,,34.50268215,135.4301631
63687,"大阪府和泉市","黒鳥小学校","大阪府和泉市黒鳥町１−６−５",TRUE,TRUE,,TRUE,TRUE,TRUE,TRUE,,34.48988696,135.4367673
63688,"大阪府和泉市","芦部小学校","大阪府和泉市芦部町２２４−３",TRUE,TRUE,,TRUE,TRUE,TRUE,TRUE,,34.48058293,135.4410289
63689,"大阪府和泉市","北池田小学校","大阪府和泉市池田下町１６７０",TRUE,TRUE,,TRUE,TRUE,TRUE,TRUE,,34.47136054,135.4609908
63690,"大阪府和泉市","いぶき野小学校","大阪府和泉市いぶき野３−３−１",TRUE,TRUE,,TRUE,TRUE,TRUE,TRUE,,34.4671165,135.4534135
63691,"大阪府和泉市","南池田小学校","大阪府和泉市納花町１８１",TRUE,TRUE,,TRUE,TRUE,TRUE,TRUE,,34.44787466,135.4740059
63692,"大阪府和泉市","緑ケ丘小学校","大阪府和泉市緑ヶ丘３−４−１",TRUE,TRUE,,TRUE,TRUE,TRUE,TRUE,,34.44547529,135.4592483
63693,"大阪府和泉市","青葉はつが野小学校","大阪府和泉市はつが野１−５０−１",TRUE,TRUE,,TRUE,TRUE,TRUE,TRUE,,34.44296894,135.4632489
63694,"大阪府和泉市","北松尾小学校","大阪府和泉市唐国町３−３−１９",TRUE,TRUE,,TRUE,TRUE,TRUE,TRUE,,34.45863865,135.4467804
63695,"大阪府和泉市","南松尾小学校","大阪府和泉市久井町４３０",TRUE,TRUE,,TRUE,TRUE,TRUE,TRUE,,34.4195435,135.4585906
63696,"大阪府和泉市","横山小学校","大阪府和泉市北田中町１８３",TRUE,TRUE,,TRUE,TRUE,TRUE,TRUE,,34.42934514,135.4954575
63697,"大阪府和泉市","幸小学校","大阪府和泉市幸２−３−１",TRUE,TRUE,,TRUE,TRUE,TRUE,TRUE,,34.50001462,135.4362204
63698,"大阪府和泉市","信太小学校","大阪府和泉市尾井町２−８−１７",TRUE,TRUE,,TRUE,TRUE,TRUE,TRUE,,34.50555599,135.4438767
63699,"大阪府和泉市","鶴山台北小学校","大阪府和泉市鶴山台１−９−１",TRUE,TRUE,,TRUE,TRUE,TRUE,TRUE,,34.5076247,135.4511873
63700,"大阪府和泉市","鶴山台南小学校","大阪府和泉市鶴山台４−１−１",TRUE,TRUE,,TRUE,TRUE,TRUE,TRUE,,34.49958883,135.4483459
63701,"大阪府和泉市","光明台北小学校","大阪府和泉市光明台１−３５−１",TRUE,TRUE,,TRUE,TRUE,TRUE,TRUE,,34.45674346,135.4830523
63702,"大阪府和泉市","光明台南小学校","大阪府和泉市光明台３−８−１",TRUE,TRUE,,TRUE,TRUE,TRUE,TRUE,,34.4528077,135.4887444
63703,"大阪府和泉市","南部リージョンセンター","大阪府和泉市仏並町３９８−１",TRUE,TRUE,,TRUE,TRUE,TRUE,TRUE,,34.42330326,135.4830999
63708,"大阪府箕面市","箕面小学校","大阪府箕面市百楽荘1-8-7",,,,TRUE,,TRUE,TRUE,,34.82486168,135.4664845
63709,"大阪府箕面市","萱野小学校","大阪府箕面市萱野2-7-40",,TRUE,,TRUE,,TRUE,TRUE,,34.83042837,135.4873379
63710,"大阪府箕面市","中央生涯学習センター・メイプルホール","大阪府箕面市箕面5-11-23",,TRUE,,TRUE,,TRUE,TRUE,,34.83084846,135.4715632
63711,"大阪府箕面市","南小学校","大阪府箕面市桜6-5-1",,TRUE,,TRUE,,TRUE,TRUE,,34.82049252,135.4606202
63712,"大阪府箕面市","西小学校","大阪府箕面市新稲3-12-2",,TRUE,,TRUE,,TRUE,TRUE,,34.82970427,135.4631772
63713,"大阪府箕面市","東小学校","大阪府箕面市粟生新家5-5-1",,,,TRUE,,TRUE,TRUE,,34.83985647,135.5123819
63714,"大阪府箕面市","西南小学校","大阪府箕面市瀬川3-2-1",TRUE,,,TRUE,,TRUE,TRUE,,34.81243692,135.4529528
63715,"大阪府箕面市","萱野東小学校","大阪府箕面市石丸1-18-1",,TRUE,,TRUE,,TRUE,TRUE,,34.83759924,135.4966302
63716,"大阪府箕面市","豊川北小学校","大阪府箕面市粟生間谷西4-3-1",,TRUE,,TRUE,,TRUE,TRUE,,34.84716898,135.5081232
63717,"大阪府箕面市","中小学校","大阪府箕面市稲1-15-8",,,,TRUE,,TRUE,TRUE,,34.82814724,135.4753723
63718,"大阪府箕面市","豊川南小学校","大阪府箕面市小野原東3-2-1",,,,TRUE,,TRUE,TRUE,,34.83188629,135.5175285
63719,"大阪府箕面市","第二中学校","大阪府箕面市萱野1-15-12",,TRUE,,TRUE,,TRUE,TRUE,,34.83047881,135.4806231
63720,"大阪府箕面市","とどろみの森学園","大阪府箕面市森町中1-23-14",TRUE,TRUE,,TRUE,,TRUE,TRUE,,34.88597363,135.4610863
63721,"大阪府箕面市","彩都の丘学園","大阪府箕面市彩都粟生北2-1-5",,TRUE,,TRUE,,TRUE,TRUE,,34.85763296,135.5116687
63722,"大阪府柏原市","東大阪大学柏原高等学校","大阪府柏原市本郷５−９９３",TRUE,,,TRUE,,TRUE,,,34.5905313,135.6093535
63726,"大阪府柏原市","柏原小学校","大阪府柏原市大正１−９−５３",TRUE,,,TRUE,,TRUE,,,34.58751661,135.6206187
63727,"大阪府柏原市","勤労者センター（K.I.ホール）","大阪府柏原市大正２−１０−１",TRUE,,,TRUE,,TRUE,,,34.5836644,135.617669
63729,"大阪府柏原市","柏原中学校","大阪府柏原市堂島町１−２８",TRUE,,,TRUE,,TRUE,,,34.58943143,135.6225147
63731,"大阪府柏原市","公民館・図書館（文化センター）","大阪府柏原市上市４−１−２７",TRUE,,,,,TRUE,,,34.58705283,135.6258564
63732,"大阪府柏原市","柏原東小学校","大阪府柏原市大県１−８−５",TRUE,TRUE,,TRUE,,TRUE,,,34.58794693,135.6267243
63734,"大阪府柏原市","堅下北小学校","大阪府柏原市法善寺４−３５９−５",TRUE,TRUE,,TRUE,,TRUE,,,34.59782075,135.6290242
63737,"大阪府柏原市","堅下北中学校","大阪府柏原市平野２−４０３−１",TRUE,,,TRUE,,TRUE,,,34.59670161,135.6338767
63738,"大阪府柏原市","堅下小学校","大阪府柏原市平野２−１−５",TRUE,,,TRUE,,TRUE,,,34.59157477,135.6313772
63741,"大阪府柏原市","堅下合同会館","大阪府柏原市大県３−９−１９",TRUE,TRUE,,TRUE,,TRUE,,,34.58887197,135.6287429
63742,"大阪府柏原市","堅下南中学校","大阪府柏原市安堂町８７８",TRUE,,,TRUE,,TRUE,,,34.58097937,135.6348537
63743,"大阪府柏原市","堅下南小学校","大阪府柏原市安堂町７１０",TRUE,TRUE,,TRUE,,TRUE,,,34.5802992,135.6336949
63745,"大阪府柏原市","市民文化会館（リビエールホール）","大阪府柏原市安堂町１−６０",TRUE,,,TRUE,,TRUE,,,34.57984575,135.6283154
63746,"大阪府柏原市","歴史資料館","大阪府柏原市高井田１５９８−１",TRUE,,,TRUE,,TRUE,,,34.573362,135.6389318
63747,"大阪府柏原市","大阪府立修徳学院","大阪府柏原市高井田８０９−１",TRUE,TRUE,,TRUE,,TRUE,,,34.57307423,135.6432724
63748,"大阪府柏原市","大阪府立柏原東高等学校","大阪府柏原市高井田１０１５",TRUE,,,TRUE,,TRUE,,,34.57533041,135.6466955
63749,"大阪府柏原市","堅上合同会館","大阪府柏原市雁多尾畑４８１２−１",,,,,,TRUE,,,34.58689079,135.6646901
63750,"大阪府柏原市","堅上中学校","大阪府柏原市雁多尾畑５９０５",,TRUE,,TRUE,,TRUE,,,34.58317854,135.661612
63751,"大阪府柏原市","堅上小学校","大阪府柏原市雁多尾畑５９５５",,,,TRUE,,TRUE,,,34.58484016,135.6629715
63752,"大阪府柏原市","堅上コミュニティ会館","大阪府柏原市青谷２０７２",,TRUE,,TRUE,,TRUE,,,34.57730968,135.6591131
63753,"大阪府柏原市","玉手小学校","大阪府柏原市円明町１−１",TRUE,,,TRUE,,TRUE,,,34.56307755,135.6265114
63756,"大阪府柏原市","玉手中学校","大阪府柏原市玉手町２０−１７",,TRUE,,TRUE,,TRUE,,,34.56516311,135.6269925
63758,"大阪府柏原市","体育館（柏原オーエンスアリーナ）","大阪府柏原市玉手町２５−８０",TRUE,,,,,TRUE,,,34.56707558,135.6304399
63759,"大阪府柏原市","国分合同会館","大阪府柏原市国分本町２−７−２",TRUE,TRUE,,,,TRUE,,,34.56521375,135.6364292
63761,"大阪府柏原市","国分小学校","大阪府柏原市国分本町６−１１−４",TRUE,TRUE,,TRUE,,TRUE,,,34.56583391,135.6393596
63764,"大阪府柏原市","国分中学校","大阪府柏原市国分本町７−１−２０",TRUE,TRUE,,TRUE,,TRUE,,,34.56439435,135.6417688
63765,"大阪府柏原市","国分東小学校","大阪府柏原市国分東条町３７０４−１",TRUE,,,TRUE,,TRUE,,,34.56532026,135.6550165
63767,"大阪府柏原市","旭ヶ丘小学校","大阪府柏原市旭ヶ丘３−４８９６",TRUE,TRUE,,TRUE,,TRUE,,,34.55624514,135.6346712
63768,"大阪府柏原市","学校法人玉手山学園","大阪府柏原市旭ヶ丘３−１１−１",TRUE,,,TRUE,,TRUE,,,34.55787145,135.6366751
63807,"大阪府羽曳野市","古市小学校","大阪府羽曳野市古市1-2-5",TRUE,TRUE,,TRUE,,,,,34.554095,135.610417
63808,"大阪府羽曳野市","古市南小学校","大阪府羽曳野市古市5-14-38",TRUE,TRUE,,TRUE,,,,,34.547678,135.611007
63809,"大阪府羽曳野市","府立西浦支援学校","大阪府羽曳野市西浦2-1797",TRUE,TRUE,,TRUE,,,,,34.544517,135.605619
63810,"大阪府羽曳野市","白鳥小学校","大阪府羽曳野市白鳥3-8-17",TRUE,TRUE,,TRUE,,,,,34.555866,135.603626
63811,"大阪府羽曳野市","誉田中学校","大阪府羽曳野市誉田6-5-37",TRUE,TRUE,,TRUE,,,,,34.561555,135.61241
63812,"大阪府羽曳野市","高鷲小学校","大阪府羽曳野市島泉2-1-19",TRUE,TRUE,,TRUE,,,,,34.574128,135.577949
63813,"大阪府羽曳野市","高鷲南小学校","大阪府羽曳野市高鷲2-12-1",TRUE,TRUE,,TRUE,,,,,34.566469,135.585399
63814,"大阪府羽曳野市","恵我之荘小学校","大阪府羽曳野市南恵我之荘7-8-35",TRUE,TRUE,,TRUE,,,,,34.572276,135.570606
63815,"大阪府羽曳野市","高鷲北小学校","大阪府羽曳野市島泉4-3-33",TRUE,TRUE,,TRUE,,,,,34.578613,135.578317
63816,"大阪府羽曳野市","高鷲中学校","大阪府羽曳野市島泉9-14-4",TRUE,TRUE,,TRUE,,,,,34.573262,135.582596
63817,"大阪府羽曳野市","高鷲南中学校","大阪府羽曳野市高鷲2-2-1",TRUE,TRUE,,TRUE,,,,,34.568365,135.584219
63818,"大阪府羽曳野市","羽曳野中学校","大阪府羽曳野市伊賀5-6-37",TRUE,TRUE,,TRUE,,,,,34.559595,135.583433
63819,"大阪府羽曳野市","埴生南小学校","大阪府羽曳野市はびきの6-6-1",TRUE,TRUE,,TRUE,,,,,34.552058,135.585104
63820,"大阪府羽曳野市","西浦小学校","大阪府羽曳野市西浦1050",TRUE,TRUE,,TRUE,,,,,34.537129,135.603479
63821,"大阪府羽曳野市","峰塚中学校","大阪府羽曳野市西浦6-48",TRUE,TRUE,,TRUE,,,,,34.549868,135.596953
63822,"大阪府羽曳野市","西浦東小学校","大阪府羽曳野市広瀬75-3",TRUE,TRUE,,TRUE,,,,,34.531452,135.612853
63823,"大阪府羽曳野市","羽曳が丘小学校","大阪府羽曳野市羽曳が丘6-8-1",TRUE,TRUE,,TRUE,,,,,34.540455,135.592778
63824,"大阪府羽曳野市","丹比小学校","大阪府羽曳野市郡戸206",TRUE,TRUE,,TRUE,,,,,34.551194,135.57485
63825,"大阪府羽曳野市","河原城中学校","大阪府羽曳野市桃山台4-123",TRUE,TRUE,,TRUE,,,,,34.549652,135.580165
63826,"大阪府羽曳野市","駒ケ谷小学校","大阪府羽曳野市駒ケ谷344-1",TRUE,TRUE,,TRUE,,,,,34.541984,135.626789
63827,"大阪府羽曳野市","府立懐風館高校","大阪府羽曳野市大黒776",TRUE,TRUE,,TRUE,,,,,34.539447,135.622426
63828,"大阪府羽曳野市","青少年児童センター","大阪府羽曳野市向野3-1-33",TRUE,TRUE,,TRUE,,,,,34.560733,135.579866
63829,"大阪府羽曳野市","羽曳野市民会館","大阪府羽曳野市誉田1-4-4",TRUE,TRUE,,,,,,,34.555349,135.610417
63830,"大阪府羽曳野市","羽曳野市立総合スポーツセンター　はびきのコロセアム","大阪府羽曳野市南恵我之荘4-237-4",TRUE,TRUE,,TRUE,,,,,34.563178,135.573354
63831,"大阪府羽曳野市","羽曳野市立陵南の森総合センター","大阪府羽曳野市島泉8-8-1",TRUE,TRUE,,TRUE,,,,,34.575721,135.585208
63832,"大阪府羽曳野市","羽曳野市立生活文化情報センター　ＬＩＣはびきの","大阪府羽曳野市軽里1-1-1",TRUE,TRUE,,TRUE,,,,,34.553768,135.597738
63833,"大阪府門真市","門真市立門真小学校","大阪府門真市柳町４-１",TRUE,,,TRUE,,TRUE,TRUE,,34.73777393,135.5861911
63834,"大阪府門真市","門真市立大和田小学校","大阪府門真市大橋町21-46",TRUE,,,TRUE,,TRUE,TRUE,,34.73549374,135.5971132
63835,"大阪府門真市","門真市立二島小学校","大阪府門真市三ツ島１-５-10",TRUE,,,TRUE,,TRUE,TRUE,,34.72120733,135.5944214
63836,"大阪府門真市","門真市立四宮小学校","大阪府門真市四宮２-８-１",TRUE,,,TRUE,,TRUE,TRUE,,34.73645765,135.6161446
63837,"大阪府門真市","門真市立古川橋小学校","大阪府門真市御堂町18-９",TRUE,,,TRUE,,TRUE,TRUE,,34.74451442,135.5966999
63838,"大阪府門真市","門真市立沖小学校","大阪府門真市沖町28-１",TRUE,,,TRUE,,TRUE,TRUE,,34.73135496,135.6041011
63839,"大阪府門真市","門真市立上野口小学校","大阪府門真市上野口町31-１",TRUE,,,TRUE,,TRUE,TRUE,,34.74005632,135.606494
63840,"大阪府門真市","門真市立速見小学校","大阪府門真市速見町４-１",TRUE,,,TRUE,,TRUE,TRUE,,34.73558521,135.592153
63841,"大阪府門真市","門真市立脇田小学校","大阪府門真市脇田町４-１",TRUE,,,TRUE,,TRUE,TRUE,,34.7229405,135.6130172
63842,"大阪府門真市","門真市立北巣本小学校","大阪府門真市北巣本町２-11",TRUE,,,TRUE,,TRUE,TRUE,,34.74299896,135.6162405
63843,"大阪府門真市","門真市立五月田小学校","大阪府門真市北島町27-１",TRUE,,,TRUE,,TRUE,TRUE,,34.72655419,135.5975725
63844,"大阪府門真市","門真市立東小学校","大阪府門真市岸和田３-42-１",TRUE,,,TRUE,,TRUE,TRUE,,34.72476549,135.6200508
63845,"大阪府門真市","門真市立砂子小学校","大阪府門真市三ツ島６-２-１",TRUE,,,TRUE,,TRUE,TRUE,,34.72156952,135.6068197
63846,"大阪府門真市","門真市立門真みらい小学校","大阪府門真市浜町22-41",TRUE,,,TRUE,,TRUE,TRUE,,34.74607641,135.5876161
63847,"大阪府門真市","門真市立第二中学校","大阪府門真市沖町10-１",TRUE,,,TRUE,,TRUE,TRUE,,34.72960613,135.6012451
63848,"大阪府門真市","門真市立第三中学校","大阪府門真市柳田町12-６",TRUE,,,TRUE,,TRUE,TRUE,,34.73234284,135.5903865
63849,"大阪府門真市","門真市立第四中学校","大阪府門真市江端町３-１",TRUE,,,TRUE,,TRUE,TRUE,,34.72265459,135.6144068
63850,"大阪府門真市","門真市立第五中学校","大阪府門真市北岸和田３-12-１",TRUE,,,TRUE,,TRUE,TRUE,,34.73499044,135.6201395
63851,"大阪府門真市","門真市立第七中学校","大阪府門真市北島町29-１",TRUE,,,TRUE,,TRUE,TRUE,,34.72585317,135.5980446
63852,"大阪府門真市","門真市立門真はすはな中学校","大阪府門真市中町２-１",TRUE,,,TRUE,,TRUE,TRUE,,34.74088348,135.5865125
63853,"大阪府門真市","大阪府立門真西高等学校","大阪府門真市柳田町29-１",TRUE,,,TRUE,,TRUE,TRUE,,34.72879242,135.5906551
63854,"大阪府門真市","大阪府立門真なみはや高等学校","大阪府門真市島頭４-９-１",TRUE,,,TRUE,,TRUE,TRUE,,34.72838174,135.6094453
63855,"大阪府門真市","門真市立門真市民プラザ","大阪府門真市北島546",TRUE,,,TRUE,,TRUE,TRUE,,34.72741797,135.6008759
63856,"大阪府摂津市","第三中学校","大阪府摂津市学園町1-3-1",TRUE,,,TRUE,,TRUE,TRUE,,34.78498346,135.5590044
63857,"大阪府摂津市","三宅柳田小学校","大阪府摂津市学園町2-9-1",TRUE,,,TRUE,,TRUE,TRUE,,34.7841749,135.5602615
63858,"大阪府摂津市","摂津小学校","大阪府摂津市三島3-14-60",TRUE,,,TRUE,,TRUE,TRUE,,34.78141825,135.5557756
63859,"大阪府摂津市","第一中学校","大阪府摂津市南千里丘3-20",TRUE,,,TRUE,,TRUE,TRUE,,34.78377963,135.5553929
63860,"大阪府摂津市","味舌小学校","大阪府摂津市三島2-13-38",TRUE,,,TRUE,,TRUE,TRUE,,34.77653154,135.556285
63861,"大阪府摂津市","安威川公民館","大阪府摂津市正雀4-9-28",TRUE,,,TRUE,,TRUE,TRUE,,34.77251888,135.5533829
63862,"大阪府摂津市","市民図書館","大阪府摂津市正雀4-9-25",TRUE,,,TRUE,,TRUE,TRUE,,34.77239549,135.5531737
63863,"大阪府摂津市","別府小学校","大阪府摂津市東別府5-1-33",TRUE,,,TRUE,,TRUE,TRUE,,34.77073963,135.5576704
63864,"大阪府摂津市","第四中学校","大阪府摂津市東別府4-6-1",TRUE,,,TRUE,,TRUE,TRUE,,34.7673878,135.5576515
63865,"大阪府摂津市","味生体育館","大阪府摂津市別府2-3-1",TRUE,,,TRUE,,TRUE,TRUE,,34.76784525,135.5533169
63866,"大阪府摂津市","味生小学校","大阪府摂津市一津屋2-19-1",TRUE,,,TRUE,,TRUE,TRUE,,34.7600908,135.5649292
63867,"大阪府摂津市","鳥飼西小学校","大阪府摂津市鳥飼西3-1-1",TRUE,,,TRUE,,TRUE,TRUE,,34.76931493,135.5801303
63868,"大阪府摂津市","第二中学校","大阪府摂津市鳥飼八防2-1-1",TRUE,,,TRUE,,TRUE,TRUE,,34.77093281,135.575225
63869,"大阪府摂津市","鳥飼小学校","大阪府摂津市鳥飼下1-7-1",TRUE,,,TRUE,,TRUE,TRUE,,34.77757674,135.5889976
63870,"大阪府摂津市","鳥飼北小学校","大阪府摂津市鳥飼本町5-10-1",TRUE,,,TRUE,,TRUE,TRUE,,34.77635385,135.5786291
63871,"大阪府摂津市","第五中学校","大阪府摂津市鳥飼新町1-10-1",TRUE,,,TRUE,,TRUE,TRUE,,34.78622106,135.5874437
63872,"大阪府摂津市","鳥飼東小学校","大阪府摂津市鳥飼上3-4-51",TRUE,,,TRUE,,TRUE,TRUE,,34.78639729,135.5929637
63873,"大阪府摂津市","コミュニティプラザ","大阪府摂津市南千里丘5-35",TRUE,,,TRUE,,TRUE,TRUE,,34.7861764,135.5546619
63874,"大阪府摂津市","千里丘小学校","大阪府摂津市千里丘3-15-4",,,,TRUE,,TRUE,,,34.78912655,135.5442873
63875,"大阪府摂津市","千里丘公民館","大阪府摂津市千里丘3-9-47",,,,TRUE,,TRUE,,,34.78753712,135.547166
63876,"大阪府摂津市","子育て総合支援センター遊戯室（旧三宅スポーツセンター）","大阪府摂津市千里丘東1-17-46",,,,TRUE,,TRUE,,,34.79274529,135.5549292
63877,"大阪府摂津市","正雀体育館","大阪府摂津市正雀4-2-3",TRUE,,,TRUE,,TRUE,TRUE,,34.77444015,135.5557616
63878,"大阪府摂津市","味生公民館","大阪府摂津市一津屋1-16-13",TRUE,,,TRUE,,TRUE,TRUE,,34.76146877,135.5676449
63879,"大阪府摂津市","新鳥飼公民館","大阪府摂津市鳥飼本町1-9-45",TRUE,,,TRUE,,TRUE,TRUE,,34.77896906,135.5858539
63880,"大阪府摂津市","鳥飼体育館","大阪府摂津市鳥飼本町1-9-45",TRUE,,,TRUE,,TRUE,TRUE,,34.77915412,135.5855749
63881,"大阪府摂津市","鳥飼東公民館","大阪府摂津市鳥飼上2-3-55",TRUE,,,TRUE,,TRUE,TRUE,,34.78652744,135.5969744
63908,"大阪府摂津市","学校法人浪工学園星翔高等学校知新館","大阪府摂津市三島3-5-36",TRUE,,,,,,TRUE,,34.77905863,135.5547888
63910,"大阪府摂津市","別府コミュニティセンター","大阪府摂津市別府2-10-21",TRUE,,,TRUE,,TRUE,TRUE,,34.76570432,135.5538397
63911,"大阪府高石市","コミュニティセンター(デージードーム)","高石市千代田4丁目5-25",,,,,TRUE,,,,34.52178385,135.4264496
63912,"大阪府高石市","高陽小学校","高石市千代田5丁目8-40",,,,,TRUE,,,,34.51900811,135.4277561
63913,"大阪府高石市","高石小学校","高石市高師浜3丁目19-17",,,,,TRUE,,,,34.52409127,135.4330146
63914,"大阪府高石市","羽衣小学校","高石市羽衣3丁目2-52",,,,,TRUE,,,,34.53229555,135.4396521
63915,"大阪府高石市","総合保健センター","高石市羽衣4丁目4-26",,,,,TRUE,,,,34.53149536,135.4359176
63916,"大阪府高石市","東羽衣小学校","高石市東羽衣2丁目21-32",,,,,TRUE,,,,34.53136836,135.4434356
63917,"大阪府高石市","高石中学校","高石市東羽衣6丁目6-45",,,,,TRUE,,,,34.52543749,135.4467086
63918,"大阪府高石市","たかいし市民文化会館(アプラホール)","高石市綾園1丁目9-1",,,,,TRUE,,,,34.52120329,135.4340156
63919,"大阪府高石市","ふれあいゾーン複合センター","高石市綾園4丁目5-27",,,,,TRUE,,,,34.51759283,135.4332237
63920,"大阪府高石市","高南中学校","高石市綾園5丁目4-52",,,,,TRUE,,,,34.51668182,135.4305844
63921,"大阪府高石市","清高小学校","高石市西取石8丁目5-1",,,,,TRUE,,,,34.51623335,135.4407453
63922,"大阪府高石市","慶翠苑(パンセ羽衣)","高石市羽衣1丁目11-22",,,,,TRUE,,,,34.53586814,135.4404462
63923,"大阪府高石市","東羽衣公民館","高石市東羽衣3丁目15-30",,,,,TRUE,,,,34.53139927,135.4414985
63924,"大阪府高石市","中央公民館","高石市加茂1丁目5-7",,,,,TRUE,,,,34.52497241,135.4401951
63925,"大阪府高石市","加茂小学校","高石市加茂3丁目4-34",,,,,TRUE,,,,34.52125467,135.4429803
63926,"大阪府高石市","市立総合体育館","高石市西取石6丁目5-6",,,,,TRUE,,,,34.52047408,135.4447377
63927,"大阪府高石市","東コミュニティセンター(とろしプラザ)","高石市取石3丁目9-8",,,,,TRUE,,,,34.51844806,135.4534157
63928,"大阪府高石市","取石中学校","高石市取石3丁目11-1",,,,,TRUE,,,,34.51772134,135.4519409
63929,"大阪府高石市","取石小学校","高石市取石3丁目14-23",,,,,TRUE,,,,34.5176869,135.449362
63976,"大阪府東大阪市","孔舎衙中学校","大阪府東大阪市善根寺町１-６-１",TRUE,TRUE,,TRUE,,TRUE,TRUE,,34.69873529,135.6519137
63977,"大阪府東大阪市","孔舎衙小学校","大阪府東大阪市日下町６-３-６",TRUE,TRUE,,TRUE,,TRUE,TRUE,,34.69598659,135.6452954
63978,"大阪府東大阪市","孔舎衙東小学校","大阪府東大阪市日下町７-１-７",TRUE,TRUE,,TRUE,,TRUE,TRUE,,34.69472535,135.6486273
63979,"大阪府東大阪市","石切中学校","大阪府東大阪市中石切町４-１０-３",TRUE,TRUE,,TRUE,,TRUE,TRUE,,34.68925204,135.6449583
63980,"大阪府東大阪市","石切東小学校","大阪府東大阪市上石切町２-８-３０",TRUE,TRUE,,TRUE,,TRUE,TRUE,,34.68559056,135.6571842
63981,"大阪府東大阪市","石切小学校","大阪府東大阪市中石切町１-６-５０",TRUE,TRUE,,TRUE,,TRUE,TRUE,,34.68348933,135.6442926
63982,"大阪府東大阪市","枚岡東小学校","大阪府東大阪市立花町１２-２８",TRUE,TRUE,,TRUE,,TRUE,TRUE,,34.67464409,135.6500294
63983,"大阪府東大阪市","枚岡西小学校","大阪府東大阪市南荘町２-２６",TRUE,TRUE,,TRUE,,TRUE,TRUE,,34.67453346,135.6419924
63984,"大阪府東大阪市","枚岡中学校","大阪府東大阪市箱殿町８-２５",TRUE,TRUE,,TRUE,,TRUE,TRUE,,34.67136799,135.6435228
63985,"大阪府東大阪市","縄手北中学校","大阪府東大阪市河内町１-１",TRUE,TRUE,,TRUE,,TRUE,TRUE,,34.66622112,135.6439899
63986,"大阪府東大阪市","縄手東小学校","大阪府東大阪市河内町２-６",TRUE,TRUE,,TRUE,,TRUE,TRUE,,34.66650791,135.6453364
63987,"大阪府東大阪市","縄手北小学校","大阪府東大阪市旭町２-４",TRUE,TRUE,,TRUE,,TRUE,TRUE,,34.66655634,135.6387296
63988,"大阪府東大阪市","上四条小学校","大阪府東大阪市上四条町１４-２５",TRUE,TRUE,,TRUE,,TRUE,TRUE,,34.65841589,135.6480751
63989,"大阪府東大阪市","縄手小学校","大阪府東大阪市南四条町３-２",TRUE,TRUE,,TRUE,,TRUE,TRUE,,34.65672215,135.6398346
63990,"大阪府東大阪市","縄手中学校","大阪府東大阪市南四条町３-２６",TRUE,TRUE,,TRUE,,TRUE,TRUE,,34.65603377,135.6407198
63991,"大阪府東大阪市","縄手南小学校","大阪府東大阪市六万寺町２-３-１７",TRUE,TRUE,,TRUE,,TRUE,TRUE,,34.65060155,135.6416496
63992,"大阪府東大阪市","縄手南中学校","大阪府東大阪市横小路町３-１２-５",TRUE,TRUE,,TRUE,,TRUE,TRUE,,34.64483521,135.6416093
63993,"大阪府東大阪市","池島小学校","大阪府東大阪市池島町３-６-３０",TRUE,TRUE,,TRUE,,TRUE,TRUE,,34.65374256,135.6319509
63994,"大阪府東大阪市","池島中学校","大阪府東大阪市池島町３-１０-１",TRUE,TRUE,,TRUE,,TRUE,TRUE,,34.65272761,135.6298803
63995,"大阪府東大阪市","鴻池東小学校","大阪府東大阪市東鴻池町５-７-２０",TRUE,TRUE,,TRUE,,TRUE,TRUE,,34.69557368,135.6104439
63996,"大阪府東大阪市","成和小学校","大阪府東大阪市南鴻池町１-３-１８",TRUE,TRUE,,TRUE,,TRUE,TRUE,,34.69464113,135.60083
63997,"大阪府東大阪市","盾津中学校","大阪府東大阪市新庄南１-３３",TRUE,TRUE,,TRUE,,TRUE,TRUE,,34.68703411,135.6049744
63998,"大阪府東大阪市","加納小学校","大阪府東大阪市加納３-６-８",TRUE,TRUE,,TRUE,,TRUE,TRUE,,34.69513541,135.6247287
63999,"大阪府東大阪市","盾津東中学校","大阪府東大阪市川田３-２-２６",TRUE,TRUE,,TRUE,,TRUE,TRUE,,34.68971529,135.6246762
64000,"大阪府東大阪市","北宮小学校","大阪府東大阪市川田２-３-７",TRUE,TRUE,,TRUE,,TRUE,TRUE,,34.68872868,135.6199882
64001,"大阪府東大阪市","弥栄小学校","大阪府東大阪市本庄１-８-２",TRUE,TRUE,,TRUE,,TRUE,TRUE,,34.6825858,135.6087199
64002,"大阪府東大阪市","岩田西小学校","大阪府東大阪市岩田町５-１２-２７",TRUE,TRUE,,TRUE,,TRUE,TRUE,,34.66599299,135.605136
64003,"大阪府東大阪市","玉川小学校","大阪府東大阪市稲葉１-１２-１",TRUE,TRUE,,TRUE,,TRUE,TRUE,,34.66941571,135.6128679
64004,"大阪府東大阪市","玉川中学校","大阪府東大阪市岩田町１-１６-１",TRUE,TRUE,,TRUE,,TRUE,TRUE,,34.66392769,135.6127562
64005,"大阪府東大阪市","英田中学校","大阪府東大阪市吉田本町１-６-１０",TRUE,TRUE,,TRUE,,TRUE,TRUE,,34.67267747,135.6231038
64006,"大阪府東大阪市","英田北小学校","大阪府東大阪市松原１-１-２７",TRUE,TRUE,,TRUE,,TRUE,TRUE,,34.67320627,135.6260115
64007,"大阪府東大阪市","英田南小学校","大阪府東大阪市吉田５-１５-１６",TRUE,TRUE,,TRUE,,TRUE,TRUE,,34.66627286,135.6232261
64008,"大阪府東大阪市","玉美小学校","大阪府東大阪市瓜生堂１-６-１",TRUE,TRUE,,TRUE,,TRUE,TRUE,,34.66197156,135.6051591
64009,"大阪府東大阪市","若江小学校","大阪府東大阪市若江南町２-９-５４",TRUE,TRUE,,TRUE,,TRUE,TRUE,,34.65438117,135.6026923
64010,"大阪府東大阪市","若江中学校","大阪府東大阪市若江南町５-１-１０",TRUE,TRUE,,TRUE,,TRUE,TRUE,,34.65128684,135.6015432
64011,"大阪府東大阪市","花園小学校","大阪府東大阪市花園本町２-７-４１",TRUE,TRUE,,TRUE,,TRUE,TRUE,,34.65791648,135.6189979
64012,"大阪府東大阪市","花園北小学校","大阪府東大阪市花園本町１-３-２９",TRUE,TRUE,,TRUE,,TRUE,TRUE,,34.66118018,135.6190784
64013,"大阪府東大阪市","花園中学校","大阪府東大阪市玉串町西１-４-５２",TRUE,TRUE,,TRUE,,TRUE,TRUE,,34.65643168,135.6155309
64014,"大阪府東大阪市","玉串小学校","大阪府東大阪市玉串町西２-４-１２",TRUE,TRUE,,TRUE,,TRUE,TRUE,,34.65314342,135.614812
64015,"大阪府東大阪市","楠根東小学校","大阪府東大阪市七軒家１７-３３",TRUE,TRUE,,TRUE,,TRUE,TRUE,,34.68630379,135.5904506
64016,"大阪府東大阪市","楠根中学校","大阪府東大阪市稲田本町２-６-３４",TRUE,TRUE,,TRUE,,TRUE,TRUE,,34.68565002,135.580521
64017,"大阪府東大阪市","森河内小学校","大阪府東大阪市森河内東１-３２-２４",TRUE,TRUE,,TRUE,,TRUE,TRUE,,34.68354198,135.5687235
64018,"大阪府東大阪市","楠根小学校","大阪府東大阪市稲田本町１-１-４３",TRUE,TRUE,,TRUE,,TRUE,TRUE,,34.68373563,135.5791385
64019,"大阪府東大阪市","高井田中学校","大阪府東大阪市高井田中５-２-５",TRUE,TRUE,,TRUE,,TRUE,TRUE,,34.67715145,135.56887
64020,"大阪府東大阪市","高井田西小学校","大阪府東大阪市高井田本通６-１-７",TRUE,TRUE,,TRUE,,TRUE,TRUE,,34.67635296,135.5673036
64021,"大阪府東大阪市","新喜多中学校","大阪府東大阪市新喜多２-５-３２",TRUE,TRUE,,TRUE,,TRUE,TRUE,,34.67378556,135.5746641
64022,"大阪府東大阪市","西堤小学校","大阪府東大阪市西堤学園町２-６-１４",TRUE,TRUE,,TRUE,,TRUE,TRUE,,34.6747696,135.5818295
64023,"大阪府東大阪市","藤戸小学校","大阪府東大阪市藤戸新田１-３-４５",TRUE,TRUE,,TRUE,,TRUE,TRUE,,34.67414574,135.5871272
64024,"大阪府東大阪市","意岐部東小学校","大阪府東大阪市荒本西１-３-４６",TRUE,TRUE,,TRUE,,TRUE,TRUE,,34.67265485,135.5995077
64025,"大阪府東大阪市","意岐部小学校","大阪府東大阪市新家２-１１-５２",TRUE,TRUE,,TRUE,,TRUE,TRUE,,34.6722984,135.5945413
64026,"大阪府東大阪市","意岐部中学校","大阪府東大阪市御厨東２-９-４５",TRUE,TRUE,,TRUE,,TRUE,TRUE,,34.66787563,135.5954195
64027,"大阪府東大阪市","高井田東小学校","大阪府東大阪市長栄寺１５-２６",TRUE,TRUE,,TRUE,,TRUE,TRUE,,34.66793123,135.5714765
64028,"大阪府東大阪市","長堂小学校","大阪府東大阪市長堂１-１７-８",TRUE,TRUE,,TRUE,,TRUE,TRUE,,34.66763605,135.5634354
64029,"大阪府東大阪市","長栄中学校","大阪府東大阪市長栄寺１２-３０",TRUE,TRUE,,TRUE,,TRUE,TRUE,,34.66728266,135.5700603
64030,"大阪府東大阪市","八戸の里小学校","大阪府東大阪市下小阪５-３-５",TRUE,TRUE,,TRUE,,TRUE,TRUE,,34.66294767,135.5903055
64031,"大阪府東大阪市","荒川小学校","大阪府東大阪市荒川３-２３-７",TRUE,TRUE,,TRUE,,TRUE,TRUE,,34.66144137,135.5707255
64032,"大阪府東大阪市","布施中学校","大阪府東大阪市荒川２-３２-４０",TRUE,TRUE,,TRUE,,TRUE,TRUE,,34.65838701,135.567412
64033,"大阪府東大阪市","桜橋小学校","大阪府東大阪市菱屋西４-１０-７",TRUE,TRUE,,TRUE,,TRUE,TRUE,,34.6587721,135.5783364
64034,"大阪府東大阪市","小阪小学校","大阪府東大阪市中小阪１-２１-１５",TRUE,TRUE,,TRUE,,TRUE,TRUE,,34.65770163,135.5851287
64035,"大阪府東大阪市","八戸の里東小学校","大阪府東大阪市中小阪５-１７-８",TRUE,TRUE,,TRUE,,TRUE,TRUE,,34.66019492,135.5935745
64036,"大阪府東大阪市","小阪中学校","大阪府東大阪市宝持１-７-５",TRUE,TRUE,,TRUE,,TRUE,TRUE,,34.65659848,135.5875427
64037,"大阪府東大阪市","上小阪小学校","大阪府東大阪市上小阪３-１５-４０",TRUE,TRUE,,TRUE,,TRUE,TRUE,,34.65378384,135.5844149
64038,"大阪府東大阪市","上小阪中学校","大阪府東大阪市上小阪２-６-５",TRUE,TRUE,,TRUE,,TRUE,TRUE,,34.65439722,135.5818776
64039,"大阪府東大阪市","布施小学校","大阪府東大阪市寺前町２-１-６",TRUE,TRUE,,TRUE,,TRUE,TRUE,,34.65535465,135.5659296
64040,"大阪府東大阪市","長瀬北小学校","大阪府東大阪市吉松２-１３-１５",TRUE,TRUE,,TRUE,,TRUE,TRUE,,34.64728389,135.5759058
64041,"大阪府東大阪市","柏田小学校","大阪府東大阪市柏田西３-７-４４",TRUE,TRUE,,TRUE,,TRUE,TRUE,,34.6453117,135.5674359
64042,"大阪府東大阪市","柏田中学校","大阪府東大阪市柏田西３-１１-２８",TRUE,TRUE,,TRUE,,TRUE,TRUE,,34.64375382,135.5651292
64043,"大阪府東大阪市","弥刀小学校","大阪府東大阪市友井１-１-３７",TRUE,TRUE,,TRUE,,TRUE,TRUE,,34.64567198,135.5821523
64044,"大阪府東大阪市","弥刀中学校","大阪府東大阪市近江堂３-４-２７",TRUE,TRUE,,TRUE,,TRUE,TRUE,,34.64593236,135.5869213
64045,"大阪府東大阪市","弥刀東小学校","大阪府東大阪市友井２-２８-１２",TRUE,TRUE,,TRUE,,TRUE,TRUE,,34.64506807,135.5882546
64046,"大阪府東大阪市","金岡中学校","大阪府東大阪市金岡１-２３-９",TRUE,TRUE,,TRUE,,TRUE,TRUE,,34.64206329,135.580544
64047,"大阪府東大阪市","長瀬西小学校","大阪府東大阪市衣摺５-８-５１",TRUE,TRUE,,TRUE,,TRUE,TRUE,,34.64106383,135.5707471
64048,"大阪府東大阪市","長瀬中学校","大阪府東大阪市大蓮北４-７-４３",TRUE,TRUE,,TRUE,,TRUE,TRUE,,34.63825197,135.5706716
64049,"大阪府東大阪市","長瀬南小学校","大阪府東大阪市大蓮北４-３-５１",TRUE,TRUE,,TRUE,,TRUE,TRUE,,34.63696318,135.572973
64050,"大阪府東大阪市","大蓮小学校","大阪府東大阪市大蓮南５-８-５０",TRUE,TRUE,,TRUE,,TRUE,TRUE,,34.63582138,135.5708107
64051,"大阪府東大阪市","長瀬東小学校","大阪府東大阪市大蓮東２-１２-８",TRUE,TRUE,,TRUE,,TRUE,TRUE,,34.6378232,135.5836487
64052,"大阪府東大阪市","大阪商業大学","大阪府東大阪市御厨栄町４−１−１０",TRUE,TRUE,,TRUE,,TRUE,TRUE,,34.66675721,135.5864389
64171,"大阪府東大阪市","大阪府立枚岡樟風高等学校","大阪府東大阪市鷹殿町18-1",TRUE,TRUE,,TRUE,,TRUE,TRUE,,34.66915741,135.6368715
64172,"大阪府東大阪市","大阪府立かわち野高等学校","大阪府東大阪市新庄四丁目11-95",TRUE,TRUE,,TRUE,,TRUE,TRUE,,34.69003056,135.6110693
64173,"大阪府東大阪市","大阪府立みどり清朋高等学校","大阪府東大阪市池島町六丁目3-9",TRUE,TRUE,,TRUE,,TRUE,TRUE,,34.64592001,135.6266387
64174,"大阪府東大阪市","大阪府立花園高等学校","大阪府東大阪市花園東町三丁目1-25",TRUE,TRUE,,TRUE,,TRUE,TRUE,,34.65843012,135.6226924
64175,"大阪府東大阪市","大阪府立布施北高等学校","大阪府東大阪市荒本西一丁目2-72",TRUE,TRUE,,TRUE,,TRUE,TRUE,,34.671782,135.6008685
64176,"大阪府東大阪市","大阪府立布施工科高等学校","大阪府東大阪市宝持三丁目7-5",TRUE,TRUE,,TRUE,,TRUE,TRUE,,34.65423846,135.592472
64177,"大阪府東大阪市","大阪府立布施高等学校","大阪府東大阪市下小阪三丁目14-21",TRUE,TRUE,,TRUE,,TRUE,TRUE,,34.6618339,135.5875326
64178,"大阪府東大阪市","近畿大学","大阪府東大阪市小若江三丁目4-1",TRUE,TRUE,,TRUE,,TRUE,TRUE,,34.65160672,135.5874673
64179,"大阪府泉南市","泉南中学校","大阪府泉南市樽井2-9-1",,,,TRUE,,TRUE,,,34.36560756,135.2724816
64180,"大阪府泉南市","西信達中学校","大阪府泉南市岡田3-24-1",,,,TRUE,TRUE,TRUE,,,34.38319604,135.2800744
64181,"大阪府泉南市","一丘中学校","大阪府泉南市信達市場543-12",,,,TRUE,,TRUE,,,34.3681779,135.2880076
64182,"大阪府泉南市","信達中学校","大阪府泉南市信達市場34-1",,TRUE,,TRUE,,TRUE,,,34.35704992,135.2816658
64183,"大阪府泉南市","新家小学校","大阪府泉南市新家975",TRUE,TRUE,,TRUE,,,,,34.3665486,135.3012406
64184,"大阪府泉南市","信達小学校","大阪府泉南市信達牧野705",,,,TRUE,,,,,34.36475966,135.2770202
64185,"大阪府泉南市","東小学校","大阪府泉南市信達金熊寺553",TRUE,TRUE,,TRUE,,,,,34.33638636,135.2914629
64186,"大阪府泉南市","西信達小学校","大阪府泉南市岡田5-24-1",,,,TRUE,,,,,34.384891,135.2768874
64187,"大阪府泉南市","鳴滝小学校","大阪府泉南市信達市場1602",,,,TRUE,,,,,34.36975266,135.2753523
64188,"大阪府泉南市","樽井小学校","大阪府泉南市樽井4-29-1",,,,TRUE,TRUE,,,,34.37051147,135.2581213
64189,"大阪府泉南市","雄信小学校","大阪府泉南市男里3-11-1",,,,TRUE,TRUE,,,,34.36030401,135.2566799
64190,"大阪府泉南市","砂川小学校","大阪府泉南市信達市場450-6",,TRUE,,TRUE,,,,,34.36373859,135.2935876
64191,"大阪府泉南市","一丘小学校","大阪府泉南市新家285-7",TRUE,,,TRUE,,,,,34.37101894,135.2936302
64192,"大阪府泉南市","新家東小学校","大阪府泉南市兎田729-3",,,,TRUE,,,,,34.37370362,135.3086684
64193,"大阪府泉南市","くすのき幼稚園","大阪府泉南市馬場1-3-1",,,,TRUE,,,,,34.36287903,135.2707144
64194,"大阪府泉南市","ニチイキッズ泉南保育園","大阪府泉南市樽井8-7-5",,,,TRUE,TRUE,,,,34.37468619,135.2698987
64195,"大阪府泉南市","浜保育所","大阪府泉南市男里7-13-1",,,,TRUE,,,,,34.37429606,135.2557422
64196,"大阪府泉南市","新家公民館","大阪府泉南市新家2948",TRUE,,,TRUE,,,,,34.37096104,135.2987885
64197,"大阪府泉南市","信達公民館","大阪府泉南市信達牧野413",,,,TRUE,,,,,34.36266668,135.2808921
64198,"大阪府泉南市","西信達公民館","大阪府泉南市岡田3-9-7",,,,TRUE,TRUE,,,,34.38388925,135.2773748
64199,"大阪府泉南市","樽井公民館","大阪府泉南市樽井6-11-16",,,,TRUE,TRUE,,,,34.37206705,135.2630187
64200,"大阪府泉南市","人権ふれあいセンター","大阪府泉南市樽井9-16-2",,,,TRUE,TRUE,,,,34.37240543,135.2716769
64201,"大阪府泉南市","岡中老人集会場","大阪府泉南市信達岡中620",,TRUE,,TRUE,,,,,34.34996191,135.2743114
64202,"大阪府泉南市","浜老人集会場","大阪府泉南市男里7-29-20",,,,TRUE,,,,,34.37105073,135.2529041
64203,"大阪府泉南市","下村老人集会場","大阪府泉南市新家3552-1",,,,TRUE,,,,,34.37608231,135.2966179
64204,"大阪府泉南市","中村老人集会場","大阪府泉南市新家2976-5",TRUE,,,TRUE,,,,,34.37224545,135.2970572
64205,"大阪府泉南市","別所老人集会場","大阪府泉南市別所222",,TRUE,,TRUE,,,,,34.36386422,135.3210058
64206,"大阪府泉南市","市場老人集会場","大阪府泉南市信達市場2076-1",,,,TRUE,,,,,34.3687495,135.2830417
64208,"大阪府泉南市","六尾老人集会場","大阪府泉南市信達六尾324-2",TRUE,TRUE,,TRUE,,,,,34.34456442,135.2885722
64209,"大阪府泉南市","幡代老人集会場","大阪府泉南市幡代1-13-19",TRUE,,,TRUE,,,,,34.35504775,135.2636313
64210,"大阪府泉南市","砂川老人集会場","大阪府泉南市信達市場222-6",,TRUE,,TRUE,,,,,34.3607645,135.2892059
64211,"大阪府泉南市","大苗代老人集会場","大阪府泉南市信達大苗代600-1",,,,TRUE,,,,,34.37429428,135.2854165
64212,"大阪府泉南市","埋蔵文化財センター","大阪府泉南市信達大苗代374-4",,,,TRUE,,,,,34.37530345,135.2893504
64213,"大阪府泉南市","樽井防災コミュニティセンター","大阪府泉南市樽井5-14-12",,,,TRUE,TRUE,,,,34.3712028,135.262939
64214,"大阪府泉南市","府立りんくう翔南高等学校","大阪府泉南市樽井2-35-54",,,,TRUE,TRUE,,,,34.36710652,135.2652166
64217,"大阪府四條畷市","田原小学校","大阪府四條畷市田原台４−２−１",TRUE,TRUE,,TRUE,,TRUE,TRUE,,34.72745052,135.6935055
64218,"大阪府四條畷市","四條畷小学校","大阪府四條畷市中野８７２",TRUE,TRUE,,TRUE,,TRUE,TRUE,,34.73963289,135.6454767
64219,"大阪府四條畷市","四條畷南小学校","大阪府四條畷市中野新町１１−３８",TRUE,TRUE,,TRUE,,TRUE,TRUE,,34.73823112,135.6394452
64220,"大阪府四條畷市","くすのき小学校","大阪府四條畷市二丁通町１８−１",TRUE,TRUE,,TRUE,,TRUE,TRUE,,34.7354617,135.6279139
64221,"大阪府四條畷市","忍ヶ丘小学校","大阪府四條畷市岡山東５−２−４０",TRUE,TRUE,,TRUE,,TRUE,TRUE,,34.74409589,135.6536359
64222,"大阪府四條畷市","四條畷東小学校","大阪府四條畷市南野６−１−２５",TRUE,,,TRUE,,TRUE,TRUE,,34.73709286,135.6492676
64223,"大阪府四條畷市","岡部小学校","大阪府四條畷市砂１−７−２６",TRUE,TRUE,,TRUE,,TRUE,TRUE,,34.74459317,135.6351883
64224,"大阪府四條畷市","四條畷中学校","大阪府四條畷市岡山東５−２−１０",TRUE,TRUE,,TRUE,,TRUE,TRUE,,34.74365183,135.6527108
64225,"大阪府四條畷市","四條畷南中学校","大阪府四條畷市南野５−５−１",TRUE,,,TRUE,,TRUE,TRUE,,34.73676664,135.6451585
64226,"大阪府四條畷市","四條畷西中学校","大阪府四條畷市蔀屋２８５−２１",TRUE,TRUE,,TRUE,,TRUE,TRUE,,34.74092342,135.6332083
64227,"大阪府四條畷市","四條畷高等学校","大阪府四條畷市雁屋北町１−１",TRUE,TRUE,,TRUE,,TRUE,TRUE,,34.73529304,135.6361273
64228,"大阪府四條畷市","四條畷学園高等学校","大阪府大東市学園町６−４５",TRUE,TRUE,,TRUE,,TRUE,TRUE,,34.73208324,135.6409417
64229,"大阪府四條畷市","大阪電気通信大学","大阪府四條畷市清瀧１１３０−７０",TRUE,TRUE,,TRUE,,TRUE,TRUE,,34.74367991,135.6600573
64231,"大阪府交野市","交野小学校","大阪府交野市私部１−５４−１",TRUE,TRUE,,TRUE,,TRUE,TRUE,,34.78745326,135.6863328
64232,"大阪府交野市","星田小学校","大阪府交野市星田３−３３−４",TRUE,TRUE,,TRUE,,TRUE,TRUE,,34.76641087,135.6667707
64233,"大阪府交野市","郡津小学校","大阪府交野市郡津４−１３−１",TRUE,TRUE,,TRUE,,TRUE,TRUE,,34.79233542,135.6739992
64234,"大阪府交野市","岩船小学校","大阪府交野市森北１−２５−１",TRUE,TRUE,,TRUE,,TRUE,TRUE,,34.77852544,135.6861886
64235,"大阪府交野市","倉治小学校","大阪府交野市倉治１−１５−１",TRUE,TRUE,,TRUE,,TRUE,TRUE,,34.79387882,135.6937973
64236,"大阪府交野市","妙見坂小学校","大阪府交野市妙見坂７−２０−１",TRUE,TRUE,,TRUE,,TRUE,TRUE,,34.76158103,135.6768085
64237,"大阪府交野市","長宝寺小学校","大阪府交野市郡津１−４３−１",TRUE,TRUE,,TRUE,,TRUE,TRUE,,34.79120394,135.6759367
64238,"大阪府交野市","旭小学校","大阪府交野市星田４−１８−１",TRUE,TRUE,,TRUE,,TRUE,TRUE,,34.76474922,135.6646396
64239,"大阪府交野市","藤が尾小学校","大阪府交野市星田北２−４５−１",TRUE,TRUE,,TRUE,,TRUE,TRUE,,34.77301612,135.6735826
64240,"大阪府交野市","私市小学校","大阪府交野市私市９−５−１０",TRUE,TRUE,,TRUE,,TRUE,TRUE,,34.76485722,135.6881208
64241,"大阪府交野市","第一中学校","大阪府交野市私部南３−１−１",TRUE,TRUE,,TRUE,,TRUE,TRUE,,34.78273695,135.6836422
64242,"大阪府交野市","第２中学校","大阪府交野市幾野４−１−１",TRUE,TRUE,,TRUE,,TRUE,TRUE,,34.79548851,135.6816325
64243,"大阪府交野市","第３中学校","大阪府交野市星田８−６７−１",TRUE,TRUE,,TRUE,,TRUE,TRUE,,34.76105873,135.6692066
64244,"大阪府交野市","第４中学校","大阪府交野市天野が原町５−６５−１",TRUE,TRUE,,TRUE,,TRUE,TRUE,,34.77600768,135.6789123
64249,"大阪府大阪狭山市","東小学校","大阪府大阪狭山市狭山三丁目2497-1",TRUE,TRUE,,TRUE,,TRUE,TRUE,,34.50626745,135.5550292
64250,"大阪府大阪狭山市","西小学校","大阪府大阪狭山市今熊一丁目22",TRUE,TRUE,,TRUE,,TRUE,TRUE,,34.49706484,135.5453038
64251,"大阪府大阪狭山市","南第一小学校","大阪府大阪狭山市西山台三丁目2-1",TRUE,TRUE,,TRUE,,TRUE,TRUE,,34.48774496,135.5423121
64252,"大阪府大阪狭山市","南第二小学校","大阪府大阪狭山市大野台三丁目23-1",TRUE,TRUE,,TRUE,,TRUE,TRUE,,34.47782107,135.5404417
64253,"大阪府大阪狭山市","南第三小学校","大阪府大阪狭山市西山台六丁目19-７",TRUE,TRUE,,TRUE,,TRUE,TRUE,,34.4881066,135.5359281
64254,"大阪府大阪狭山市","北小学校","大阪府大阪狭山市池尻北二丁目20-７",TRUE,TRUE,,TRUE,,TRUE,TRUE,,34.51458545,135.5545979
64255,"大阪府大阪狭山市","第七小学校","大阪府大阪狭山市東茱萸木二丁目865",TRUE,TRUE,,TRUE,,TRUE,TRUE,,34.48652841,135.5542237
64256,"大阪府大阪狭山市","狭山中学校","大阪府大阪狭山市狭山四丁目2272-2",TRUE,TRUE,,TRUE,,TRUE,TRUE,,34.50586562,135.5559631
64257,"大阪府大阪狭山市","南中学校","大阪府大阪狭山市大野台三丁目2-1",TRUE,TRUE,,TRUE,,TRUE,TRUE,,34.48024449,135.5468504
64258,"大阪府大阪狭山市","第三中学校","大阪府大阪狭山市茱萸木二丁目397",TRUE,TRUE,,TRUE,,TRUE,TRUE,,34.49074628,135.5512931
64259,"大阪府大阪狭山市","東野幼稚園","大阪府大阪狭山市東野中二丁目22",TRUE,TRUE,,TRUE,,TRUE,TRUE,,34.51939282,135.558989
64260,"大阪府大阪狭山市","総合体育館","大阪府大阪狭山市池之原四丁目248",TRUE,TRUE,,TRUE,,TRUE,TRUE,,34.50616776,135.5404871
64261,"大阪府大阪狭山市","池尻体育館","大阪府大阪狭山市池尻中三丁目639-11",TRUE,TRUE,,TRUE,,TRUE,TRUE,,34.50889711,135.5508958
64262,"大阪府大阪狭山市","府立狭山高等学校","大阪府大阪狭山市半田四丁目1510",TRUE,TRUE,,TRUE,,TRUE,TRUE,,34.49525826,135.549478
64263,"大阪府阪南市","尾崎中学校","大阪府阪南市尾崎町5-33-14",TRUE,,TRUE,TRUE,,TRUE,TRUE,,34.36963544,135.247945
64264,"大阪府阪南市","鳥取東中学校","大阪府阪南市和泉鳥取1455",TRUE,TRUE,TRUE,TRUE,TRUE,TRUE,TRUE,,34.34647667,135.2646579
64265,"大阪府阪南市","貝掛中学校","大阪府阪南市貝掛1372",TRUE,TRUE,TRUE,TRUE,TRUE,TRUE,TRUE,,34.33999024,135.2211623
64266,"大阪府阪南市","飯の峯中学校","大阪府阪南市桃の木台3-9-1",TRUE,TRUE,TRUE,TRUE,TRUE,TRUE,TRUE,,34.33039377,135.2256563
64267,"大阪府阪南市","尾崎小学校","大阪府阪南市尾崎町5-33-8",TRUE,,TRUE,TRUE,,TRUE,TRUE,,34.36854618,135.248106
64268,"大阪府阪南市","西鳥取小学校","大阪府阪南市鳥取72",TRUE,TRUE,TRUE,TRUE,TRUE,TRUE,TRUE,,34.35549618,135.2336913
64269,"大阪府阪南市","舞小学校","大阪府阪南市舞4-6-31",TRUE,TRUE,,TRUE,TRUE,TRUE,TRUE,,34.33897675,135.2298326
64270,"大阪府阪南市","下荘小学校","大阪府阪南市箱作1055",TRUE,TRUE,TRUE,TRUE,TRUE,TRUE,TRUE,,34.34139055,135.2106983
64271,"大阪府阪南市","箱作小学校","大阪府阪南市箱作2320",TRUE,TRUE,TRUE,TRUE,TRUE,TRUE,TRUE,,34.33624359,135.2048882
64272,"大阪府阪南市","東鳥取小学校","大阪府阪南市自然田1454",TRUE,TRUE,TRUE,TRUE,TRUE,TRUE,TRUE,,34.34874822,135.249191
64273,"大阪府阪南市","波太小学校","大阪府阪南市石田600一1",TRUE,TRUE,TRUE,TRUE,TRUE,TRUE,TRUE,,34.35077487,135.246689
64274,"大阪府阪南市","朝日小学校","大阪府阪南市自然田272-1",TRUE,TRUE,,TRUE,TRUE,TRUE,TRUE,,34.34732262,135.2626302
64275,"大阪府阪南市","上荘小学校","大阪府阪南市下出548-1",TRUE,,TRUE,TRUE,TRUE,TRUE,TRUE,,34.35560006,135.2475615
64276,"大阪府阪南市","桃の木台小学校","大阪府阪南市桃の木台5-423-33",TRUE,TRUE,TRUE,TRUE,TRUE,TRUE,TRUE,,34.32716511,135.2206437
64277,"大阪府阪南市","府立泉鳥取高校","大阪府阪南市緑ヶ丘1-1-10",TRUE,TRUE,,TRUE,TRUE,TRUE,TRUE,,34.33931689,135.2591311
64281,"大阪府島本町","第一小学校","大阪府島本町広瀬1-5-5",,TRUE,,TRUE,,TRUE,TRUE,,34.88476216,135.6695756
64282,"大阪府島本町","第二小学校","大阪府島本町東大寺4-167",TRUE,TRUE,,TRUE,,TRUE,TRUE,,34.88994834,135.6630883
64283,"大阪府島本町","第二中学校","大阪府島本町東大寺4-150",TRUE,TRUE,,TRUE,,TRUE,TRUE,,34.89149991,135.6621171
64284,"大阪府島本町","ふれあいセンター","大阪府島本町桜井3-4-1",TRUE,TRUE,,TRUE,,TRUE,TRUE,,34.88286757,135.6608952
64285,"大阪府島本町","第三小学校","大阪府島本町桜井2-25-1",TRUE,TRUE,,TRUE,,TRUE,TRUE,,34.87738188,135.659977
64286,"大阪府島本町","第一中学校","大阪府島本町水無瀬1-19-4",,TRUE,,TRUE,,TRUE,TRUE,,34.87963723,135.6676668
64287,"大阪府島本町","第四小学校","大阪府島本町高浜2-2-1",,TRUE,,TRUE,,TRUE,TRUE,,34.87595811,135.6681909
64293,"大阪府豊能町","東能勢中学校体育館","大阪府豊能郡豊能町余野159-2.",TRUE,TRUE,,TRUE,,,,,34.91946297,135.4952417
64294,"大阪府豊能町","高山コミュニティセンタ-","大阪府豊能郡豊能町高山10",TRUE,,,TRUE,,,,,34.88868488,135.4892886
64295,"大阪府豊能町","吉川小学校体育館","大阪府豊能郡豊能町吉川419",TRUE,,,TRUE,,,,,34.91612143,135.4455158
64296,"大阪府豊能町","吉川中学校体育館","大阪府豊能郡豊能町東ときわ台1-3-2",TRUE,TRUE,,TRUE,,,,,34.90189825,135.4438097
64297,"大阪府豊能町","光風台小学校体育館","大阪府豊能郡豊能町新光風台1-5-1",TRUE,TRUE,,TRUE,,,,,34.903651,135.4313054
64300,"大阪府能勢町","町立西中学校","大阪府能勢町森上33",TRUE,TRUE,,TRUE,,TRUE,,,34.96917603,135.39536
64301,"大阪府能勢町","町立のせ保育所","大阪府能勢町今西25-1",TRUE,TRUE,,TRUE,,TRUE,,,34.96811343,135.3897189
64302,"大阪府能勢町","町立久々佐小学校","大阪府能勢町宿野866",TRUE,TRUE,,TRUE,,TRUE,,,34.97351993,135.4139501
64303,"大阪府能勢町","淨るりシアター","大阪府能勢町宿野30",TRUE,TRUE,,TRUE,,TRUE,,,34.97235229,135.4134632
64304,"大阪府能勢町","能勢町保健福祉 センター","大阪府能勢町栗栖82-1",TRUE,TRUE,,TRUE,,TRUE,,,34.96598429,135.4068566
64305,"大阪府能勢町","町立能勢小学校・能勢中学校","大阪府能勢町平野110",TRUE,TRUE,,TRUE,,TRUE,,,34.95427881,135.4014456
64306,"大阪府忠岡町","忠岡小学校","大阪府忠岡町忠岡南１−１２−３０",TRUE,,,,,,,,34.48970897,135.3938567
64307,"大阪府忠岡町","総合福祉センター","大阪府忠岡町忠岡南１−９−１５",TRUE,,,,,,,,34.48870645,135.3952779
64308,"大阪府忠岡町","文化会館","大阪府忠岡町忠岡南１−１８−１７",TRUE,,,,,,,,34.48907483,135.395695
64309,"大阪府忠岡町","忠岡中学校","大阪府忠岡町忠岡東１−１７−５",,,,,TRUE,,,,34.48804858,135.3992412
64310,"大阪府忠岡町","シビックセンター","大阪府忠岡町忠岡東１−３４−１",TRUE,,,,TRUE,,,,34.48718294,135.4014574
64311,"大阪府忠岡町","東忠岡小学校","大阪府忠岡町馬瀬２−１７−１",,,,,TRUE,,,,34.48428208,135.4052038
64312,"大阪府忠岡町","高月コミュニティーセンター","大阪府忠岡町高月南３−３−５",,,,,TRUE,,,,34.47897803,135.41219
64313,"大阪府忠岡町","忠岡保育所","大阪府忠岡町忠岡中２−１６−２７",TRUE,,,,,,,,34.4937321,135.3932958
64314,"大阪府忠岡町","忠岡幼稚園","大阪府忠岡町忠岡南１−１２−４４",,,,,,,,,34.48901804,135.3946191
64315,"大阪府忠岡町","東忠岡保育所","大阪府忠岡町馬瀬２−１７−３",,,,,TRUE,,,,34.48393947,135.4058516
64316,"大阪府忠岡町","東忠岡幼稚園","大阪府忠岡町馬瀬２−１７−２",,,,,TRUE,,,,34.48445682,135.4058516
64337,"大阪府熊取町","中央小学校グランド","大阪府熊取町野田2-2-1",TRUE,TRUE,,TRUE,,TRUE,TRUE,,34.39986953,135.3561017
64338,"大阪府熊取町","東小学校グランド","大阪府熊取町久保4-1306-1",TRUE,TRUE,,TRUE,,TRUE,TRUE,,34.3912193,135.3706269
64339,"大阪府熊取町","西小学校グランド","大阪府熊取町大久保南1-1589",TRUE,TRUE,,TRUE,,TRUE,TRUE,,34.39529676,135.3440706
64340,"大阪府熊取町","南小学校グランド","大阪府熊取町朝代東4-16-1",TRUE,TRUE,,TRUE,,TRUE,TRUE,,34.38458356,135.3563198
64341,"大阪府熊取町","北小学校グランド","大阪府熊取町希望が丘4-14-1",TRUE,TRUE,,TRUE,,TRUE,TRUE,,34.40655837,135.3648575
64346,"大阪府田尻町","田尻町総合保健福祉センター","大阪府田尻町嘉祥寺883-１",TRUE,TRUE,TRUE,TRUE,,,TRUE,,34.39612897,135.2894106
64357,"大阪府太子町","万葉ホール","大阪府南河内郡太子町山田104−1",TRUE,TRUE,,TRUE,,TRUE,,,34.51884857,135.6474758
64358,"大阪府太子町","磯長小学校（体育館）","大阪府南河内郡太子町春日1569",,,,TRUE,,TRUE,,,34.51953405,135.6430338
64360,"大阪府太子町","山田小学校（体育館）","大阪府南河内郡太子町山田372",,,,TRUE,,TRUE,,,34.51532615,135.6518422
64362,"大阪府太子町","町立中学校（体育館）","大阪府南河内郡太子町春日1479",,,,TRUE,,TRUE,,,34.51591068,135.646162
64364,"大阪府太子町","春日集会所","大阪府南河内郡太子町春日1423−5",TRUE,,,,,,,,34.52393436,135.64683
64365,"大阪府太子町","山田集会所","大阪府南河内郡太子町山田301−1",,TRUE,,,,,,,34.5167443,135.6509053
64366,"大阪府太子町","葉室集会所","大阪府南河内郡太子町葉室1083",TRUE,,,,,,,,34.51144413,135.6400975
64367,"大阪府太子町","畑集会所","大阪府南河内郡太子町畑315−1",,TRUE,,,,,,,34.504708,135.65943
64368,"大阪府太子町","伽山集会所","大阪府南河内郡太子町太子724−1",TRUE,TRUE,,,,,,,34.51713358,135.6315874
64369,"大阪府太子町","上宮太子中学校・高等学校（体育館）","大阪府南河内郡太子町太子1050",,,,TRUE,,TRUE,,,34.51611476,135.6374185
64376,"大阪府河南町","大阪芸術大学グラウンド","大阪府河南町東山469",TRUE,TRUE,,TRUE,,TRUE,TRUE,,34.50939283,135.631415
64378,"大阪府河南町","石川保育園運動場","大阪府河南町一須賀76",TRUE,TRUE,,TRUE,,TRUE,TRUE,,34.50809885,135.6239322
64380,"大阪府河南町","中学校運動場","大阪府河南町白木1285",TRUE,TRUE,,TRUE,,TRUE,TRUE,,34.49073268,135.6295166
64381,"大阪府河南町","白木小学校運動場","大阪府河南町加納740",TRUE,TRUE,,TRUE,,TRUE,TRUE,,34.48835132,135.6428123
64385,"大阪府河南町","河内小学校運動場","大阪府河南町さくら坂1-1-1",,TRUE,,TRUE,,TRUE,,,34.47531379,135.6491615
64394,"大阪府河南町","中村小学校運動場","大阪府河南町神山19",TRUE,TRUE,,TRUE,,TRUE,TRUE,,34.47883775,135.6267127
64398,"大阪府河南町","近つ飛鳥小学校運動場","大阪府河南町大宝3-4-1",,TRUE,,TRUE,,TRUE,,,34.50340303,135.6390209
64409,"大阪府千早赤阪村","B&G海洋センター体育館","南河内郡千早赤阪村大字東阪255-1",TRUE,TRUE,,TRUE,,TRUE,,,34.44990755,135.6167384
64410,"大阪府千早赤阪村","くすのきホール","南河内郡千早赤阪村大字水分263",TRUE,TRUE,,TRUE,,TRUE,,,34.46377824,135.6258755
64411,"大阪府千早赤阪村","千早小吹台小学校体育館","南河内郡千早赤阪村大字小吹68-780",TRUE,TRUE,,TRUE,,TRUE,,,34.43938323,135.6079832
64412,"大阪府千早赤阪村","赤阪小学校体育館","南河内郡千早赤阪村大字水分56",TRUE,TRUE,,TRUE,,TRUE,,,34.46615771,135.6244485
64413,"大阪府千早赤阪村","保健センター","南河内郡千早赤阪村大字水分195-1",TRUE,TRUE,,TRUE,,TRUE,,,34.4635969,135.6225549
64414,"大阪府千早赤阪村","いきいきサロンくすのき","南河内郡千早赤阪村大字二河原邊8-1",TRUE,TRUE,,TRUE,,TRUE,,,34.46389791,135.6262478
